{
  "type": "FeatureCollection",
  "features": [
    {
      "type": "Feature",
      "geometry": {
        "type": "Point",
        "coordinates": [
          107.7556,
          -6.938
        ]
      },
      "properties": {
        "location_name": "Jatinangor, Sumedang",
        "slug": "jatinangor",
        "date": "Senin, 7 September 2026",
        "date_iso": "2026-09-07",
        "relative": "Hari ini",
        "hour": "00:00",
        "rain_probability": null,
        "risk_score": 18,
        "risk_class": "safe",
        "risk_label": "Aman",
        "condition": "Cerah Berawan",
        "temp_c": 18.3,
        "humidity_pct": 86.0,
        "heat_index_c": 18.3,
        "wind_kmh": 6.5,
        "wind_dir": 143.0,
        "cloud_pct": 70.0
      }
    },
    {
      "type": "Feature",
      "geometry": {
        "type": "Point",
        "coordinates": [
          107.7556,
          -6.938
        ]
      },
      "properties": {
        "location_name": "Jatinangor, Sumedang",
        "slug": "jatinangor",
        "date": "Senin, 7 September 2026",
        "date_iso": "2026-09-07",
        "relative": "Hari ini",
        "hour": "01:00",
        "rain_probability": null,
        "risk_score": 20,
        "risk_class": "safe",
        "risk_label": "Aman",
        "condition": "Berawan",
        "temp_c": 17.8,
        "humidity_pct": 89.0,
        "heat_index_c": 17.8,
        "wind_kmh": 6.4,
        "wind_dir": 144.0,
        "cloud_pct": 47.0
      }
    },
    {
      "type": "Feature",
      "geometry": {
        "type": "Point",
        "coordinates": [
          107.7556,
          -6.938
        ]
      },
      "properties": {
        "location_name": "Jatinangor, Sumedang",
        "slug": "jatinangor",
        "date": "Senin, 7 September 2026",
        "date_iso": "2026-09-07",
        "relative": "Hari ini",
        "hour": "02:00",
        "rain_probability": null,
        "risk_score": 20,
        "risk_class": "safe",
        "risk_label": "Aman",
        "condition": "Cerah Berawan",
        "temp_c": 17.1,
        "humidity_pct": 91.0,
        "heat_index_c": 17.1,
        "wind_kmh": 6.6,
        "wind_dir": 146.0,
        "cloud_pct": 22.0
      }
    },
    {
      "type": "Feature",
      "geometry": {
        "type": "Point",
        "coordinates": [
          107.7556,
          -6.938
        ]
      },
      "properties": {
        "location_name": "Jatinangor, Sumedang",
        "slug": "jatinangor",
        "date": "Senin, 7 September 2026",
        "date_iso": "2026-09-07",
        "relative": "Hari ini",
        "hour": "03:00",
        "rain_probability": null,
        "risk_score": 19,
        "risk_class": "safe",
        "risk_label": "Aman",
        "condition": "Cerah Berawan",
        "temp_c": 16.4,
        "humidity_pct": 91.0,
        "heat_index_c": 16.4,
        "wind_kmh": 6.3,
        "wind_dir": 143.0,
        "cloud_pct": 50.0
      }
    },
    {
      "type": "Feature",
      "geometry": {
        "type": "Point",
        "coordinates": [
          107.7556,
          -6.938
        ]
      },
      "properties": {
        "location_name": "Jatinangor, Sumedang",
        "slug": "jatinangor",
        "date": "Senin, 7 September 2026",
        "date_iso": "2026-09-07",
        "relative": "Hari ini",
        "hour": "04:00",
        "rain_probability": null,
        "risk_score": 20,
        "risk_class": "safe",
        "risk_label": "Aman",
        "condition": "Cerah Berawan",
        "temp_c": 16.2,
        "humidity_pct": 91.0,
        "heat_index_c": 16.2,
        "wind_kmh": 6.4,
        "wind_dir": 139.0,
        "cloud_pct": 23.0
      }
    },
    {
      "type": "Feature",
      "geometry": {
        "type": "Point",
        "coordinates": [
          107.7556,
          -6.938
        ]
      },
      "properties": {
        "location_name": "Jatinangor, Sumedang",
        "slug": "jatinangor",
        "date": "Senin, 7 September 2026",
        "date_iso": "2026-09-07",
        "relative": "Hari ini",
        "hour": "05:00",
        "rain_probability": null,
        "risk_score": 20,
        "risk_class": "safe",
        "risk_label": "Aman",
        "condition": "Cerah",
        "temp_c": 16.5,
        "humidity_pct": 90.0,
        "heat_index_c": 16.5,
        "wind_kmh": 6.6,
        "wind_dir": 131.0,
        "cloud_pct": 17.0
      }
    },
    {
      "type": "Feature",
      "geometry": {
        "type": "Point",
        "coordinates": [
          107.7556,
          -6.938
        ]
      },
      "properties": {
        "location_name": "Jatinangor, Sumedang",
        "slug": "jatinangor",
        "date": "Senin, 7 September 2026",
        "date_iso": "2026-09-07",
        "relative": "Hari ini",
        "hour": "06:00",
        "rain_probability": null,
        "risk_score": 19,
        "risk_class": "safe",
        "risk_label": "Aman",
        "condition": "Cerah",
        "temp_c": 17.3,
        "humidity_pct": 89.0,
        "heat_index_c": 17.3,
        "wind_kmh": 6.1,
        "wind_dir": 129.0,
        "cloud_pct": 10.0
      }
    },
    {
      "type": "Feature",
      "geometry": {
        "type": "Point",
        "coordinates": [
          107.7556,
          -6.938
        ]
      },
      "properties": {
        "location_name": "Jatinangor, Sumedang",
        "slug": "jatinangor",
        "date": "Senin, 7 September 2026",
        "date_iso": "2026-09-07",
        "relative": "Hari ini",
        "hour": "07:00",
        "rain_probability": null,
        "risk_score": 17,
        "risk_class": "safe",
        "risk_label": "Aman",
        "condition": "Cerah",
        "temp_c": 19.5,
        "humidity_pct": 82.0,
        "heat_index_c": 19.5,
        "wind_kmh": 5.9,
        "wind_dir": 136.0,
        "cloud_pct": 3.0
      }
    },
    {
      "type": "Feature",
      "geometry": {
        "type": "Point",
        "coordinates": [
          107.7556,
          -6.938
        ]
      },
      "properties": {
        "location_name": "Jatinangor, Sumedang",
        "slug": "jatinangor",
        "date": "Senin, 7 September 2026",
        "date_iso": "2026-09-07",
        "relative": "Hari ini",
        "hour": "08:00",
        "rain_probability": null,
        "risk_score": 15,
        "risk_class": "safe",
        "risk_label": "Aman",
        "condition": "Cerah",
        "temp_c": 22.4,
        "humidity_pct": 70.0,
        "heat_index_c": 22.4,
        "wind_kmh": 6.2,
        "wind_dir": 132.0,
        "cloud_pct": 1.0
      }
    },
    {
      "type": "Feature",
      "geometry": {
        "type": "Point",
        "coordinates": [
          107.7556,
          -6.938
        ]
      },
      "properties": {
        "location_name": "Jatinangor, Sumedang",
        "slug": "jatinangor",
        "date": "Senin, 7 September 2026",
        "date_iso": "2026-09-07",
        "relative": "Hari ini",
        "hour": "09:00",
        "rain_probability": null,
        "risk_score": 13,
        "risk_class": "safe",
        "risk_label": "Aman",
        "condition": "Cerah",
        "temp_c": 25.6,
        "humidity_pct": 59.0,
        "heat_index_c": 25.6,
        "wind_kmh": 7.5,
        "wind_dir": 121.0,
        "cloud_pct": 0.0
      }
    },
    {
      "type": "Feature",
      "geometry": {
        "type": "Point",
        "coordinates": [
          107.7556,
          -6.938
        ]
      },
      "properties": {
        "location_name": "Jatinangor, Sumedang",
        "slug": "jatinangor",
        "date": "Senin, 7 September 2026",
        "date_iso": "2026-09-07",
        "relative": "Hari ini",
        "hour": "10:00",
        "rain_probability": 50.0,
        "risk_score": 50,
        "risk_class": "watch",
        "risk_label": "Perlu diperhatikan",
        "condition": "Cerah",
        "temp_c": 27.9,
        "humidity_pct": 50.0,
        "heat_index_c": 28.0,
        "wind_kmh": 7.6,
        "wind_dir": 106.0,
        "cloud_pct": 2.0
      }
    },
    {
      "type": "Feature",
      "geometry": {
        "type": "Point",
        "coordinates": [
          107.7556,
          -6.938
        ]
      },
      "properties": {
        "location_name": "Jatinangor, Sumedang",
        "slug": "jatinangor",
        "date": "Senin, 7 September 2026",
        "date_iso": "2026-09-07",
        "relative": "Hari ini",
        "hour": "11:00",
        "rain_probability": 50.0,
        "risk_score": 50,
        "risk_class": "watch",
        "risk_label": "Perlu diperhatikan",
        "condition": "Cerah",
        "temp_c": 29.2,
        "humidity_pct": 41.0,
        "heat_index_c": 29.2,
        "wind_kmh": 8.0,
        "wind_dir": 92.0,
        "cloud_pct": 7.0
      }
    },
    {
      "type": "Feature",
      "geometry": {
        "type": "Point",
        "coordinates": [
          107.7556,
          -6.938
        ]
      },
      "properties": {
        "location_name": "Jatinangor, Sumedang",
        "slug": "jatinangor",
        "date": "Senin, 7 September 2026",
        "date_iso": "2026-09-07",
        "relative": "Hari ini",
        "hour": "12:00",
        "rain_probability": 4.0,
        "risk_score": 12,
        "risk_class": "safe",
        "risk_label": "Aman",
        "condition": "Cerah",
        "temp_c": 31.0,
        "humidity_pct": 37.0,
        "heat_index_c": 31.0,
        "wind_kmh": 8.6,
        "wind_dir": 78.0,
        "cloud_pct": 15.0
      }
    },
    {
      "type": "Feature",
      "geometry": {
        "type": "Point",
        "coordinates": [
          107.7556,
          -6.938
        ]
      },
      "properties": {
        "location_name": "Jatinangor, Sumedang",
        "slug": "jatinangor",
        "date": "Senin, 7 September 2026",
        "date_iso": "2026-09-07",
        "relative": "Hari ini",
        "hour": "13:00",
        "rain_probability": 6.0,
        "risk_score": 12,
        "risk_class": "safe",
        "risk_label": "Aman",
        "condition": "Cerah Berawan",
        "temp_c": 31.4,
        "humidity_pct": 35.0,
        "heat_index_c": 31.4,
        "wind_kmh": 9.36,
        "wind_dir": 69.0,
        "cloud_pct": 24.0
      }
    },
    {
      "type": "Feature",
      "geometry": {
        "type": "Point",
        "coordinates": [
          107.7556,
          -6.938
        ]
      },
      "properties": {
        "location_name": "Jatinangor, Sumedang",
        "slug": "jatinangor",
        "date": "Senin, 7 September 2026",
        "date_iso": "2026-09-07",
        "relative": "Hari ini",
        "hour": "14:00",
        "rain_probability": 7.2,
        "risk_score": 13,
        "risk_class": "safe",
        "risk_label": "Aman",
        "condition": "Cerah Berawan",
        "temp_c": 31.9,
        "humidity_pct": 35.0,
        "heat_index_c": 31.9,
        "wind_kmh": 10.2,
        "wind_dir": 65.0,
        "cloud_pct": 37.0
      }
    },
    {
      "type": "Feature",
      "geometry": {
        "type": "Point",
        "coordinates": [
          107.7556,
          -6.938
        ]
      },
      "properties": {
        "location_name": "Jatinangor, Sumedang",
        "slug": "jatinangor",
        "date": "Senin, 7 September 2026",
        "date_iso": "2026-09-07",
        "relative": "Hari ini",
        "hour": "15:00",
        "rain_probability": 9.0,
        "risk_score": 24,
        "risk_class": "safe",
        "risk_label": "Aman",
        "condition": "Cerah Berawan",
        "temp_c": 32.0,
        "humidity_pct": 37.0,
        "heat_index_c": 32.0,
        "wind_kmh": 9.5,
        "wind_dir": 62.0,
        "cloud_pct": 51.0
      }
    },
    {
      "type": "Feature",
      "geometry": {
        "type": "Point",
        "coordinates": [
          107.7556,
          -6.938
        ]
      },
      "properties": {
        "location_name": "Jatinangor, Sumedang",
        "slug": "jatinangor",
        "date": "Senin, 7 September 2026",
        "date_iso": "2026-09-07",
        "relative": "Hari ini",
        "hour": "16:00",
        "rain_probability": 10.6,
        "risk_score": 15,
        "risk_class": "safe",
        "risk_label": "Aman",
        "condition": "Cerah Berawan",
        "temp_c": 30.9,
        "humidity_pct": 39.0,
        "heat_index_c": 30.9,
        "wind_kmh": 10.2,
        "wind_dir": 60.0,
        "cloud_pct": 44.0
      }
    },
    {
      "type": "Feature",
      "geometry": {
        "type": "Point",
        "coordinates": [
          107.7556,
          -6.938
        ]
      },
      "properties": {
        "location_name": "Jatinangor, Sumedang",
        "slug": "jatinangor",
        "date": "Senin, 7 September 2026",
        "date_iso": "2026-09-07",
        "relative": "Hari ini",
        "hour": "17:00",
        "rain_probability": 7.0,
        "risk_score": 16,
        "risk_class": "safe",
        "risk_label": "Aman",
        "condition": "Cerah",
        "temp_c": 28.9,
        "humidity_pct": 47.0,
        "heat_index_c": 28.98,
        "wind_kmh": 9.2,
        "wind_dir": 59.0,
        "cloud_pct": 43.0
      }
    },
    {
      "type": "Feature",
      "geometry": {
        "type": "Point",
        "coordinates": [
          107.7556,
          -6.938
        ]
      },
      "properties": {
        "location_name": "Jatinangor, Sumedang",
        "slug": "jatinangor",
        "date": "Senin, 7 September 2026",
        "date_iso": "2026-09-07",
        "relative": "Hari ini",
        "hour": "18:00",
        "rain_probability": 2.9,
        "risk_score": 17,
        "risk_class": "safe",
        "risk_label": "Aman",
        "condition": "Cerah",
        "temp_c": 24.9,
        "humidity_pct": 65.8,
        "heat_index_c": 24.9,
        "wind_kmh": 8.5,
        "wind_dir": 66.0,
        "cloud_pct": 21.0
      }
    },
    {
      "type": "Feature",
      "geometry": {
        "type": "Point",
        "coordinates": [
          107.7556,
          -6.938
        ]
      },
      "properties": {
        "location_name": "Jatinangor, Sumedang",
        "slug": "jatinangor",
        "date": "Senin, 7 September 2026",
        "date_iso": "2026-09-07",
        "relative": "Hari ini",
        "hour": "19:00",
        "rain_probability": 1.7,
        "risk_score": 18,
        "risk_class": "safe",
        "risk_label": "Aman",
        "condition": "Cerah",
        "temp_c": 23.4,
        "humidity_pct": 78.0,
        "heat_index_c": 23.4,
        "wind_kmh": 8.4,
        "wind_dir": 126.0,
        "cloud_pct": 5.0
      }
    },
    {
      "type": "Feature",
      "geometry": {
        "type": "Point",
        "coordinates": [
          107.7556,
          -6.938
        ]
      },
      "properties": {
        "location_name": "Jatinangor, Sumedang",
        "slug": "jatinangor",
        "date": "Senin, 7 September 2026",
        "date_iso": "2026-09-07",
        "relative": "Hari ini",
        "hour": "20:00",
        "rain_probability": 3.4,
        "risk_score": 19,
        "risk_class": "safe",
        "risk_label": "Aman",
        "condition": "Cerah",
        "temp_c": 22.3,
        "humidity_pct": 84.0,
        "heat_index_c": 22.3,
        "wind_kmh": 7.7,
        "wind_dir": 133.0,
        "cloud_pct": 5.0
      }
    },
    {
      "type": "Feature",
      "geometry": {
        "type": "Point",
        "coordinates": [
          107.7556,
          -6.938
        ]
      },
      "properties": {
        "location_name": "Jatinangor, Sumedang",
        "slug": "jatinangor",
        "date": "Senin, 7 September 2026",
        "date_iso": "2026-09-07",
        "relative": "Hari ini",
        "hour": "21:00",
        "rain_probability": 1.0,
        "risk_score": 20,
        "risk_class": "safe",
        "risk_label": "Aman",
        "condition": "Cerah",
        "temp_c": 21.7,
        "humidity_pct": 90.0,
        "heat_index_c": 21.7,
        "wind_kmh": 5.8,
        "wind_dir": 137.0,
        "cloud_pct": 5.0
      }
    },
    {
      "type": "Feature",
      "geometry": {
        "type": "Point",
        "coordinates": [
          107.7556,
          -6.938
        ]
      },
      "properties": {
        "location_name": "Jatinangor, Sumedang",
        "slug": "jatinangor",
        "date": "Senin, 7 September 2026",
        "date_iso": "2026-09-07",
        "relative": "Hari ini",
        "hour": "22:00",
        "rain_probability": null,
        "risk_score": 19,
        "risk_class": "safe",
        "risk_label": "Aman",
        "condition": "Cerah",
        "temp_c": 21.2,
        "humidity_pct": 90.0,
        "heat_index_c": 21.2,
        "wind_kmh": 4.7,
        "wind_dir": 145.0,
        "cloud_pct": 10.0
      }
    },
    {
      "type": "Feature",
      "geometry": {
        "type": "Point",
        "coordinates": [
          107.7556,
          -6.938
        ]
      },
      "properties": {
        "location_name": "Jatinangor, Sumedang",
        "slug": "jatinangor",
        "date": "Senin, 7 September 2026",
        "date_iso": "2026-09-07",
        "relative": "Hari ini",
        "hour": "23:00",
        "rain_probability": 50.0,
        "risk_score": 50,
        "risk_class": "watch",
        "risk_label": "Perlu diperhatikan",
        "condition": "Cerah Berawan",
        "temp_c": 20.7,
        "humidity_pct": 90.0,
        "heat_index_c": 20.7,
        "wind_kmh": 4.0,
        "wind_dir": 151.0,
        "cloud_pct": 22.0
      }
    },
    {
      "type": "Feature",
      "geometry": {
        "type": "Point",
        "coordinates": [
          107.7556,
          -6.938
        ]
      },
      "properties": {
        "location_name": "Jatinangor, Sumedang",
        "slug": "jatinangor",
        "date": "Selasa, 8 September 2026",
        "date_iso": "2026-09-08",
        "relative": "Besok",
        "hour": "00:00",
        "rain_probability": null,
        "risk_score": 20,
        "risk_class": "safe",
        "risk_label": "Aman",
        "condition": "Cerah Berawan",
        "temp_c": 20.2,
        "humidity_pct": 95.0,
        "heat_index_c": 20.2,
        "wind_kmh": 4.2,
        "wind_dir": 147.0,
        "cloud_pct": 37.0
      }
    },
    {
      "type": "Feature",
      "geometry": {
        "type": "Point",
        "coordinates": [
          107.7556,
          -6.938
        ]
      },
      "properties": {
        "location_name": "Jatinangor, Sumedang",
        "slug": "jatinangor",
        "date": "Selasa, 8 September 2026",
        "date_iso": "2026-09-08",
        "relative": "Besok",
        "hour": "01:00",
        "rain_probability": null,
        "risk_score": 20,
        "risk_class": "safe",
        "risk_label": "Aman",
        "condition": "Cerah Berawan",
        "temp_c": 19.6,
        "humidity_pct": 94.0,
        "heat_index_c": 19.6,
        "wind_kmh": 4.2,
        "wind_dir": 138.0,
        "cloud_pct": 40.0
      }
    },
    {
      "type": "Feature",
      "geometry": {
        "type": "Point",
        "coordinates": [
          107.7556,
          -6.938
        ]
      },
      "properties": {
        "location_name": "Jatinangor, Sumedang",
        "slug": "jatinangor",
        "date": "Selasa, 8 September 2026",
        "date_iso": "2026-09-08",
        "relative": "Besok",
        "hour": "02:00",
        "rain_probability": null,
        "risk_score": 20,
        "risk_class": "safe",
        "risk_label": "Aman",
        "condition": "Cerah Berawan",
        "temp_c": 19.0,
        "humidity_pct": 94.0,
        "heat_index_c": 19.0,
        "wind_kmh": 4.6,
        "wind_dir": 148.0,
        "cloud_pct": 36.0
      }
    },
    {
      "type": "Feature",
      "geometry": {
        "type": "Point",
        "coordinates": [
          107.7556,
          -6.938
        ]
      },
      "properties": {
        "location_name": "Jatinangor, Sumedang",
        "slug": "jatinangor",
        "date": "Selasa, 8 September 2026",
        "date_iso": "2026-09-08",
        "relative": "Besok",
        "hour": "03:00",
        "rain_probability": null,
        "risk_score": 21,
        "risk_class": "safe",
        "risk_label": "Aman",
        "condition": "Cerah Berawan",
        "temp_c": 18.3,
        "humidity_pct": 96.0,
        "heat_index_c": 18.3,
        "wind_kmh": 5.3,
        "wind_dir": 149.0,
        "cloud_pct": 35.0
      }
    },
    {
      "type": "Feature",
      "geometry": {
        "type": "Point",
        "coordinates": [
          107.7556,
          -6.938
        ]
      },
      "properties": {
        "location_name": "Jatinangor, Sumedang",
        "slug": "jatinangor",
        "date": "Selasa, 8 September 2026",
        "date_iso": "2026-09-08",
        "relative": "Besok",
        "hour": "04:00",
        "rain_probability": null,
        "risk_score": 20,
        "risk_class": "safe",
        "risk_label": "Aman",
        "condition": "Cerah Berawan",
        "temp_c": 18.0,
        "humidity_pct": 96.0,
        "heat_index_c": 18.0,
        "wind_kmh": 5.1,
        "wind_dir": 145.0,
        "cloud_pct": 40.0
      }
    },
    {
      "type": "Feature",
      "geometry": {
        "type": "Point",
        "coordinates": [
          107.7556,
          -6.938
        ]
      },
      "properties": {
        "location_name": "Jatinangor, Sumedang",
        "slug": "jatinangor",
        "date": "Selasa, 8 September 2026",
        "date_iso": "2026-09-08",
        "relative": "Besok",
        "hour": "05:00",
        "rain_probability": null,
        "risk_score": 20,
        "risk_class": "safe",
        "risk_label": "Aman",
        "condition": "Cerah Berawan",
        "temp_c": 18.2,
        "humidity_pct": 96.0,
        "heat_index_c": 18.2,
        "wind_kmh": 5.2,
        "wind_dir": 128.0,
        "cloud_pct": 35.0
      }
    },
    {
      "type": "Feature",
      "geometry": {
        "type": "Point",
        "coordinates": [
          107.7556,
          -6.938
        ]
      },
      "properties": {
        "location_name": "Jatinangor, Sumedang",
        "slug": "jatinangor",
        "date": "Selasa, 8 September 2026",
        "date_iso": "2026-09-08",
        "relative": "Besok",
        "hour": "06:00",
        "rain_probability": null,
        "risk_score": 21,
        "risk_class": "safe",
        "risk_label": "Aman",
        "condition": "Cerah Berawan",
        "temp_c": 18.8,
        "humidity_pct": 93.0,
        "heat_index_c": 18.8,
        "wind_kmh": 5.0,
        "wind_dir": 170.0,
        "cloud_pct": 28.0
      }
    },
    {
      "type": "Feature",
      "geometry": {
        "type": "Point",
        "coordinates": [
          107.7556,
          -6.938
        ]
      },
      "properties": {
        "location_name": "Jatinangor, Sumedang",
        "slug": "jatinangor",
        "date": "Selasa, 8 September 2026",
        "date_iso": "2026-09-08",
        "relative": "Besok",
        "hour": "07:00",
        "rain_probability": 50.0,
        "risk_score": 50,
        "risk_class": "watch",
        "risk_label": "Perlu diperhatikan",
        "condition": "Cerah",
        "temp_c": 20.3,
        "humidity_pct": 84.0,
        "heat_index_c": 20.3,
        "wind_kmh": 5.1,
        "wind_dir": 127.0,
        "cloud_pct": 22.0
      }
    },
    {
      "type": "Feature",
      "geometry": {
        "type": "Point",
        "coordinates": [
          107.7556,
          -6.938
        ]
      },
      "properties": {
        "location_name": "Jatinangor, Sumedang",
        "slug": "jatinangor",
        "date": "Selasa, 8 September 2026",
        "date_iso": "2026-09-08",
        "relative": "Besok",
        "hour": "08:00",
        "rain_probability": null,
        "risk_score": 17,
        "risk_class": "safe",
        "risk_label": "Aman",
        "condition": "Cerah",
        "temp_c": 22.4,
        "humidity_pct": 74.0,
        "heat_index_c": 22.4,
        "wind_kmh": 5.4,
        "wind_dir": 126.0,
        "cloud_pct": 16.0
      }
    },
    {
      "type": "Feature",
      "geometry": {
        "type": "Point",
        "coordinates": [
          107.7556,
          -6.938
        ]
      },
      "properties": {
        "location_name": "Jatinangor, Sumedang",
        "slug": "jatinangor",
        "date": "Selasa, 8 September 2026",
        "date_iso": "2026-09-08",
        "relative": "Besok",
        "hour": "09:00",
        "rain_probability": null,
        "risk_score": 15,
        "risk_class": "safe",
        "risk_label": "Aman",
        "condition": "Cerah",
        "temp_c": 26.5,
        "humidity_pct": 60.0,
        "heat_index_c": 26.5,
        "wind_kmh": 6.1,
        "wind_dir": 106.0,
        "cloud_pct": 11.0
      }
    },
    {
      "type": "Feature",
      "geometry": {
        "type": "Point",
        "coordinates": [
          107.7556,
          -6.938
        ]
      },
      "properties": {
        "location_name": "Jatinangor, Sumedang",
        "slug": "jatinangor",
        "date": "Selasa, 8 September 2026",
        "date_iso": "2026-09-08",
        "relative": "Besok",
        "hour": "10:00",
        "rain_probability": 50.0,
        "risk_score": 50,
        "risk_class": "watch",
        "risk_label": "Perlu diperhatikan",
        "condition": "Cerah Berawan",
        "temp_c": 28.4,
        "humidity_pct": 51.0,
        "heat_index_c": 29.0,
        "wind_kmh": 5.9,
        "wind_dir": 90.0,
        "cloud_pct": 9.0
      }
    },
    {
      "type": "Feature",
      "geometry": {
        "type": "Point",
        "coordinates": [
          107.7556,
          -6.938
        ]
      },
      "properties": {
        "location_name": "Jatinangor, Sumedang",
        "slug": "jatinangor",
        "date": "Selasa, 8 September 2026",
        "date_iso": "2026-09-08",
        "relative": "Besok",
        "hour": "11:00",
        "rain_probability": 5.9,
        "risk_score": 15,
        "risk_class": "safe",
        "risk_label": "Aman",
        "condition": "Cerah",
        "temp_c": 29.7,
        "humidity_pct": 46.0,
        "heat_index_c": 29.7,
        "wind_kmh": 5.1,
        "wind_dir": 76.0,
        "cloud_pct": 13.0
      }
    },
    {
      "type": "Feature",
      "geometry": {
        "type": "Point",
        "coordinates": [
          107.7556,
          -6.938
        ]
      },
      "properties": {
        "location_name": "Jatinangor, Sumedang",
        "slug": "jatinangor",
        "date": "Selasa, 8 September 2026",
        "date_iso": "2026-09-08",
        "relative": "Besok",
        "hour": "12:00",
        "rain_probability": 14.5,
        "risk_score": 21,
        "risk_class": "safe",
        "risk_label": "Aman",
        "condition": "Cerah Berawan",
        "temp_c": 31.0,
        "humidity_pct": 43.0,
        "heat_index_c": 31.0,
        "wind_kmh": 8.0,
        "wind_dir": 54.0,
        "cloud_pct": 43.0
      }
    },
    {
      "type": "Feature",
      "geometry": {
        "type": "Point",
        "coordinates": [
          107.7556,
          -6.938
        ]
      },
      "properties": {
        "location_name": "Jatinangor, Sumedang",
        "slug": "jatinangor",
        "date": "Selasa, 8 September 2026",
        "date_iso": "2026-09-08",
        "relative": "Besok",
        "hour": "13:00",
        "rain_probability": 18.2,
        "risk_score": 24,
        "risk_class": "safe",
        "risk_label": "Aman",
        "condition": "Cerah Berawan",
        "temp_c": 31.6,
        "humidity_pct": 44.0,
        "heat_index_c": 31.6,
        "wind_kmh": 8.0,
        "wind_dir": 32.0,
        "cloud_pct": 39.0
      }
    },
    {
      "type": "Feature",
      "geometry": {
        "type": "Point",
        "coordinates": [
          107.7556,
          -6.938
        ]
      },
      "properties": {
        "location_name": "Jatinangor, Sumedang",
        "slug": "jatinangor",
        "date": "Selasa, 8 September 2026",
        "date_iso": "2026-09-08",
        "relative": "Besok",
        "hour": "14:00",
        "rain_probability": 28.3,
        "risk_score": 29,
        "risk_class": "watch",
        "risk_label": "Perlu diperhatikan",
        "condition": "Cerah Berawan",
        "temp_c": 31.1,
        "humidity_pct": 43.0,
        "heat_index_c": 31.1,
        "wind_kmh": 9.8,
        "wind_dir": 25.0,
        "cloud_pct": 44.0
      }
    },
    {
      "type": "Feature",
      "geometry": {
        "type": "Point",
        "coordinates": [
          107.7556,
          -6.938
        ]
      },
      "properties": {
        "location_name": "Jatinangor, Sumedang",
        "slug": "jatinangor",
        "date": "Selasa, 8 September 2026",
        "date_iso": "2026-09-08",
        "relative": "Besok",
        "hour": "15:00",
        "rain_probability": 32.4,
        "risk_score": 32,
        "risk_class": "watch",
        "risk_label": "Perlu diperhatikan",
        "condition": "Cerah Berawan",
        "temp_c": 29.9,
        "humidity_pct": 44.0,
        "heat_index_c": 29.93,
        "wind_kmh": 11.0,
        "wind_dir": 93.0,
        "cloud_pct": 56.0
      }
    },
    {
      "type": "Feature",
      "geometry": {
        "type": "Point",
        "coordinates": [
          107.7556,
          -6.938
        ]
      },
      "properties": {
        "location_name": "Jatinangor, Sumedang",
        "slug": "jatinangor",
        "date": "Selasa, 8 September 2026",
        "date_iso": "2026-09-08",
        "relative": "Besok",
        "hour": "16:00",
        "rain_probability": 37.1,
        "risk_score": 37,
        "risk_class": "watch",
        "risk_label": "Perlu diperhatikan",
        "condition": "Hujan Ringan",
        "temp_c": 28.5,
        "humidity_pct": 49.0,
        "heat_index_c": 28.87,
        "wind_kmh": 10.0,
        "wind_dir": 21.0,
        "cloud_pct": 53.0
      }
    },
    {
      "type": "Feature",
      "geometry": {
        "type": "Point",
        "coordinates": [
          107.7556,
          -6.938
        ]
      },
      "properties": {
        "location_name": "Jatinangor, Sumedang",
        "slug": "jatinangor",
        "date": "Selasa, 8 September 2026",
        "date_iso": "2026-09-08",
        "relative": "Besok",
        "hour": "17:00",
        "rain_probability": 26.3,
        "risk_score": 31,
        "risk_class": "watch",
        "risk_label": "Perlu diperhatikan",
        "condition": "Cerah Berawan",
        "temp_c": 26.4,
        "humidity_pct": 58.0,
        "heat_index_c": 26.4,
        "wind_kmh": 9.7,
        "wind_dir": 39.0,
        "cloud_pct": 53.0
      }
    },
    {
      "type": "Feature",
      "geometry": {
        "type": "Point",
        "coordinates": [
          107.7556,
          -6.938
        ]
      },
      "properties": {
        "location_name": "Jatinangor, Sumedang",
        "slug": "jatinangor",
        "date": "Selasa, 8 September 2026",
        "date_iso": "2026-09-08",
        "relative": "Besok",
        "hour": "18:00",
        "rain_probability": 15.4,
        "risk_score": 23,
        "risk_class": "safe",
        "risk_label": "Aman",
        "condition": "Cerah Berawan",
        "temp_c": 24.8,
        "humidity_pct": 66.0,
        "heat_index_c": 24.8,
        "wind_kmh": 8.64,
        "wind_dir": 61.0,
        "cloud_pct": 52.0
      }
    },
    {
      "type": "Feature",
      "geometry": {
        "type": "Point",
        "coordinates": [
          107.7556,
          -6.938
        ]
      },
      "properties": {
        "location_name": "Jatinangor, Sumedang",
        "slug": "jatinangor",
        "date": "Selasa, 8 September 2026",
        "date_iso": "2026-09-08",
        "relative": "Besok",
        "hour": "19:00",
        "rain_probability": 8.8,
        "risk_score": 21,
        "risk_class": "safe",
        "risk_label": "Aman",
        "condition": "Cerah Berawan",
        "temp_c": 24.0,
        "humidity_pct": 80.0,
        "heat_index_c": 24.0,
        "wind_kmh": 9.36,
        "wind_dir": 82.0,
        "cloud_pct": 53.0
      }
    },
    {
      "type": "Feature",
      "geometry": {
        "type": "Point",
        "coordinates": [
          107.7556,
          -6.938
        ]
      },
      "properties": {
        "location_name": "Jatinangor, Sumedang",
        "slug": "jatinangor",
        "date": "Selasa, 8 September 2026",
        "date_iso": "2026-09-08",
        "relative": "Besok",
        "hour": "20:00",
        "rain_probability": 15.4,
        "risk_score": 26,
        "risk_class": "watch",
        "risk_label": "Perlu diperhatikan",
        "condition": "Cerah Berawan",
        "temp_c": 23.5,
        "humidity_pct": 83.0,
        "heat_index_c": 23.5,
        "wind_kmh": 8.28,
        "wind_dir": 95.0,
        "cloud_pct": 50.0
      }
    },
    {
      "type": "Feature",
      "geometry": {
        "type": "Point",
        "coordinates": [
          107.7556,
          -6.938
        ]
      },
      "properties": {
        "location_name": "Jatinangor, Sumedang",
        "slug": "jatinangor",
        "date": "Selasa, 8 September 2026",
        "date_iso": "2026-09-08",
        "relative": "Besok",
        "hour": "21:00",
        "rain_probability": 10.6,
        "risk_score": 25,
        "risk_class": "safe",
        "risk_label": "Aman",
        "condition": "Cerah Berawan",
        "temp_c": 21.9,
        "humidity_pct": 87.0,
        "heat_index_c": 21.9,
        "wind_kmh": 6.5,
        "wind_dir": 112.0,
        "cloud_pct": 65.0
      }
    },
    {
      "type": "Feature",
      "geometry": {
        "type": "Point",
        "coordinates": [
          107.7556,
          -6.938
        ]
      },
      "properties": {
        "location_name": "Jatinangor, Sumedang",
        "slug": "jatinangor",
        "date": "Selasa, 8 September 2026",
        "date_iso": "2026-09-08",
        "relative": "Besok",
        "hour": "22:00",
        "rain_probability": 8.1,
        "risk_score": 25,
        "risk_class": "safe",
        "risk_label": "Aman",
        "condition": "Cerah Berawan",
        "temp_c": 21.6,
        "humidity_pct": 90.0,
        "heat_index_c": 21.6,
        "wind_kmh": 5.0,
        "wind_dir": 126.0,
        "cloud_pct": 72.0
      }
    },
    {
      "type": "Feature",
      "geometry": {
        "type": "Point",
        "coordinates": [
          107.7556,
          -6.938
        ]
      },
      "properties": {
        "location_name": "Jatinangor, Sumedang",
        "slug": "jatinangor",
        "date": "Selasa, 8 September 2026",
        "date_iso": "2026-09-08",
        "relative": "Besok",
        "hour": "23:00",
        "rain_probability": 1.2,
        "risk_score": 20,
        "risk_class": "safe",
        "risk_label": "Aman",
        "condition": "Berawan",
        "temp_c": 21.5,
        "humidity_pct": 89.0,
        "heat_index_c": 21.5,
        "wind_kmh": 4.5,
        "wind_dir": 131.0,
        "cloud_pct": 97.0
      }
    },
    {
      "type": "Feature",
      "geometry": {
        "type": "Point",
        "coordinates": [
          107.7556,
          -6.938
        ]
      },
      "properties": {
        "location_name": "Jatinangor, Sumedang",
        "slug": "jatinangor",
        "date": "Rabu, 9 September 2026",
        "date_iso": "2026-09-09",
        "relative": "Lusa",
        "hour": "00:00",
        "rain_probability": 10.0,
        "risk_score": 20,
        "risk_class": "safe",
        "risk_label": "Aman",
        "condition": "Cerah Berawan",
        "temp_c": 20.9,
        "humidity_pct": 88.0,
        "heat_index_c": 20.9,
        "wind_kmh": 4.7,
        "wind_dir": 151.0,
        "cloud_pct": 63.0
      }
    },
    {
      "type": "Feature",
      "geometry": {
        "type": "Point",
        "coordinates": [
          107.7556,
          -6.938
        ]
      },
      "properties": {
        "location_name": "Jatinangor, Sumedang",
        "slug": "jatinangor",
        "date": "Rabu, 9 September 2026",
        "date_iso": "2026-09-09",
        "relative": "Lusa",
        "hour": "01:00",
        "rain_probability": null,
        "risk_score": 21,
        "risk_class": "safe",
        "risk_label": "Aman",
        "condition": "Berawan",
        "temp_c": 19.8,
        "humidity_pct": 93.0,
        "heat_index_c": 19.8,
        "wind_kmh": 4.7,
        "wind_dir": 155.0,
        "cloud_pct": 39.0
      }
    },
    {
      "type": "Feature",
      "geometry": {
        "type": "Point",
        "coordinates": [
          107.7556,
          -6.938
        ]
      },
      "properties": {
        "location_name": "Jatinangor, Sumedang",
        "slug": "jatinangor",
        "date": "Rabu, 9 September 2026",
        "date_iso": "2026-09-09",
        "relative": "Lusa",
        "hour": "02:00",
        "rain_probability": null,
        "risk_score": 20,
        "risk_class": "safe",
        "risk_label": "Aman",
        "condition": "Cerah Berawan",
        "temp_c": 20.0,
        "humidity_pct": 94.0,
        "heat_index_c": 20.0,
        "wind_kmh": 5.2,
        "wind_dir": 153.0,
        "cloud_pct": 36.0
      }
    },
    {
      "type": "Feature",
      "geometry": {
        "type": "Point",
        "coordinates": [
          107.7556,
          -6.938
        ]
      },
      "properties": {
        "location_name": "Jatinangor, Sumedang",
        "slug": "jatinangor",
        "date": "Rabu, 9 September 2026",
        "date_iso": "2026-09-09",
        "relative": "Lusa",
        "hour": "03:00",
        "rain_probability": null,
        "risk_score": 20,
        "risk_class": "safe",
        "risk_label": "Aman",
        "condition": "Cerah Berawan",
        "temp_c": 19.5,
        "humidity_pct": 93.0,
        "heat_index_c": 19.5,
        "wind_kmh": 5.2,
        "wind_dir": 191.0,
        "cloud_pct": 36.0
      }
    },
    {
      "type": "Feature",
      "geometry": {
        "type": "Point",
        "coordinates": [
          107.7556,
          -6.938
        ]
      },
      "properties": {
        "location_name": "Jatinangor, Sumedang",
        "slug": "jatinangor",
        "date": "Rabu, 9 September 2026",
        "date_iso": "2026-09-09",
        "relative": "Lusa",
        "hour": "04:00",
        "rain_probability": null,
        "risk_score": 19,
        "risk_class": "safe",
        "risk_label": "Aman",
        "condition": "Cerah Berawan",
        "temp_c": 18.7,
        "humidity_pct": 93.0,
        "heat_index_c": 18.7,
        "wind_kmh": 5.3,
        "wind_dir": 132.0,
        "cloud_pct": 36.0
      }
    },
    {
      "type": "Feature",
      "geometry": {
        "type": "Point",
        "coordinates": [
          107.7556,
          -6.938
        ]
      },
      "properties": {
        "location_name": "Jatinangor, Sumedang",
        "slug": "jatinangor",
        "date": "Rabu, 9 September 2026",
        "date_iso": "2026-09-09",
        "relative": "Lusa",
        "hour": "05:00",
        "rain_probability": null,
        "risk_score": 20,
        "risk_class": "safe",
        "risk_label": "Aman",
        "condition": "Cerah Berawan",
        "temp_c": 19.6,
        "humidity_pct": 93.0,
        "heat_index_c": 19.6,
        "wind_kmh": 5.5,
        "wind_dir": 131.0,
        "cloud_pct": 40.0
      }
    },
    {
      "type": "Feature",
      "geometry": {
        "type": "Point",
        "coordinates": [
          107.7556,
          -6.938
        ]
      },
      "properties": {
        "location_name": "Jatinangor, Sumedang",
        "slug": "jatinangor",
        "date": "Rabu, 9 September 2026",
        "date_iso": "2026-09-09",
        "relative": "Lusa",
        "hour": "06:00",
        "rain_probability": 50.0,
        "risk_score": 50,
        "risk_class": "watch",
        "risk_label": "Perlu diperhatikan",
        "condition": "Cerah Berawan",
        "temp_c": 20.2,
        "humidity_pct": 90.0,
        "heat_index_c": 20.2,
        "wind_kmh": 5.7,
        "wind_dir": 129.0,
        "cloud_pct": 45.0
      }
    },
    {
      "type": "Feature",
      "geometry": {
        "type": "Point",
        "coordinates": [
          107.7556,
          -6.938
        ]
      },
      "properties": {
        "location_name": "Jatinangor, Sumedang",
        "slug": "jatinangor",
        "date": "Rabu, 9 September 2026",
        "date_iso": "2026-09-09",
        "relative": "Lusa",
        "hour": "07:00",
        "rain_probability": 50.0,
        "risk_score": 50,
        "risk_class": "watch",
        "risk_label": "Perlu diperhatikan",
        "condition": "Cerah Berawan",
        "temp_c": 21.3,
        "humidity_pct": 83.0,
        "heat_index_c": 21.3,
        "wind_kmh": 4.9,
        "wind_dir": 129.0,
        "cloud_pct": 49.0
      }
    },
    {
      "type": "Feature",
      "geometry": {
        "type": "Point",
        "coordinates": [
          107.7556,
          -6.938
        ]
      },
      "properties": {
        "location_name": "Jatinangor, Sumedang",
        "slug": "jatinangor",
        "date": "Rabu, 9 September 2026",
        "date_iso": "2026-09-09",
        "relative": "Lusa",
        "hour": "08:00",
        "rain_probability": null,
        "risk_score": 18,
        "risk_class": "safe",
        "risk_label": "Aman",
        "condition": "Cerah Berawan",
        "temp_c": 23.4,
        "humidity_pct": 77.0,
        "heat_index_c": 23.4,
        "wind_kmh": 4.2,
        "wind_dir": 120.0,
        "cloud_pct": 21.0
      }
    },
    {
      "type": "Feature",
      "geometry": {
        "type": "Point",
        "coordinates": [
          107.7556,
          -6.938
        ]
      },
      "properties": {
        "location_name": "Jatinangor, Sumedang",
        "slug": "jatinangor",
        "date": "Rabu, 9 September 2026",
        "date_iso": "2026-09-09",
        "relative": "Lusa",
        "hour": "09:00",
        "rain_probability": null,
        "risk_score": 15,
        "risk_class": "safe",
        "risk_label": "Aman",
        "condition": "Cerah",
        "temp_c": 26.5,
        "humidity_pct": 62.0,
        "heat_index_c": 26.5,
        "wind_kmh": 4.7,
        "wind_dir": 89.0,
        "cloud_pct": 11.0
      }
    },
    {
      "type": "Feature",
      "geometry": {
        "type": "Point",
        "coordinates": [
          107.7556,
          -6.938
        ]
      },
      "properties": {
        "location_name": "Jatinangor, Sumedang",
        "slug": "jatinangor",
        "date": "Rabu, 9 September 2026",
        "date_iso": "2026-09-09",
        "relative": "Lusa",
        "hour": "10:00",
        "rain_probability": 5.7,
        "risk_score": 16,
        "risk_class": "safe",
        "risk_label": "Aman",
        "condition": "Cerah Berawan",
        "temp_c": 28.2,
        "humidity_pct": 54.0,
        "heat_index_c": 28.87,
        "wind_kmh": 5.4,
        "wind_dir": 64.0,
        "cloud_pct": 30.0
      }
    },
    {
      "type": "Feature",
      "geometry": {
        "type": "Point",
        "coordinates": [
          107.7556,
          -6.938
        ]
      },
      "properties": {
        "location_name": "Jatinangor, Sumedang",
        "slug": "jatinangor",
        "date": "Rabu, 9 September 2026",
        "date_iso": "2026-09-09",
        "relative": "Lusa",
        "hour": "11:00",
        "rain_probability": 12.8,
        "risk_score": 19,
        "risk_class": "safe",
        "risk_label": "Aman",
        "condition": "Cerah Berawan",
        "temp_c": 29.6,
        "humidity_pct": 48.0,
        "heat_index_c": 29.93,
        "wind_kmh": 5.4,
        "wind_dir": 39.0,
        "cloud_pct": 45.0
      }
    },
    {
      "type": "Feature",
      "geometry": {
        "type": "Point",
        "coordinates": [
          107.7556,
          -6.938
        ]
      },
      "properties": {
        "location_name": "Jatinangor, Sumedang",
        "slug": "jatinangor",
        "date": "Rabu, 9 September 2026",
        "date_iso": "2026-09-09",
        "relative": "Lusa",
        "hour": "12:00",
        "rain_probability": 21.4,
        "risk_score": 26,
        "risk_class": "watch",
        "risk_label": "Perlu diperhatikan",
        "condition": "Cerah Berawan",
        "temp_c": 30.5,
        "humidity_pct": 43.0,
        "heat_index_c": 30.69,
        "wind_kmh": 6.9,
        "wind_dir": 95.0,
        "cloud_pct": 50.0
      }
    },
    {
      "type": "Feature",
      "geometry": {
        "type": "Point",
        "coordinates": [
          107.7556,
          -6.938
        ]
      },
      "properties": {
        "location_name": "Jatinangor, Sumedang",
        "slug": "jatinangor",
        "date": "Rabu, 9 September 2026",
        "date_iso": "2026-09-09",
        "relative": "Lusa",
        "hour": "13:00",
        "rain_probability": 24.5,
        "risk_score": 28,
        "risk_class": "watch",
        "risk_label": "Perlu diperhatikan",
        "condition": "Hujan Ringan",
        "temp_c": 30.9,
        "humidity_pct": 41.0,
        "heat_index_c": 30.93,
        "wind_kmh": 8.28,
        "wind_dir": 216.0,
        "cloud_pct": 55.0
      }
    },
    {
      "type": "Feature",
      "geometry": {
        "type": "Point",
        "coordinates": [
          107.7556,
          -6.938
        ]
      },
      "properties": {
        "location_name": "Jatinangor, Sumedang",
        "slug": "jatinangor",
        "date": "Rabu, 9 September 2026",
        "date_iso": "2026-09-09",
        "relative": "Lusa",
        "hour": "14:00",
        "rain_probability": 31.8,
        "risk_score": 32,
        "risk_class": "watch",
        "risk_label": "Perlu diperhatikan",
        "condition": "Hujan Ringan",
        "temp_c": 30.8,
        "humidity_pct": 41.0,
        "heat_index_c": 30.8,
        "wind_kmh": 8.3,
        "wind_dir": 221.0,
        "cloud_pct": 53.0
      }
    },
    {
      "type": "Feature",
      "geometry": {
        "type": "Point",
        "coordinates": [
          107.7556,
          -6.938
        ]
      },
      "properties": {
        "location_name": "Jatinangor, Sumedang",
        "slug": "jatinangor",
        "date": "Rabu, 9 September 2026",
        "date_iso": "2026-09-09",
        "relative": "Lusa",
        "hour": "15:00",
        "rain_probability": 36.3,
        "risk_score": 36,
        "risk_class": "watch",
        "risk_label": "Perlu diperhatikan",
        "condition": "Hujan Ringan",
        "temp_c": 28.8,
        "humidity_pct": 50.0,
        "heat_index_c": 30.03,
        "wind_kmh": 10.5,
        "wind_dir": 75.0,
        "cloud_pct": 78.0
      }
    },
    {
      "type": "Feature",
      "geometry": {
        "type": "Point",
        "coordinates": [
          107.7556,
          -6.938
        ]
      },
      "properties": {
        "location_name": "Jatinangor, Sumedang",
        "slug": "jatinangor",
        "date": "Rabu, 9 September 2026",
        "date_iso": "2026-09-09",
        "relative": "Lusa",
        "hour": "16:00",
        "rain_probability": 42.2,
        "risk_score": 42,
        "risk_class": "watch",
        "risk_label": "Perlu diperhatikan",
        "condition": "Hujan Ringan",
        "temp_c": 27.7,
        "humidity_pct": 56.0,
        "heat_index_c": 28.64,
        "wind_kmh": 11.0,
        "wind_dir": 19.0,
        "cloud_pct": 88.0
      }
    },
    {
      "type": "Feature",
      "geometry": {
        "type": "Point",
        "coordinates": [
          107.7556,
          -6.938
        ]
      },
      "properties": {
        "location_name": "Jatinangor, Sumedang",
        "slug": "jatinangor",
        "date": "Rabu, 9 September 2026",
        "date_iso": "2026-09-09",
        "relative": "Lusa",
        "hour": "17:00",
        "rain_probability": 43.4,
        "risk_score": 43,
        "risk_class": "watch",
        "risk_label": "Perlu diperhatikan",
        "condition": "Hujan Ringan",
        "temp_c": 26.1,
        "humidity_pct": 65.0,
        "heat_index_c": 26.1,
        "wind_kmh": 10.5,
        "wind_dir": 24.0,
        "cloud_pct": 65.0
      }
    },
    {
      "type": "Feature",
      "geometry": {
        "type": "Point",
        "coordinates": [
          107.7556,
          -6.938
        ]
      },
      "properties": {
        "location_name": "Jatinangor, Sumedang",
        "slug": "jatinangor",
        "date": "Rabu, 9 September 2026",
        "date_iso": "2026-09-09",
        "relative": "Lusa",
        "hour": "18:00",
        "rain_probability": 37.5,
        "risk_score": 38,
        "risk_class": "watch",
        "risk_label": "Perlu diperhatikan",
        "condition": "Hujan Ringan",
        "temp_c": 24.3,
        "humidity_pct": 76.0,
        "heat_index_c": 24.3,
        "wind_kmh": 8.1,
        "wind_dir": 33.0,
        "cloud_pct": 80.0
      }
    },
    {
      "type": "Feature",
      "geometry": {
        "type": "Point",
        "coordinates": [
          107.7556,
          -6.938
        ]
      },
      "properties": {
        "location_name": "Jatinangor, Sumedang",
        "slug": "jatinangor",
        "date": "Rabu, 9 September 2026",
        "date_iso": "2026-09-09",
        "relative": "Lusa",
        "hour": "19:00",
        "rain_probability": 29.2,
        "risk_score": 35,
        "risk_class": "watch",
        "risk_label": "Perlu diperhatikan",
        "condition": "Cerah Berawan",
        "temp_c": 24.0,
        "humidity_pct": 83.0,
        "heat_index_c": 24.0,
        "wind_kmh": 6.6,
        "wind_dir": 43.0,
        "cloud_pct": 56.0
      }
    },
    {
      "type": "Feature",
      "geometry": {
        "type": "Point",
        "coordinates": [
          107.7556,
          -6.938
        ]
      },
      "properties": {
        "location_name": "Jatinangor, Sumedang",
        "slug": "jatinangor",
        "date": "Rabu, 9 September 2026",
        "date_iso": "2026-09-09",
        "relative": "Lusa",
        "hour": "20:00",
        "rain_probability": 16.0,
        "risk_score": 28,
        "risk_class": "watch",
        "risk_label": "Perlu diperhatikan",
        "condition": "Cerah Berawan",
        "temp_c": 24.0,
        "humidity_pct": 86.0,
        "heat_index_c": 24.0,
        "wind_kmh": 5.0,
        "wind_dir": 59.0,
        "cloud_pct": 65.0
      }
    },
    {
      "type": "Feature",
      "geometry": {
        "type": "Point",
        "coordinates": [
          107.7556,
          -6.938
        ]
      },
      "properties": {
        "location_name": "Jatinangor, Sumedang",
        "slug": "jatinangor",
        "date": "Rabu, 9 September 2026",
        "date_iso": "2026-09-09",
        "relative": "Lusa",
        "hour": "21:00",
        "rain_probability": 10.1,
        "risk_score": 24,
        "risk_class": "safe",
        "risk_label": "Aman",
        "condition": "Cerah Berawan",
        "temp_c": 22.5,
        "humidity_pct": 93.0,
        "heat_index_c": 22.5,
        "wind_kmh": 3.6,
        "wind_dir": 72.0,
        "cloud_pct": 40.0
      }
    },
    {
      "type": "Feature",
      "geometry": {
        "type": "Point",
        "coordinates": [
          107.7556,
          -6.938
        ]
      },
      "properties": {
        "location_name": "Jatinangor, Sumedang",
        "slug": "jatinangor",
        "date": "Rabu, 9 September 2026",
        "date_iso": "2026-09-09",
        "relative": "Lusa",
        "hour": "22:00",
        "rain_probability": 6.5,
        "risk_score": 23,
        "risk_class": "safe",
        "risk_label": "Aman",
        "condition": "Cerah Berawan",
        "temp_c": 22.0,
        "humidity_pct": 93.0,
        "heat_index_c": 22.0,
        "wind_kmh": 3.2,
        "wind_dir": 84.0,
        "cloud_pct": 64.0
      }
    },
    {
      "type": "Feature",
      "geometry": {
        "type": "Point",
        "coordinates": [
          107.7556,
          -6.938
        ]
      },
      "properties": {
        "location_name": "Jatinangor, Sumedang",
        "slug": "jatinangor",
        "date": "Rabu, 9 September 2026",
        "date_iso": "2026-09-09",
        "relative": "Lusa",
        "hour": "23:00",
        "rain_probability": 12.5,
        "risk_score": 28,
        "risk_class": "watch",
        "risk_label": "Perlu diperhatikan",
        "condition": "Berawan",
        "temp_c": 22.1,
        "humidity_pct": 93.0,
        "heat_index_c": 22.1,
        "wind_kmh": 2.2,
        "wind_dir": 97.0,
        "cloud_pct": 76.0
      }
    }
  ]
}