{
  "type": "FeatureCollection",
  "features": [
    {
      "type": "Feature",
      "geometry": {
        "type": "Point",
        "coordinates": [
          107.61,
          -6.889
        ]
      },
      "properties": {
        "location_name": "Dago, Bandung",
        "slug": "dago",
        "date": "Rabu, 7 Oktober 2026",
        "date_iso": "2026-10-07",
        "relative": "Hari ini",
        "hour": "00:00",
        "rain_probability": 2.4,
        "risk_score": 18,
        "risk_class": "safe",
        "risk_label": "Aman",
        "condition": "Berawan",
        "temp_c": 22.6,
        "humidity_pct": 82.0,
        "heat_index_c": 22.6,
        "wind_kmh": 4.4,
        "wind_dir": 160.0,
        "cloud_pct": 95.0
      }
    },
    {
      "type": "Feature",
      "geometry": {
        "type": "Point",
        "coordinates": [
          107.61,
          -6.889
        ]
      },
      "properties": {
        "location_name": "Dago, Bandung",
        "slug": "dago",
        "date": "Rabu, 7 Oktober 2026",
        "date_iso": "2026-10-07",
        "relative": "Hari ini",
        "hour": "01:00",
        "rain_probability": 1.7,
        "risk_score": 18,
        "risk_class": "safe",
        "risk_label": "Aman",
        "condition": "Berawan",
        "temp_c": 22.4,
        "humidity_pct": 83.0,
        "heat_index_c": 22.4,
        "wind_kmh": 2.9,
        "wind_dir": 163.0,
        "cloud_pct": 99.0
      }
    },
    {
      "type": "Feature",
      "geometry": {
        "type": "Point",
        "coordinates": [
          107.61,
          -6.889
        ]
      },
      "properties": {
        "location_name": "Dago, Bandung",
        "slug": "dago",
        "date": "Rabu, 7 Oktober 2026",
        "date_iso": "2026-10-07",
        "relative": "Hari ini",
        "hour": "02:00",
        "rain_probability": 7.1,
        "risk_score": 21,
        "risk_class": "safe",
        "risk_label": "Aman",
        "condition": "Berawan",
        "temp_c": 22.1,
        "humidity_pct": 83.0,
        "heat_index_c": 22.1,
        "wind_kmh": 2.6,
        "wind_dir": 154.0,
        "cloud_pct": 100.0
      }
    },
    {
      "type": "Feature",
      "geometry": {
        "type": "Point",
        "coordinates": [
          107.61,
          -6.889
        ]
      },
      "properties": {
        "location_name": "Dago, Bandung",
        "slug": "dago",
        "date": "Rabu, 7 Oktober 2026",
        "date_iso": "2026-10-07",
        "relative": "Hari ini",
        "hour": "03:00",
        "rain_probability": 7.8,
        "risk_score": 21,
        "risk_class": "safe",
        "risk_label": "Aman",
        "condition": "Berawan",
        "temp_c": 21.6,
        "humidity_pct": 82.0,
        "heat_index_c": 21.6,
        "wind_kmh": 2.9,
        "wind_dir": 183.0,
        "cloud_pct": 89.0
      }
    },
    {
      "type": "Feature",
      "geometry": {
        "type": "Point",
        "coordinates": [
          107.61,
          -6.889
        ]
      },
      "properties": {
        "location_name": "Dago, Bandung",
        "slug": "dago",
        "date": "Rabu, 7 Oktober 2026",
        "date_iso": "2026-10-07",
        "relative": "Hari ini",
        "hour": "04:00",
        "rain_probability": 7.2,
        "risk_score": 22,
        "risk_class": "safe",
        "risk_label": "Aman",
        "condition": "Berawan",
        "temp_c": 21.0,
        "humidity_pct": 83.0,
        "heat_index_c": 21.0,
        "wind_kmh": 2.9,
        "wind_dir": 123.0,
        "cloud_pct": 85.0
      }
    },
    {
      "type": "Feature",
      "geometry": {
        "type": "Point",
        "coordinates": [
          107.61,
          -6.889
        ]
      },
      "properties": {
        "location_name": "Dago, Bandung",
        "slug": "dago",
        "date": "Rabu, 7 Oktober 2026",
        "date_iso": "2026-10-07",
        "relative": "Hari ini",
        "hour": "05:00",
        "rain_probability": 1.1,
        "risk_score": 20,
        "risk_class": "safe",
        "risk_label": "Aman",
        "condition": "Cerah Berawan",
        "temp_c": 20.7,
        "humidity_pct": 84.0,
        "heat_index_c": 20.7,
        "wind_kmh": 2.5,
        "wind_dir": 115.0,
        "cloud_pct": 78.0
      }
    },
    {
      "type": "Feature",
      "geometry": {
        "type": "Point",
        "coordinates": [
          107.61,
          -6.889
        ]
      },
      "properties": {
        "location_name": "Dago, Bandung",
        "slug": "dago",
        "date": "Rabu, 7 Oktober 2026",
        "date_iso": "2026-10-07",
        "relative": "Hari ini",
        "hour": "06:00",
        "rain_probability": 70.0,
        "risk_score": 70,
        "risk_class": "rain",
        "risk_label": "Waspada",
        "condition": "Cerah Berawan",
        "temp_c": 20.7,
        "humidity_pct": 83.0,
        "heat_index_c": 20.7,
        "wind_kmh": 2.5,
        "wind_dir": 115.0,
        "cloud_pct": 67.0
      }
    },
    {
      "type": "Feature",
      "geometry": {
        "type": "Point",
        "coordinates": [
          107.61,
          -6.889
        ]
      },
      "properties": {
        "location_name": "Dago, Bandung",
        "slug": "dago",
        "date": "Rabu, 7 Oktober 2026",
        "date_iso": "2026-10-07",
        "relative": "Hari ini",
        "hour": "07:00",
        "rain_probability": 90.0,
        "risk_score": 90,
        "risk_class": "danger",
        "risk_label": "Berpotensi signifikan",
        "condition": "Cerah Berawan",
        "temp_c": 22.2,
        "humidity_pct": 75.0,
        "heat_index_c": 22.2,
        "wind_kmh": 3.2,
        "wind_dir": 117.0,
        "cloud_pct": 69.0
      }
    },
    {
      "type": "Feature",
      "geometry": {
        "type": "Point",
        "coordinates": [
          107.61,
          -6.889
        ]
      },
      "properties": {
        "location_name": "Dago, Bandung",
        "slug": "dago",
        "date": "Rabu, 7 Oktober 2026",
        "date_iso": "2026-10-07",
        "relative": "Hari ini",
        "hour": "08:00",
        "rain_probability": 10.0,
        "risk_score": 16,
        "risk_class": "safe",
        "risk_label": "Aman",
        "condition": "Cerah Berawan",
        "temp_c": 23.9,
        "humidity_pct": 68.0,
        "heat_index_c": 23.9,
        "wind_kmh": 4.5,
        "wind_dir": 104.0,
        "cloud_pct": 65.0
      }
    },
    {
      "type": "Feature",
      "geometry": {
        "type": "Point",
        "coordinates": [
          107.61,
          -6.889
        ]
      },
      "properties": {
        "location_name": "Dago, Bandung",
        "slug": "dago",
        "date": "Rabu, 7 Oktober 2026",
        "date_iso": "2026-10-07",
        "relative": "Hari ini",
        "hour": "09:00",
        "rain_probability": null,
        "risk_score": 14,
        "risk_class": "safe",
        "risk_label": "Aman",
        "condition": "Berawan",
        "temp_c": 26.2,
        "humidity_pct": 59.0,
        "heat_index_c": 26.2,
        "wind_kmh": 3.9,
        "wind_dir": 94.0,
        "cloud_pct": 85.0
      }
    },
    {
      "type": "Feature",
      "geometry": {
        "type": "Point",
        "coordinates": [
          107.61,
          -6.889
        ]
      },
      "properties": {
        "location_name": "Dago, Bandung",
        "slug": "dago",
        "date": "Rabu, 7 Oktober 2026",
        "date_iso": "2026-10-07",
        "relative": "Hari ini",
        "hour": "10:00",
        "rain_probability": 1.0,
        "risk_score": 14,
        "risk_class": "safe",
        "risk_label": "Aman",
        "condition": "Berawan",
        "temp_c": 28.4,
        "humidity_pct": 52.0,
        "heat_index_c": 28.56,
        "wind_kmh": 5.1,
        "wind_dir": 91.0,
        "cloud_pct": 95.0
      }
    },
    {
      "type": "Feature",
      "geometry": {
        "type": "Point",
        "coordinates": [
          107.61,
          -6.889
        ]
      },
      "properties": {
        "location_name": "Dago, Bandung",
        "slug": "dago",
        "date": "Rabu, 7 Oktober 2026",
        "date_iso": "2026-10-07",
        "relative": "Hari ini",
        "hour": "11:00",
        "rain_probability": 4.3,
        "risk_score": 14,
        "risk_class": "safe",
        "risk_label": "Aman",
        "condition": "Cerah Berawan",
        "temp_c": 29.9,
        "humidity_pct": 45.0,
        "heat_index_c": 30.06,
        "wind_kmh": 6.4,
        "wind_dir": 178.0,
        "cloud_pct": 58.0
      }
    },
    {
      "type": "Feature",
      "geometry": {
        "type": "Point",
        "coordinates": [
          107.61,
          -6.889
        ]
      },
      "properties": {
        "location_name": "Dago, Bandung",
        "slug": "dago",
        "date": "Rabu, 7 Oktober 2026",
        "date_iso": "2026-10-07",
        "relative": "Hari ini",
        "hour": "12:00",
        "rain_probability": 6.0,
        "risk_score": 13,
        "risk_class": "safe",
        "risk_label": "Aman",
        "condition": "Cerah Berawan",
        "temp_c": 30.9,
        "humidity_pct": 41.0,
        "heat_index_c": 31.0,
        "wind_kmh": 6.6,
        "wind_dir": 181.0,
        "cloud_pct": 54.0
      }
    },
    {
      "type": "Feature",
      "geometry": {
        "type": "Point",
        "coordinates": [
          107.61,
          -6.889
        ]
      },
      "properties": {
        "location_name": "Dago, Bandung",
        "slug": "dago",
        "date": "Rabu, 7 Oktober 2026",
        "date_iso": "2026-10-07",
        "relative": "Hari ini",
        "hour": "13:00",
        "rain_probability": 9.2,
        "risk_score": 14,
        "risk_class": "safe",
        "risk_label": "Aman",
        "condition": "Berawan",
        "temp_c": 31.4,
        "humidity_pct": 37.0,
        "heat_index_c": 31.4,
        "wind_kmh": 8.4,
        "wind_dir": 288.0,
        "cloud_pct": 97.0
      }
    },
    {
      "type": "Feature",
      "geometry": {
        "type": "Point",
        "coordinates": [
          107.61,
          -6.889
        ]
      },
      "properties": {
        "location_name": "Dago, Bandung",
        "slug": "dago",
        "date": "Rabu, 7 Oktober 2026",
        "date_iso": "2026-10-07",
        "relative": "Hari ini",
        "hour": "14:00",
        "rain_probability": 14.0,
        "risk_score": 18,
        "risk_class": "safe",
        "risk_label": "Aman",
        "condition": "Berawan",
        "temp_c": 31.0,
        "humidity_pct": 37.0,
        "heat_index_c": 31.0,
        "wind_kmh": 10.1,
        "wind_dir": 290.0,
        "cloud_pct": 66.0
      }
    },
    {
      "type": "Feature",
      "geometry": {
        "type": "Point",
        "coordinates": [
          107.61,
          -6.889
        ]
      },
      "properties": {
        "location_name": "Dago, Bandung",
        "slug": "dago",
        "date": "Rabu, 7 Oktober 2026",
        "date_iso": "2026-10-07",
        "relative": "Hari ini",
        "hour": "15:00",
        "rain_probability": 30.6,
        "risk_score": 31,
        "risk_class": "watch",
        "risk_label": "Perlu diperhatikan",
        "condition": "Berawan",
        "temp_c": 29.5,
        "humidity_pct": 49.2,
        "heat_index_c": 29.51,
        "wind_kmh": 11.9,
        "wind_dir": 233.0,
        "cloud_pct": 79.0
      }
    },
    {
      "type": "Feature",
      "geometry": {
        "type": "Point",
        "coordinates": [
          107.61,
          -6.889
        ]
      },
      "properties": {
        "location_name": "Dago, Bandung",
        "slug": "dago",
        "date": "Rabu, 7 Oktober 2026",
        "date_iso": "2026-10-07",
        "relative": "Hari ini",
        "hour": "16:00",
        "rain_probability": 35.0,
        "risk_score": 35,
        "risk_class": "watch",
        "risk_label": "Perlu diperhatikan",
        "condition": "Berawan",
        "temp_c": 28.5,
        "humidity_pct": 49.2,
        "heat_index_c": 28.8,
        "wind_kmh": 11.5,
        "wind_dir": 231.0,
        "cloud_pct": 100.0
      }
    },
    {
      "type": "Feature",
      "geometry": {
        "type": "Point",
        "coordinates": [
          107.61,
          -6.889
        ]
      },
      "properties": {
        "location_name": "Dago, Bandung",
        "slug": "dago",
        "date": "Rabu, 7 Oktober 2026",
        "date_iso": "2026-10-07",
        "relative": "Hari ini",
        "hour": "17:00",
        "rain_probability": 31.5,
        "risk_score": 32,
        "risk_class": "watch",
        "risk_label": "Perlu diperhatikan",
        "condition": "Berawan",
        "temp_c": 27.5,
        "humidity_pct": 53.0,
        "heat_index_c": 28.06,
        "wind_kmh": 10.08,
        "wind_dir": 231.0,
        "cloud_pct": 100.0
      }
    },
    {
      "type": "Feature",
      "geometry": {
        "type": "Point",
        "coordinates": [
          107.61,
          -6.889
        ]
      },
      "properties": {
        "location_name": "Dago, Bandung",
        "slug": "dago",
        "date": "Rabu, 7 Oktober 2026",
        "date_iso": "2026-10-07",
        "relative": "Hari ini",
        "hour": "18:00",
        "rain_probability": 28.7,
        "risk_score": 31,
        "risk_class": "watch",
        "risk_label": "Perlu diperhatikan",
        "condition": "Berawan",
        "temp_c": 25.9,
        "humidity_pct": 60.0,
        "heat_index_c": 25.9,
        "wind_kmh": 8.6,
        "wind_dir": 186.0,
        "cloud_pct": 100.0
      }
    },
    {
      "type": "Feature",
      "geometry": {
        "type": "Point",
        "coordinates": [
          107.61,
          -6.889
        ]
      },
      "properties": {
        "location_name": "Dago, Bandung",
        "slug": "dago",
        "date": "Rabu, 7 Oktober 2026",
        "date_iso": "2026-10-07",
        "relative": "Hari ini",
        "hour": "19:00",
        "rain_probability": 33.6,
        "risk_score": 35,
        "risk_class": "watch",
        "risk_label": "Perlu diperhatikan",
        "condition": "Berawan",
        "temp_c": 25.0,
        "humidity_pct": 70.0,
        "heat_index_c": 25.0,
        "wind_kmh": 7.8,
        "wind_dir": 148.0,
        "cloud_pct": 100.0
      }
    },
    {
      "type": "Feature",
      "geometry": {
        "type": "Point",
        "coordinates": [
          107.61,
          -6.889
        ]
      },
      "properties": {
        "location_name": "Dago, Bandung",
        "slug": "dago",
        "date": "Rabu, 7 Oktober 2026",
        "date_iso": "2026-10-07",
        "relative": "Hari ini",
        "hour": "20:00",
        "rain_probability": 34.1,
        "risk_score": 37,
        "risk_class": "watch",
        "risk_label": "Perlu diperhatikan",
        "condition": "Cerah Berawan",
        "temp_c": 24.0,
        "humidity_pct": 78.0,
        "heat_index_c": 24.0,
        "wind_kmh": 7.9,
        "wind_dir": 197.0,
        "cloud_pct": 100.0
      }
    },
    {
      "type": "Feature",
      "geometry": {
        "type": "Point",
        "coordinates": [
          107.61,
          -6.889
        ]
      },
      "properties": {
        "location_name": "Dago, Bandung",
        "slug": "dago",
        "date": "Rabu, 7 Oktober 2026",
        "date_iso": "2026-10-07",
        "relative": "Hari ini",
        "hour": "21:00",
        "rain_probability": 22.9,
        "risk_score": 31,
        "risk_class": "watch",
        "risk_label": "Perlu diperhatikan",
        "condition": "Berawan",
        "temp_c": 23.2,
        "humidity_pct": 80.0,
        "heat_index_c": 23.2,
        "wind_kmh": 6.48,
        "wind_dir": 197.0,
        "cloud_pct": 100.0
      }
    },
    {
      "type": "Feature",
      "geometry": {
        "type": "Point",
        "coordinates": [
          107.61,
          -6.889
        ]
      },
      "properties": {
        "location_name": "Dago, Bandung",
        "slug": "dago",
        "date": "Rabu, 7 Oktober 2026",
        "date_iso": "2026-10-07",
        "relative": "Hari ini",
        "hour": "22:00",
        "rain_probability": 19.8,
        "risk_score": 29,
        "risk_class": "watch",
        "risk_label": "Perlu diperhatikan",
        "condition": "Cerah Berawan",
        "temp_c": 22.9,
        "humidity_pct": 80.0,
        "heat_index_c": 22.9,
        "wind_kmh": 5.76,
        "wind_dir": 198.0,
        "cloud_pct": 80.0
      }
    },
    {
      "type": "Feature",
      "geometry": {
        "type": "Point",
        "coordinates": [
          107.61,
          -6.889
        ]
      },
      "properties": {
        "location_name": "Dago, Bandung",
        "slug": "dago",
        "date": "Rabu, 7 Oktober 2026",
        "date_iso": "2026-10-07",
        "relative": "Hari ini",
        "hour": "23:00",
        "rain_probability": 19.8,
        "risk_score": 29,
        "risk_class": "watch",
        "risk_label": "Perlu diperhatikan",
        "condition": "Cerah Berawan",
        "temp_c": 22.7,
        "humidity_pct": 81.0,
        "heat_index_c": 22.7,
        "wind_kmh": 4.8,
        "wind_dir": 201.0,
        "cloud_pct": 83.0
      }
    },
    {
      "type": "Feature",
      "geometry": {
        "type": "Point",
        "coordinates": [
          107.61,
          -6.889
        ]
      },
      "properties": {
        "location_name": "Dago, Bandung",
        "slug": "dago",
        "date": "Kamis, 8 Oktober 2026",
        "date_iso": "2026-10-08",
        "relative": "Besok",
        "hour": "00:00",
        "rain_probability": 12.9,
        "risk_score": 26,
        "risk_class": "watch",
        "risk_label": "Perlu diperhatikan",
        "condition": "Cerah Berawan",
        "temp_c": 22.0,
        "humidity_pct": 82.0,
        "heat_index_c": 22.0,
        "wind_kmh": 3.2,
        "wind_dir": 196.0,
        "cloud_pct": 62.0
      }
    },
    {
      "type": "Feature",
      "geometry": {
        "type": "Point",
        "coordinates": [
          107.61,
          -6.889
        ]
      },
      "properties": {
        "location_name": "Dago, Bandung",
        "slug": "dago",
        "date": "Kamis, 8 Oktober 2026",
        "date_iso": "2026-10-08",
        "relative": "Besok",
        "hour": "01:00",
        "rain_probability": 12.1,
        "risk_score": 26,
        "risk_class": "watch",
        "risk_label": "Perlu diperhatikan",
        "condition": "Cerah Berawan",
        "temp_c": 21.9,
        "humidity_pct": 84.0,
        "heat_index_c": 21.9,
        "wind_kmh": 2.9,
        "wind_dir": 182.0,
        "cloud_pct": 76.0
      }
    },
    {
      "type": "Feature",
      "geometry": {
        "type": "Point",
        "coordinates": [
          107.61,
          -6.889
        ]
      },
      "properties": {
        "location_name": "Dago, Bandung",
        "slug": "dago",
        "date": "Kamis, 8 Oktober 2026",
        "date_iso": "2026-10-08",
        "relative": "Besok",
        "hour": "02:00",
        "rain_probability": 11.3,
        "risk_score": 25,
        "risk_class": "watch",
        "risk_label": "Perlu diperhatikan",
        "condition": "Cerah Berawan",
        "temp_c": 21.4,
        "humidity_pct": 86.0,
        "heat_index_c": 21.4,
        "wind_kmh": 2.9,
        "wind_dir": 169.0,
        "cloud_pct": 65.0
      }
    },
    {
      "type": "Feature",
      "geometry": {
        "type": "Point",
        "coordinates": [
          107.61,
          -6.889
        ]
      },
      "properties": {
        "location_name": "Dago, Bandung",
        "slug": "dago",
        "date": "Kamis, 8 Oktober 2026",
        "date_iso": "2026-10-08",
        "relative": "Besok",
        "hour": "03:00",
        "rain_probability": 11.8,
        "risk_score": 28,
        "risk_class": "watch",
        "risk_label": "Perlu diperhatikan",
        "condition": "Cerah Berawan",
        "temp_c": 20.9,
        "humidity_pct": 88.0,
        "heat_index_c": 20.9,
        "wind_kmh": 2.9,
        "wind_dir": 148.0,
        "cloud_pct": 71.0
      }
    },
    {
      "type": "Feature",
      "geometry": {
        "type": "Point",
        "coordinates": [
          107.61,
          -6.889
        ]
      },
      "properties": {
        "location_name": "Dago, Bandung",
        "slug": "dago",
        "date": "Kamis, 8 Oktober 2026",
        "date_iso": "2026-10-08",
        "relative": "Besok",
        "hour": "04:00",
        "rain_probability": 11.2,
        "risk_score": 27,
        "risk_class": "watch",
        "risk_label": "Perlu diperhatikan",
        "condition": "Cerah Berawan",
        "temp_c": 20.7,
        "humidity_pct": 88.0,
        "heat_index_c": 20.7,
        "wind_kmh": 2.9,
        "wind_dir": 144.0,
        "cloud_pct": 66.0
      }
    },
    {
      "type": "Feature",
      "geometry": {
        "type": "Point",
        "coordinates": [
          107.61,
          -6.889
        ]
      },
      "properties": {
        "location_name": "Dago, Bandung",
        "slug": "dago",
        "date": "Kamis, 8 Oktober 2026",
        "date_iso": "2026-10-08",
        "relative": "Besok",
        "hour": "05:00",
        "rain_probability": 9.9,
        "risk_score": 26,
        "risk_class": "watch",
        "risk_label": "Perlu diperhatikan",
        "condition": "Berawan",
        "temp_c": 20.7,
        "humidity_pct": 87.0,
        "heat_index_c": 20.7,
        "wind_kmh": 3.0,
        "wind_dir": 132.0,
        "cloud_pct": 94.0
      }
    },
    {
      "type": "Feature",
      "geometry": {
        "type": "Point",
        "coordinates": [
          107.61,
          -6.889
        ]
      },
      "properties": {
        "location_name": "Dago, Bandung",
        "slug": "dago",
        "date": "Kamis, 8 Oktober 2026",
        "date_iso": "2026-10-08",
        "relative": "Besok",
        "hour": "06:00",
        "rain_probability": 8.0,
        "risk_score": 25,
        "risk_class": "safe",
        "risk_label": "Aman",
        "condition": "Berawan",
        "temp_c": 20.6,
        "humidity_pct": 83.0,
        "heat_index_c": 20.6,
        "wind_kmh": 3.1,
        "wind_dir": 126.0,
        "cloud_pct": 95.0
      }
    },
    {
      "type": "Feature",
      "geometry": {
        "type": "Point",
        "coordinates": [
          107.61,
          -6.889
        ]
      },
      "properties": {
        "location_name": "Dago, Bandung",
        "slug": "dago",
        "date": "Kamis, 8 Oktober 2026",
        "date_iso": "2026-10-08",
        "relative": "Besok",
        "hour": "07:00",
        "rain_probability": 7.7,
        "risk_score": 23,
        "risk_class": "safe",
        "risk_label": "Aman",
        "condition": "Cerah Berawan",
        "temp_c": 21.9,
        "humidity_pct": 78.3,
        "heat_index_c": 21.9,
        "wind_kmh": 3.3,
        "wind_dir": 123.0,
        "cloud_pct": 55.0
      }
    },
    {
      "type": "Feature",
      "geometry": {
        "type": "Point",
        "coordinates": [
          107.61,
          -6.889
        ]
      },
      "properties": {
        "location_name": "Dago, Bandung",
        "slug": "dago",
        "date": "Kamis, 8 Oktober 2026",
        "date_iso": "2026-10-08",
        "relative": "Besok",
        "hour": "08:00",
        "rain_probability": 7.4,
        "risk_score": 20,
        "risk_class": "safe",
        "risk_label": "Aman",
        "condition": "Cerah Berawan",
        "temp_c": 24.0,
        "humidity_pct": 67.0,
        "heat_index_c": 24.0,
        "wind_kmh": 3.9,
        "wind_dir": 111.0,
        "cloud_pct": 50.0
      }
    },
    {
      "type": "Feature",
      "geometry": {
        "type": "Point",
        "coordinates": [
          107.61,
          -6.889
        ]
      },
      "properties": {
        "location_name": "Dago, Bandung",
        "slug": "dago",
        "date": "Kamis, 8 Oktober 2026",
        "date_iso": "2026-10-08",
        "relative": "Besok",
        "hour": "09:00",
        "rain_probability": 13.4,
        "risk_score": 21,
        "risk_class": "safe",
        "risk_label": "Aman",
        "condition": "Cerah Berawan",
        "temp_c": 26.6,
        "humidity_pct": 59.0,
        "heat_index_c": 26.6,
        "wind_kmh": 4.4,
        "wind_dir": 150.0,
        "cloud_pct": 52.0
      }
    },
    {
      "type": "Feature",
      "geometry": {
        "type": "Point",
        "coordinates": [
          107.61,
          -6.889
        ]
      },
      "properties": {
        "location_name": "Dago, Bandung",
        "slug": "dago",
        "date": "Kamis, 8 Oktober 2026",
        "date_iso": "2026-10-08",
        "relative": "Besok",
        "hour": "10:00",
        "rain_probability": 15.7,
        "risk_score": 21,
        "risk_class": "safe",
        "risk_label": "Aman",
        "condition": "Cerah Berawan",
        "temp_c": 27.5,
        "humidity_pct": 53.0,
        "heat_index_c": 27.94,
        "wind_kmh": 6.0,
        "wind_dir": 150.0,
        "cloud_pct": 51.0
      }
    },
    {
      "type": "Feature",
      "geometry": {
        "type": "Point",
        "coordinates": [
          107.61,
          -6.889
        ]
      },
      "properties": {
        "location_name": "Dago, Bandung",
        "slug": "dago",
        "date": "Kamis, 8 Oktober 2026",
        "date_iso": "2026-10-08",
        "relative": "Besok",
        "hour": "11:00",
        "rain_probability": 23.1,
        "risk_score": 28,
        "risk_class": "watch",
        "risk_label": "Perlu diperhatikan",
        "condition": "Cerah Berawan",
        "temp_c": 28.0,
        "humidity_pct": 54.0,
        "heat_index_c": 29.16,
        "wind_kmh": 5.3,
        "wind_dir": 147.0,
        "cloud_pct": 75.0
      }
    },
    {
      "type": "Feature",
      "geometry": {
        "type": "Point",
        "coordinates": [
          107.61,
          -6.889
        ]
      },
      "properties": {
        "location_name": "Dago, Bandung",
        "slug": "dago",
        "date": "Kamis, 8 Oktober 2026",
        "date_iso": "2026-10-08",
        "relative": "Besok",
        "hour": "12:00",
        "rain_probability": 25.3,
        "risk_score": 29,
        "risk_class": "watch",
        "risk_label": "Perlu diperhatikan",
        "condition": "Cerah Berawan",
        "temp_c": 28.7,
        "humidity_pct": 53.0,
        "heat_index_c": 29.02,
        "wind_kmh": 8.2,
        "wind_dir": 323.0,
        "cloud_pct": 75.0
      }
    },
    {
      "type": "Feature",
      "geometry": {
        "type": "Point",
        "coordinates": [
          107.61,
          -6.889
        ]
      },
      "properties": {
        "location_name": "Dago, Bandung",
        "slug": "dago",
        "date": "Kamis, 8 Oktober 2026",
        "date_iso": "2026-10-08",
        "relative": "Besok",
        "hour": "13:00",
        "rain_probability": 32.2,
        "risk_score": 32,
        "risk_class": "watch",
        "risk_label": "Perlu diperhatikan",
        "condition": "Cerah Berawan",
        "temp_c": 29.3,
        "humidity_pct": 50.0,
        "heat_index_c": 29.49,
        "wind_kmh": 10.0,
        "wind_dir": 280.0,
        "cloud_pct": 74.0
      }
    },
    {
      "type": "Feature",
      "geometry": {
        "type": "Point",
        "coordinates": [
          107.61,
          -6.889
        ]
      },
      "properties": {
        "location_name": "Dago, Bandung",
        "slug": "dago",
        "date": "Kamis, 8 Oktober 2026",
        "date_iso": "2026-10-08",
        "relative": "Besok",
        "hour": "14:00",
        "rain_probability": 40.5,
        "risk_score": 40,
        "risk_class": "watch",
        "risk_label": "Perlu diperhatikan",
        "condition": "Hujan Ringan",
        "temp_c": 29.5,
        "humidity_pct": 46.0,
        "heat_index_c": 29.6,
        "wind_kmh": 10.6,
        "wind_dir": 335.0,
        "cloud_pct": 71.0
      }
    },
    {
      "type": "Feature",
      "geometry": {
        "type": "Point",
        "coordinates": [
          107.61,
          -6.889
        ]
      },
      "properties": {
        "location_name": "Dago, Bandung",
        "slug": "dago",
        "date": "Kamis, 8 Oktober 2026",
        "date_iso": "2026-10-08",
        "relative": "Besok",
        "hour": "15:00",
        "rain_probability": 47.9,
        "risk_score": 48,
        "risk_class": "watch",
        "risk_label": "Perlu diperhatikan",
        "condition": "Hujan Ringan",
        "temp_c": 29.5,
        "humidity_pct": 46.0,
        "heat_index_c": 29.5,
        "wind_kmh": 9.0,
        "wind_dir": 336.0,
        "cloud_pct": 74.0
      }
    },
    {
      "type": "Feature",
      "geometry": {
        "type": "Point",
        "coordinates": [
          107.61,
          -6.889
        ]
      },
      "properties": {
        "location_name": "Dago, Bandung",
        "slug": "dago",
        "date": "Kamis, 8 Oktober 2026",
        "date_iso": "2026-10-08",
        "relative": "Besok",
        "hour": "16:00",
        "rain_probability": 46.4,
        "risk_score": 46,
        "risk_class": "watch",
        "risk_label": "Perlu diperhatikan",
        "condition": "Cerah Berawan",
        "temp_c": 28.2,
        "humidity_pct": 52.0,
        "heat_index_c": 28.4,
        "wind_kmh": 10.7,
        "wind_dir": 285.0,
        "cloud_pct": 75.0
      }
    },
    {
      "type": "Feature",
      "geometry": {
        "type": "Point",
        "coordinates": [
          107.61,
          -6.889
        ]
      },
      "properties": {
        "location_name": "Dago, Bandung",
        "slug": "dago",
        "date": "Kamis, 8 Oktober 2026",
        "date_iso": "2026-10-08",
        "relative": "Besok",
        "hour": "17:00",
        "rain_probability": 29.2,
        "risk_score": 29,
        "risk_class": "watch",
        "risk_label": "Perlu diperhatikan",
        "condition": "Cerah Berawan",
        "temp_c": 27.1,
        "humidity_pct": 57.3,
        "heat_index_c": 27.99,
        "wind_kmh": 9.6,
        "wind_dir": 290.0,
        "cloud_pct": 69.0
      }
    },
    {
      "type": "Feature",
      "geometry": {
        "type": "Point",
        "coordinates": [
          107.61,
          -6.889
        ]
      },
      "properties": {
        "location_name": "Dago, Bandung",
        "slug": "dago",
        "date": "Kamis, 8 Oktober 2026",
        "date_iso": "2026-10-08",
        "relative": "Besok",
        "hour": "18:00",
        "rain_probability": 31.4,
        "risk_score": 33,
        "risk_class": "watch",
        "risk_label": "Perlu diperhatikan",
        "condition": "Cerah Berawan",
        "temp_c": 26.0,
        "humidity_pct": 66.0,
        "heat_index_c": 26.0,
        "wind_kmh": 8.4,
        "wind_dir": 189.0,
        "cloud_pct": 76.0
      }
    },
    {
      "type": "Feature",
      "geometry": {
        "type": "Point",
        "coordinates": [
          107.61,
          -6.889
        ]
      },
      "properties": {
        "location_name": "Dago, Bandung",
        "slug": "dago",
        "date": "Kamis, 8 Oktober 2026",
        "date_iso": "2026-10-08",
        "relative": "Besok",
        "hour": "19:00",
        "rain_probability": 37.2,
        "risk_score": 38,
        "risk_class": "watch",
        "risk_label": "Perlu diperhatikan",
        "condition": "Cerah Berawan",
        "temp_c": 24.7,
        "humidity_pct": 73.0,
        "heat_index_c": 24.7,
        "wind_kmh": 7.1,
        "wind_dir": 143.0,
        "cloud_pct": 71.0
      }
    },
    {
      "type": "Feature",
      "geometry": {
        "type": "Point",
        "coordinates": [
          107.61,
          -6.889
        ]
      },
      "properties": {
        "location_name": "Dago, Bandung",
        "slug": "dago",
        "date": "Kamis, 8 Oktober 2026",
        "date_iso": "2026-10-08",
        "relative": "Besok",
        "hour": "20:00",
        "rain_probability": 40.4,
        "risk_score": 40,
        "risk_class": "watch",
        "risk_label": "Perlu diperhatikan",
        "condition": "Hujan Ringan",
        "temp_c": 23.8,
        "humidity_pct": 78.0,
        "heat_index_c": 23.8,
        "wind_kmh": 5.9,
        "wind_dir": 176.0,
        "cloud_pct": 75.0
      }
    },
    {
      "type": "Feature",
      "geometry": {
        "type": "Point",
        "coordinates": [
          107.61,
          -6.889
        ]
      },
      "properties": {
        "location_name": "Dago, Bandung",
        "slug": "dago",
        "date": "Kamis, 8 Oktober 2026",
        "date_iso": "2026-10-08",
        "relative": "Besok",
        "hour": "21:00",
        "rain_probability": 34.3,
        "risk_score": 37,
        "risk_class": "watch",
        "risk_label": "Perlu diperhatikan",
        "condition": "Hujan Ringan",
        "temp_c": 23.0,
        "humidity_pct": 80.0,
        "heat_index_c": 23.0,
        "wind_kmh": 5.04,
        "wind_dir": 180.0,
        "cloud_pct": 95.0
      }
    },
    {
      "type": "Feature",
      "geometry": {
        "type": "Point",
        "coordinates": [
          107.61,
          -6.889
        ]
      },
      "properties": {
        "location_name": "Dago, Bandung",
        "slug": "dago",
        "date": "Kamis, 8 Oktober 2026",
        "date_iso": "2026-10-08",
        "relative": "Besok",
        "hour": "22:00",
        "rain_probability": 28.1,
        "risk_score": 32,
        "risk_class": "watch",
        "risk_label": "Perlu diperhatikan",
        "condition": "Berawan",
        "temp_c": 22.7,
        "humidity_pct": 80.0,
        "heat_index_c": 22.7,
        "wind_kmh": 4.1,
        "wind_dir": 112.0,
        "cloud_pct": 97.0
      }
    },
    {
      "type": "Feature",
      "geometry": {
        "type": "Point",
        "coordinates": [
          107.61,
          -6.889
        ]
      },
      "properties": {
        "location_name": "Dago, Bandung",
        "slug": "dago",
        "date": "Kamis, 8 Oktober 2026",
        "date_iso": "2026-10-08",
        "relative": "Besok",
        "hour": "23:00",
        "rain_probability": 27.5,
        "risk_score": 33,
        "risk_class": "watch",
        "risk_label": "Perlu diperhatikan",
        "condition": "Berawan",
        "temp_c": 22.4,
        "humidity_pct": 81.0,
        "heat_index_c": 22.4,
        "wind_kmh": 4.68,
        "wind_dir": 108.0,
        "cloud_pct": 83.0
      }
    },
    {
      "type": "Feature",
      "geometry": {
        "type": "Point",
        "coordinates": [
          107.61,
          -6.889
        ]
      },
      "properties": {
        "location_name": "Dago, Bandung",
        "slug": "dago",
        "date": "Jumat, 9 Oktober 2026",
        "date_iso": "2026-10-09",
        "relative": "Lusa",
        "hour": "00:00",
        "rain_probability": 14.3,
        "risk_score": 27,
        "risk_class": "watch",
        "risk_label": "Perlu diperhatikan",
        "condition": "Cerah Berawan",
        "temp_c": 21.9,
        "humidity_pct": 84.0,
        "heat_index_c": 21.9,
        "wind_kmh": 2.8,
        "wind_dir": 189.0,
        "cloud_pct": 66.0
      }
    },
    {
      "type": "Feature",
      "geometry": {
        "type": "Point",
        "coordinates": [
          107.61,
          -6.889
        ]
      },
      "properties": {
        "location_name": "Dago, Bandung",
        "slug": "dago",
        "date": "Jumat, 9 Oktober 2026",
        "date_iso": "2026-10-09",
        "relative": "Lusa",
        "hour": "01:00",
        "rain_probability": 8.1,
        "risk_score": 23,
        "risk_class": "safe",
        "risk_label": "Aman",
        "condition": "Cerah Berawan",
        "temp_c": 21.9,
        "humidity_pct": 85.0,
        "heat_index_c": 21.9,
        "wind_kmh": 2.8,
        "wind_dir": 174.0,
        "cloud_pct": 56.0
      }
    },
    {
      "type": "Feature",
      "geometry": {
        "type": "Point",
        "coordinates": [
          107.61,
          -6.889
        ]
      },
      "properties": {
        "location_name": "Dago, Bandung",
        "slug": "dago",
        "date": "Jumat, 9 Oktober 2026",
        "date_iso": "2026-10-09",
        "relative": "Lusa",
        "hour": "02:00",
        "rain_probability": 7.4,
        "risk_score": 23,
        "risk_class": "safe",
        "risk_label": "Aman",
        "condition": "Cerah Berawan",
        "temp_c": 21.8,
        "humidity_pct": 87.0,
        "heat_index_c": 21.8,
        "wind_kmh": 2.6,
        "wind_dir": 171.0,
        "cloud_pct": 47.0
      }
    },
    {
      "type": "Feature",
      "geometry": {
        "type": "Point",
        "coordinates": [
          107.61,
          -6.889
        ]
      },
      "properties": {
        "location_name": "Dago, Bandung",
        "slug": "dago",
        "date": "Jumat, 9 Oktober 2026",
        "date_iso": "2026-10-09",
        "relative": "Lusa",
        "hour": "03:00",
        "rain_probability": 7.1,
        "risk_score": 24,
        "risk_class": "safe",
        "risk_label": "Aman",
        "condition": "Cerah Berawan",
        "temp_c": 21.7,
        "humidity_pct": 88.0,
        "heat_index_c": 21.7,
        "wind_kmh": 1.6,
        "wind_dir": 178.0,
        "cloud_pct": 75.0
      }
    },
    {
      "type": "Feature",
      "geometry": {
        "type": "Point",
        "coordinates": [
          107.61,
          -6.889
        ]
      },
      "properties": {
        "location_name": "Dago, Bandung",
        "slug": "dago",
        "date": "Jumat, 9 Oktober 2026",
        "date_iso": "2026-10-09",
        "relative": "Lusa",
        "hour": "04:00",
        "rain_probability": 11.5,
        "risk_score": 26,
        "risk_class": "watch",
        "risk_label": "Perlu diperhatikan",
        "condition": "Berawan",
        "temp_c": 21.0,
        "humidity_pct": 89.0,
        "heat_index_c": 21.0,
        "wind_kmh": 2.5,
        "wind_dir": 183.0,
        "cloud_pct": 96.0
      }
    },
    {
      "type": "Feature",
      "geometry": {
        "type": "Point",
        "coordinates": [
          107.61,
          -6.889
        ]
      },
      "properties": {
        "location_name": "Dago, Bandung",
        "slug": "dago",
        "date": "Jumat, 9 Oktober 2026",
        "date_iso": "2026-10-09",
        "relative": "Lusa",
        "hour": "05:00",
        "rain_probability": 10.9,
        "risk_score": 27,
        "risk_class": "watch",
        "risk_label": "Perlu diperhatikan",
        "condition": "Berawan",
        "temp_c": 21.1,
        "humidity_pct": 90.0,
        "heat_index_c": 21.1,
        "wind_kmh": 2.6,
        "wind_dir": 155.0,
        "cloud_pct": 89.0
      }
    },
    {
      "type": "Feature",
      "geometry": {
        "type": "Point",
        "coordinates": [
          107.61,
          -6.889
        ]
      },
      "properties": {
        "location_name": "Dago, Bandung",
        "slug": "dago",
        "date": "Jumat, 9 Oktober 2026",
        "date_iso": "2026-10-09",
        "relative": "Lusa",
        "hour": "06:00",
        "rain_probability": 9.9,
        "risk_score": 26,
        "risk_class": "watch",
        "risk_label": "Perlu diperhatikan",
        "condition": "Cerah Berawan",
        "temp_c": 21.0,
        "humidity_pct": 85.0,
        "heat_index_c": 21.0,
        "wind_kmh": 2.9,
        "wind_dir": 135.0,
        "cloud_pct": 62.0
      }
    },
    {
      "type": "Feature",
      "geometry": {
        "type": "Point",
        "coordinates": [
          107.61,
          -6.889
        ]
      },
      "properties": {
        "location_name": "Dago, Bandung",
        "slug": "dago",
        "date": "Jumat, 9 Oktober 2026",
        "date_iso": "2026-10-09",
        "relative": "Lusa",
        "hour": "07:00",
        "rain_probability": 10.2,
        "risk_score": 25,
        "risk_class": "watch",
        "risk_label": "Perlu diperhatikan",
        "condition": "Cerah Berawan",
        "temp_c": 22.3,
        "humidity_pct": 82.8,
        "heat_index_c": 22.3,
        "wind_kmh": 2.2,
        "wind_dir": 136.0,
        "cloud_pct": 48.0
      }
    },
    {
      "type": "Feature",
      "geometry": {
        "type": "Point",
        "coordinates": [
          107.61,
          -6.889
        ]
      },
      "properties": {
        "location_name": "Dago, Bandung",
        "slug": "dago",
        "date": "Jumat, 9 Oktober 2026",
        "date_iso": "2026-10-09",
        "relative": "Lusa",
        "hour": "08:00",
        "rain_probability": 10.2,
        "risk_score": 23,
        "risk_class": "safe",
        "risk_label": "Aman",
        "condition": "Cerah Berawan",
        "temp_c": 24.1,
        "humidity_pct": 74.0,
        "heat_index_c": 24.1,
        "wind_kmh": 1.8,
        "wind_dir": 120.0,
        "cloud_pct": 31.0
      }
    },
    {
      "type": "Feature",
      "geometry": {
        "type": "Point",
        "coordinates": [
          107.61,
          -6.889
        ]
      },
      "properties": {
        "location_name": "Dago, Bandung",
        "slug": "dago",
        "date": "Jumat, 9 Oktober 2026",
        "date_iso": "2026-10-09",
        "relative": "Lusa",
        "hour": "09:00",
        "rain_probability": 10.7,
        "risk_score": 22,
        "risk_class": "safe",
        "risk_label": "Aman",
        "condition": "Cerah Berawan",
        "temp_c": 25.8,
        "humidity_pct": 63.0,
        "heat_index_c": 25.8,
        "wind_kmh": 3.2,
        "wind_dir": 296.0,
        "cloud_pct": 42.0
      }
    },
    {
      "type": "Feature",
      "geometry": {
        "type": "Point",
        "coordinates": [
          107.61,
          -6.889
        ]
      },
      "properties": {
        "location_name": "Dago, Bandung",
        "slug": "dago",
        "date": "Jumat, 9 Oktober 2026",
        "date_iso": "2026-10-09",
        "relative": "Lusa",
        "hour": "10:00",
        "rain_probability": 17.9,
        "risk_score": 26,
        "risk_class": "watch",
        "risk_label": "Perlu diperhatikan",
        "condition": "Cerah Berawan",
        "temp_c": 27.2,
        "humidity_pct": 63.0,
        "heat_index_c": 28.03,
        "wind_kmh": 5.5,
        "wind_dir": 303.0,
        "cloud_pct": 52.0
      }
    },
    {
      "type": "Feature",
      "geometry": {
        "type": "Point",
        "coordinates": [
          107.61,
          -6.889
        ]
      },
      "properties": {
        "location_name": "Dago, Bandung",
        "slug": "dago",
        "date": "Jumat, 9 Oktober 2026",
        "date_iso": "2026-10-09",
        "relative": "Lusa",
        "hour": "11:00",
        "rain_probability": 27.4,
        "risk_score": 29,
        "risk_class": "watch",
        "risk_label": "Perlu diperhatikan",
        "condition": "Hujan Ringan",
        "temp_c": 28.4,
        "humidity_pct": 53.0,
        "heat_index_c": 28.91,
        "wind_kmh": 7.6,
        "wind_dir": 275.0,
        "cloud_pct": 55.0
      }
    },
    {
      "type": "Feature",
      "geometry": {
        "type": "Point",
        "coordinates": [
          107.61,
          -6.889
        ]
      },
      "properties": {
        "location_name": "Dago, Bandung",
        "slug": "dago",
        "date": "Jumat, 9 Oktober 2026",
        "date_iso": "2026-10-09",
        "relative": "Lusa",
        "hour": "12:00",
        "rain_probability": 29.1,
        "risk_score": 30,
        "risk_class": "watch",
        "risk_label": "Perlu diperhatikan",
        "condition": "Hujan Ringan",
        "temp_c": 29.3,
        "humidity_pct": 53.0,
        "heat_index_c": 29.33,
        "wind_kmh": 10.3,
        "wind_dir": 327.0,
        "cloud_pct": 49.0
      }
    },
    {
      "type": "Feature",
      "geometry": {
        "type": "Point",
        "coordinates": [
          107.61,
          -6.889
        ]
      },
      "properties": {
        "location_name": "Dago, Bandung",
        "slug": "dago",
        "date": "Jumat, 9 Oktober 2026",
        "date_iso": "2026-10-09",
        "relative": "Lusa",
        "hour": "13:00",
        "rain_probability": 35.2,
        "risk_score": 35,
        "risk_class": "watch",
        "risk_label": "Perlu diperhatikan",
        "condition": "Hujan Ringan",
        "temp_c": 29.7,
        "humidity_pct": 49.8,
        "heat_index_c": 29.7,
        "wind_kmh": 12.1,
        "wind_dir": 327.0,
        "cloud_pct": 38.0
      }
    },
    {
      "type": "Feature",
      "geometry": {
        "type": "Point",
        "coordinates": [
          107.61,
          -6.889
        ]
      },
      "properties": {
        "location_name": "Dago, Bandung",
        "slug": "dago",
        "date": "Jumat, 9 Oktober 2026",
        "date_iso": "2026-10-09",
        "relative": "Lusa",
        "hour": "14:00",
        "rain_probability": 32.1,
        "risk_score": 32,
        "risk_class": "watch",
        "risk_label": "Perlu diperhatikan",
        "condition": "Cerah Berawan",
        "temp_c": 29.7,
        "humidity_pct": 46.9,
        "heat_index_c": 29.7,
        "wind_kmh": 13.32,
        "wind_dir": 277.0,
        "cloud_pct": 33.0
      }
    },
    {
      "type": "Feature",
      "geometry": {
        "type": "Point",
        "coordinates": [
          107.61,
          -6.889
        ]
      },
      "properties": {
        "location_name": "Dago, Bandung",
        "slug": "dago",
        "date": "Jumat, 9 Oktober 2026",
        "date_iso": "2026-10-09",
        "relative": "Lusa",
        "hour": "15:00",
        "rain_probability": 39.6,
        "risk_score": 40,
        "risk_class": "watch",
        "risk_label": "Perlu diperhatikan",
        "condition": "Cerah Berawan",
        "temp_c": 29.4,
        "humidity_pct": 46.3,
        "heat_index_c": 29.4,
        "wind_kmh": 12.6,
        "wind_dir": 281.0,
        "cloud_pct": 65.0
      }
    },
    {
      "type": "Feature",
      "geometry": {
        "type": "Point",
        "coordinates": [
          107.61,
          -6.889
        ]
      },
      "properties": {
        "location_name": "Dago, Bandung",
        "slug": "dago",
        "date": "Jumat, 9 Oktober 2026",
        "date_iso": "2026-10-09",
        "relative": "Lusa",
        "hour": "16:00",
        "rain_probability": 38.0,
        "risk_score": 38,
        "risk_class": "watch",
        "risk_label": "Perlu diperhatikan",
        "condition": "Cerah Berawan",
        "temp_c": 28.1,
        "humidity_pct": 48.3,
        "heat_index_c": 28.92,
        "wind_kmh": 14.7,
        "wind_dir": 239.0,
        "cloud_pct": 49.0
      }
    },
    {
      "type": "Feature",
      "geometry": {
        "type": "Point",
        "coordinates": [
          107.61,
          -6.889
        ]
      },
      "properties": {
        "location_name": "Dago, Bandung",
        "slug": "dago",
        "date": "Jumat, 9 Oktober 2026",
        "date_iso": "2026-10-09",
        "relative": "Lusa",
        "hour": "17:00",
        "rain_probability": 36.9,
        "risk_score": 37,
        "risk_class": "watch",
        "risk_label": "Perlu diperhatikan",
        "condition": "Cerah Berawan",
        "temp_c": 26.9,
        "humidity_pct": 58.0,
        "heat_index_c": 27.52,
        "wind_kmh": 10.6,
        "wind_dir": 245.0,
        "cloud_pct": 77.0
      }
    },
    {
      "type": "Feature",
      "geometry": {
        "type": "Point",
        "coordinates": [
          107.61,
          -6.889
        ]
      },
      "properties": {
        "location_name": "Dago, Bandung",
        "slug": "dago",
        "date": "Jumat, 9 Oktober 2026",
        "date_iso": "2026-10-09",
        "relative": "Lusa",
        "hour": "18:00",
        "rain_probability": 38.6,
        "risk_score": 40,
        "risk_class": "watch",
        "risk_label": "Perlu diperhatikan",
        "condition": "Hujan Ringan",
        "temp_c": 25.3,
        "humidity_pct": 68.0,
        "heat_index_c": 25.3,
        "wind_kmh": 7.8,
        "wind_dir": 189.0,
        "cloud_pct": 80.0
      }
    },
    {
      "type": "Feature",
      "geometry": {
        "type": "Point",
        "coordinates": [
          107.61,
          -6.889
        ]
      },
      "properties": {
        "location_name": "Dago, Bandung",
        "slug": "dago",
        "date": "Jumat, 9 Oktober 2026",
        "date_iso": "2026-10-09",
        "relative": "Lusa",
        "hour": "19:00",
        "rain_probability": 34.4,
        "risk_score": 38,
        "risk_class": "watch",
        "risk_label": "Perlu diperhatikan",
        "condition": "Berawan",
        "temp_c": 24.0,
        "humidity_pct": 74.0,
        "heat_index_c": 24.0,
        "wind_kmh": 6.1,
        "wind_dir": 192.0,
        "cloud_pct": 83.0
      }
    },
    {
      "type": "Feature",
      "geometry": {
        "type": "Point",
        "coordinates": [
          107.61,
          -6.889
        ]
      },
      "properties": {
        "location_name": "Dago, Bandung",
        "slug": "dago",
        "date": "Jumat, 9 Oktober 2026",
        "date_iso": "2026-10-09",
        "relative": "Lusa",
        "hour": "20:00",
        "rain_probability": 27.3,
        "risk_score": 36,
        "risk_class": "watch",
        "risk_label": "Perlu diperhatikan",
        "condition": "Berawan",
        "temp_c": 23.3,
        "humidity_pct": 82.0,
        "heat_index_c": 23.3,
        "wind_kmh": 5.2,
        "wind_dir": 195.0,
        "cloud_pct": 89.0
      }
    },
    {
      "type": "Feature",
      "geometry": {
        "type": "Point",
        "coordinates": [
          107.61,
          -6.889
        ]
      },
      "properties": {
        "location_name": "Dago, Bandung",
        "slug": "dago",
        "date": "Jumat, 9 Oktober 2026",
        "date_iso": "2026-10-09",
        "relative": "Lusa",
        "hour": "21:00",
        "rain_probability": 27.6,
        "risk_score": 36,
        "risk_class": "watch",
        "risk_label": "Perlu diperhatikan",
        "condition": "Cerah Berawan",
        "temp_c": 22.9,
        "humidity_pct": 83.0,
        "heat_index_c": 22.9,
        "wind_kmh": 3.5,
        "wind_dir": 196.0,
        "cloud_pct": 81.0
      }
    },
    {
      "type": "Feature",
      "geometry": {
        "type": "Point",
        "coordinates": [
          107.61,
          -6.889
        ]
      },
      "properties": {
        "location_name": "Dago, Bandung",
        "slug": "dago",
        "date": "Jumat, 9 Oktober 2026",
        "date_iso": "2026-10-09",
        "relative": "Lusa",
        "hour": "22:00",
        "rain_probability": 23.3,
        "risk_score": 34,
        "risk_class": "watch",
        "risk_label": "Perlu diperhatikan",
        "condition": "Cerah Berawan",
        "temp_c": 22.4,
        "humidity_pct": 83.0,
        "heat_index_c": 22.4,
        "wind_kmh": 3.0,
        "wind_dir": 187.0,
        "cloud_pct": 68.0
      }
    },
    {
      "type": "Feature",
      "geometry": {
        "type": "Point",
        "coordinates": [
          107.61,
          -6.889
        ]
      },
      "properties": {
        "location_name": "Dago, Bandung",
        "slug": "dago",
        "date": "Jumat, 9 Oktober 2026",
        "date_iso": "2026-10-09",
        "relative": "Lusa",
        "hour": "23:00",
        "rain_probability": 26.6,
        "risk_score": 34,
        "risk_class": "watch",
        "risk_label": "Perlu diperhatikan",
        "condition": "Cerah Berawan",
        "temp_c": 22.0,
        "humidity_pct": 84.6,
        "heat_index_c": 22.0,
        "wind_kmh": 3.1,
        "wind_dir": 220.0,
        "cloud_pct": 71.0
      }
    }
  ]
}