{
  "type": "FeatureCollection",
  "features": [
    {
      "type": "Feature",
      "geometry": {
        "type": "Point",
        "coordinates": [
          107.7556,
          -6.938
        ]
      },
      "properties": {
        "location_name": "Jatinangor, Sumedang",
        "slug": "jatinangor",
        "date": "Sabtu, 10 Oktober 2026",
        "date_iso": "2026-10-10",
        "relative": "Hari ini",
        "hour": "00:00",
        "rain_probability": 14.3,
        "risk_score": 27,
        "risk_class": "watch",
        "risk_label": "Perlu diperhatikan",
        "condition": "Berawan",
        "temp_c": 21.9,
        "humidity_pct": 93.0,
        "heat_index_c": 21.9,
        "wind_kmh": 2.2,
        "wind_dir": 84.0,
        "cloud_pct": 97.0
      }
    },
    {
      "type": "Feature",
      "geometry": {
        "type": "Point",
        "coordinates": [
          107.7556,
          -6.938
        ]
      },
      "properties": {
        "location_name": "Jatinangor, Sumedang",
        "slug": "jatinangor",
        "date": "Sabtu, 10 Oktober 2026",
        "date_iso": "2026-10-10",
        "relative": "Hari ini",
        "hour": "01:00",
        "rain_probability": 13.0,
        "risk_score": 28,
        "risk_class": "watch",
        "risk_label": "Perlu diperhatikan",
        "condition": "Berawan",
        "temp_c": 21.4,
        "humidity_pct": 93.0,
        "heat_index_c": 21.4,
        "wind_kmh": 1.8,
        "wind_dir": 196.0,
        "cloud_pct": 86.0
      }
    },
    {
      "type": "Feature",
      "geometry": {
        "type": "Point",
        "coordinates": [
          107.7556,
          -6.938
        ]
      },
      "properties": {
        "location_name": "Jatinangor, Sumedang",
        "slug": "jatinangor",
        "date": "Sabtu, 10 Oktober 2026",
        "date_iso": "2026-10-10",
        "relative": "Hari ini",
        "hour": "02:00",
        "rain_probability": 3.3,
        "risk_score": 23,
        "risk_class": "safe",
        "risk_label": "Aman",
        "condition": "Cerah Berawan",
        "temp_c": 20.9,
        "humidity_pct": 95.0,
        "heat_index_c": 20.9,
        "wind_kmh": 2.2,
        "wind_dir": 195.0,
        "cloud_pct": 71.0
      }
    },
    {
      "type": "Feature",
      "geometry": {
        "type": "Point",
        "coordinates": [
          107.7556,
          -6.938
        ]
      },
      "properties": {
        "location_name": "Jatinangor, Sumedang",
        "slug": "jatinangor",
        "date": "Sabtu, 10 Oktober 2026",
        "date_iso": "2026-10-10",
        "relative": "Hari ini",
        "hour": "03:00",
        "rain_probability": 2.4,
        "risk_score": 22,
        "risk_class": "safe",
        "risk_label": "Aman",
        "condition": "Berawan",
        "temp_c": 20.3,
        "humidity_pct": 94.0,
        "heat_index_c": 20.3,
        "wind_kmh": 3.8,
        "wind_dir": 190.0,
        "cloud_pct": 80.0
      }
    },
    {
      "type": "Feature",
      "geometry": {
        "type": "Point",
        "coordinates": [
          107.7556,
          -6.938
        ]
      },
      "properties": {
        "location_name": "Jatinangor, Sumedang",
        "slug": "jatinangor",
        "date": "Sabtu, 10 Oktober 2026",
        "date_iso": "2026-10-10",
        "relative": "Hari ini",
        "hour": "04:00",
        "rain_probability": 1.5,
        "risk_score": 22,
        "risk_class": "safe",
        "risk_label": "Aman",
        "condition": "Cerah",
        "temp_c": 20.2,
        "humidity_pct": 94.0,
        "heat_index_c": 20.2,
        "wind_kmh": 4.9,
        "wind_dir": 194.0,
        "cloud_pct": 73.0
      }
    },
    {
      "type": "Feature",
      "geometry": {
        "type": "Point",
        "coordinates": [
          107.7556,
          -6.938
        ]
      },
      "properties": {
        "location_name": "Jatinangor, Sumedang",
        "slug": "jatinangor",
        "date": "Sabtu, 10 Oktober 2026",
        "date_iso": "2026-10-10",
        "relative": "Hari ini",
        "hour": "05:00",
        "rain_probability": 70.0,
        "risk_score": 70,
        "risk_class": "rain",
        "risk_label": "Waspada",
        "condition": "Cerah",
        "temp_c": 20.4,
        "humidity_pct": 94.0,
        "heat_index_c": 20.4,
        "wind_kmh": 4.5,
        "wind_dir": 143.0,
        "cloud_pct": 57.0
      }
    },
    {
      "type": "Feature",
      "geometry": {
        "type": "Point",
        "coordinates": [
          107.7556,
          -6.938
        ]
      },
      "properties": {
        "location_name": "Jatinangor, Sumedang",
        "slug": "jatinangor",
        "date": "Sabtu, 10 Oktober 2026",
        "date_iso": "2026-10-10",
        "relative": "Hari ini",
        "hour": "06:00",
        "rain_probability": 40.0,
        "risk_score": 40,
        "risk_class": "watch",
        "risk_label": "Perlu diperhatikan",
        "condition": "Cerah",
        "temp_c": 21.0,
        "humidity_pct": 91.0,
        "heat_index_c": 21.0,
        "wind_kmh": 3.6,
        "wind_dir": 100.0,
        "cloud_pct": 38.0
      }
    },
    {
      "type": "Feature",
      "geometry": {
        "type": "Point",
        "coordinates": [
          107.7556,
          -6.938
        ]
      },
      "properties": {
        "location_name": "Jatinangor, Sumedang",
        "slug": "jatinangor",
        "date": "Sabtu, 10 Oktober 2026",
        "date_iso": "2026-10-10",
        "relative": "Hari ini",
        "hour": "07:00",
        "rain_probability": 40.0,
        "risk_score": 40,
        "risk_class": "watch",
        "risk_label": "Perlu diperhatikan",
        "condition": "Cerah Berawan",
        "temp_c": 22.5,
        "humidity_pct": 84.0,
        "heat_index_c": 22.5,
        "wind_kmh": 2.9,
        "wind_dir": 155.0,
        "cloud_pct": 23.0
      }
    },
    {
      "type": "Feature",
      "geometry": {
        "type": "Point",
        "coordinates": [
          107.7556,
          -6.938
        ]
      },
      "properties": {
        "location_name": "Jatinangor, Sumedang",
        "slug": "jatinangor",
        "date": "Sabtu, 10 Oktober 2026",
        "date_iso": "2026-10-10",
        "relative": "Hari ini",
        "hour": "08:00",
        "rain_probability": 10.0,
        "risk_score": 18,
        "risk_class": "safe",
        "risk_label": "Aman",
        "condition": "Cerah",
        "temp_c": 25.7,
        "humidity_pct": 75.0,
        "heat_index_c": 25.7,
        "wind_kmh": 3.0,
        "wind_dir": 115.0,
        "cloud_pct": 16.0
      }
    },
    {
      "type": "Feature",
      "geometry": {
        "type": "Point",
        "coordinates": [
          107.7556,
          -6.938
        ]
      },
      "properties": {
        "location_name": "Jatinangor, Sumedang",
        "slug": "jatinangor",
        "date": "Sabtu, 10 Oktober 2026",
        "date_iso": "2026-10-10",
        "relative": "Hari ini",
        "hour": "09:00",
        "rain_probability": 1.0,
        "risk_score": 15,
        "risk_class": "safe",
        "risk_label": "Aman",
        "condition": "Cerah Berawan",
        "temp_c": 27.6,
        "humidity_pct": 63.0,
        "heat_index_c": 29.17,
        "wind_kmh": 3.4,
        "wind_dir": 79.0,
        "cloud_pct": 39.0
      }
    },
    {
      "type": "Feature",
      "geometry": {
        "type": "Point",
        "coordinates": [
          107.7556,
          -6.938
        ]
      },
      "properties": {
        "location_name": "Jatinangor, Sumedang",
        "slug": "jatinangor",
        "date": "Sabtu, 10 Oktober 2026",
        "date_iso": "2026-10-10",
        "relative": "Hari ini",
        "hour": "10:00",
        "rain_probability": 1.9,
        "risk_score": 15,
        "risk_class": "safe",
        "risk_label": "Aman",
        "condition": "Cerah Berawan",
        "temp_c": 29.5,
        "humidity_pct": 53.0,
        "heat_index_c": 30.8,
        "wind_kmh": 2.9,
        "wind_dir": 173.0,
        "cloud_pct": 38.0
      }
    },
    {
      "type": "Feature",
      "geometry": {
        "type": "Point",
        "coordinates": [
          107.7556,
          -6.938
        ]
      },
      "properties": {
        "location_name": "Jatinangor, Sumedang",
        "slug": "jatinangor",
        "date": "Sabtu, 10 Oktober 2026",
        "date_iso": "2026-10-10",
        "relative": "Hari ini",
        "hour": "11:00",
        "rain_probability": 5.3,
        "risk_score": 24,
        "risk_class": "safe",
        "risk_label": "Aman",
        "condition": "Cerah Berawan",
        "temp_c": 31.0,
        "humidity_pct": 46.0,
        "heat_index_c": 32.0,
        "wind_kmh": 3.2,
        "wind_dir": 126.0,
        "cloud_pct": 20.0
      }
    },
    {
      "type": "Feature",
      "geometry": {
        "type": "Point",
        "coordinates": [
          107.7556,
          -6.938
        ]
      },
      "properties": {
        "location_name": "Jatinangor, Sumedang",
        "slug": "jatinangor",
        "date": "Sabtu, 10 Oktober 2026",
        "date_iso": "2026-10-10",
        "relative": "Hari ini",
        "hour": "12:00",
        "rain_probability": 9.7,
        "risk_score": 24,
        "risk_class": "safe",
        "risk_label": "Aman",
        "condition": "Cerah Berawan",
        "temp_c": 32.3,
        "humidity_pct": 41.0,
        "heat_index_c": 32.9,
        "wind_kmh": 5.8,
        "wind_dir": 243.0,
        "cloud_pct": 59.0
      }
    },
    {
      "type": "Feature",
      "geometry": {
        "type": "Point",
        "coordinates": [
          107.7556,
          -6.938
        ]
      },
      "properties": {
        "location_name": "Jatinangor, Sumedang",
        "slug": "jatinangor",
        "date": "Sabtu, 10 Oktober 2026",
        "date_iso": "2026-10-10",
        "relative": "Hari ini",
        "hour": "13:00",
        "rain_probability": 7.6,
        "risk_score": 24,
        "risk_class": "safe",
        "risk_label": "Aman",
        "condition": "Cerah Berawan",
        "temp_c": 32.4,
        "humidity_pct": 39.0,
        "heat_index_c": 32.86,
        "wind_kmh": 7.6,
        "wind_dir": 248.0,
        "cloud_pct": 67.0
      }
    },
    {
      "type": "Feature",
      "geometry": {
        "type": "Point",
        "coordinates": [
          107.7556,
          -6.938
        ]
      },
      "properties": {
        "location_name": "Jatinangor, Sumedang",
        "slug": "jatinangor",
        "date": "Sabtu, 10 Oktober 2026",
        "date_iso": "2026-10-10",
        "relative": "Hari ini",
        "hour": "14:00",
        "rain_probability": 9.9,
        "risk_score": 24,
        "risk_class": "safe",
        "risk_label": "Aman",
        "condition": "Cerah Berawan",
        "temp_c": 32.9,
        "humidity_pct": 38.0,
        "heat_index_c": 32.9,
        "wind_kmh": 8.2,
        "wind_dir": 250.0,
        "cloud_pct": 51.0
      }
    },
    {
      "type": "Feature",
      "geometry": {
        "type": "Point",
        "coordinates": [
          107.7556,
          -6.938
        ]
      },
      "properties": {
        "location_name": "Jatinangor, Sumedang",
        "slug": "jatinangor",
        "date": "Sabtu, 10 Oktober 2026",
        "date_iso": "2026-10-10",
        "relative": "Hari ini",
        "hour": "15:00",
        "rain_probability": 15.1,
        "risk_score": 24,
        "risk_class": "safe",
        "risk_label": "Aman",
        "condition": "Cerah Berawan",
        "temp_c": 32.6,
        "humidity_pct": 42.0,
        "heat_index_c": 32.6,
        "wind_kmh": 11.2,
        "wind_dir": 195.0,
        "cloud_pct": 58.0
      }
    },
    {
      "type": "Feature",
      "geometry": {
        "type": "Point",
        "coordinates": [
          107.7556,
          -6.938
        ]
      },
      "properties": {
        "location_name": "Jatinangor, Sumedang",
        "slug": "jatinangor",
        "date": "Sabtu, 10 Oktober 2026",
        "date_iso": "2026-10-10",
        "relative": "Hari ini",
        "hour": "16:00",
        "rain_probability": 19.7,
        "risk_score": 22,
        "risk_class": "safe",
        "risk_label": "Aman",
        "condition": "Cerah Berawan",
        "temp_c": 29.5,
        "humidity_pct": 47.0,
        "heat_index_c": 29.93,
        "wind_kmh": 11.2,
        "wind_dir": 75.0,
        "cloud_pct": 48.0
      }
    },
    {
      "type": "Feature",
      "geometry": {
        "type": "Point",
        "coordinates": [
          107.7556,
          -6.938
        ]
      },
      "properties": {
        "location_name": "Jatinangor, Sumedang",
        "slug": "jatinangor",
        "date": "Sabtu, 10 Oktober 2026",
        "date_iso": "2026-10-10",
        "relative": "Hari ini",
        "hour": "17:00",
        "rain_probability": 23.8,
        "risk_score": 26,
        "risk_class": "watch",
        "risk_label": "Perlu diperhatikan",
        "condition": "Cerah Berawan",
        "temp_c": 28.3,
        "humidity_pct": 53.0,
        "heat_index_c": 29.1,
        "wind_kmh": 11.5,
        "wind_dir": 90.0,
        "cloud_pct": 64.0
      }
    },
    {
      "type": "Feature",
      "geometry": {
        "type": "Point",
        "coordinates": [
          107.7556,
          -6.938
        ]
      },
      "properties": {
        "location_name": "Jatinangor, Sumedang",
        "slug": "jatinangor",
        "date": "Sabtu, 10 Oktober 2026",
        "date_iso": "2026-10-10",
        "relative": "Hari ini",
        "hour": "18:00",
        "rain_probability": 21.5,
        "risk_score": 26,
        "risk_class": "watch",
        "risk_label": "Perlu diperhatikan",
        "condition": "Cerah Berawan",
        "temp_c": 26.9,
        "humidity_pct": 63.0,
        "heat_index_c": 27.96,
        "wind_kmh": 9.4,
        "wind_dir": 43.0,
        "cloud_pct": 61.0
      }
    },
    {
      "type": "Feature",
      "geometry": {
        "type": "Point",
        "coordinates": [
          107.7556,
          -6.938
        ]
      },
      "properties": {
        "location_name": "Jatinangor, Sumedang",
        "slug": "jatinangor",
        "date": "Sabtu, 10 Oktober 2026",
        "date_iso": "2026-10-10",
        "relative": "Hari ini",
        "hour": "19:00",
        "rain_probability": 21.8,
        "risk_score": 27,
        "risk_class": "watch",
        "risk_label": "Perlu diperhatikan",
        "condition": "Cerah Berawan",
        "temp_c": 25.7,
        "humidity_pct": 71.0,
        "heat_index_c": 25.7,
        "wind_kmh": 6.8,
        "wind_dir": 60.0,
        "cloud_pct": 63.0
      }
    },
    {
      "type": "Feature",
      "geometry": {
        "type": "Point",
        "coordinates": [
          107.7556,
          -6.938
        ]
      },
      "properties": {
        "location_name": "Jatinangor, Sumedang",
        "slug": "jatinangor",
        "date": "Sabtu, 10 Oktober 2026",
        "date_iso": "2026-10-10",
        "relative": "Hari ini",
        "hour": "20:00",
        "rain_probability": 19.0,
        "risk_score": 27,
        "risk_class": "watch",
        "risk_label": "Perlu diperhatikan",
        "condition": "Cerah Berawan",
        "temp_c": 24.6,
        "humidity_pct": 76.0,
        "heat_index_c": 24.6,
        "wind_kmh": 5.6,
        "wind_dir": 73.0,
        "cloud_pct": 68.0
      }
    },
    {
      "type": "Feature",
      "geometry": {
        "type": "Point",
        "coordinates": [
          107.7556,
          -6.938
        ]
      },
      "properties": {
        "location_name": "Jatinangor, Sumedang",
        "slug": "jatinangor",
        "date": "Sabtu, 10 Oktober 2026",
        "date_iso": "2026-10-10",
        "relative": "Hari ini",
        "hour": "21:00",
        "rain_probability": 10.9,
        "risk_score": 23,
        "risk_class": "safe",
        "risk_label": "Aman",
        "condition": "Cerah Berawan",
        "temp_c": 22.8,
        "humidity_pct": 84.0,
        "heat_index_c": 22.8,
        "wind_kmh": 4.9,
        "wind_dir": 86.0,
        "cloud_pct": 72.0
      }
    },
    {
      "type": "Feature",
      "geometry": {
        "type": "Point",
        "coordinates": [
          107.7556,
          -6.938
        ]
      },
      "properties": {
        "location_name": "Jatinangor, Sumedang",
        "slug": "jatinangor",
        "date": "Sabtu, 10 Oktober 2026",
        "date_iso": "2026-10-10",
        "relative": "Hari ini",
        "hour": "22:00",
        "rain_probability": 12.9,
        "risk_score": 26,
        "risk_class": "watch",
        "risk_label": "Perlu diperhatikan",
        "condition": "Cerah Berawan",
        "temp_c": 22.7,
        "humidity_pct": 85.0,
        "heat_index_c": 22.7,
        "wind_kmh": 4.3,
        "wind_dir": 101.0,
        "cloud_pct": 72.0
      }
    },
    {
      "type": "Feature",
      "geometry": {
        "type": "Point",
        "coordinates": [
          107.7556,
          -6.938
        ]
      },
      "properties": {
        "location_name": "Jatinangor, Sumedang",
        "slug": "jatinangor",
        "date": "Sabtu, 10 Oktober 2026",
        "date_iso": "2026-10-10",
        "relative": "Hari ini",
        "hour": "23:00",
        "rain_probability": 12.1,
        "risk_score": 27,
        "risk_class": "watch",
        "risk_label": "Perlu diperhatikan",
        "condition": "Cerah Berawan",
        "temp_c": 22.2,
        "humidity_pct": 89.0,
        "heat_index_c": 22.2,
        "wind_kmh": 4.7,
        "wind_dir": 113.0,
        "cloud_pct": 71.0
      }
    },
    {
      "type": "Feature",
      "geometry": {
        "type": "Point",
        "coordinates": [
          107.7556,
          -6.938
        ]
      },
      "properties": {
        "location_name": "Jatinangor, Sumedang",
        "slug": "jatinangor",
        "date": "Minggu, 11 Oktober 2026",
        "date_iso": "2026-10-11",
        "relative": "Besok",
        "hour": "00:00",
        "rain_probability": 10.2,
        "risk_score": 24,
        "risk_class": "safe",
        "risk_label": "Aman",
        "condition": "Cerah Berawan",
        "temp_c": 21.9,
        "humidity_pct": 91.0,
        "heat_index_c": 21.9,
        "wind_kmh": 3.5,
        "wind_dir": 111.0,
        "cloud_pct": 72.0
      }
    },
    {
      "type": "Feature",
      "geometry": {
        "type": "Point",
        "coordinates": [
          107.7556,
          -6.938
        ]
      },
      "properties": {
        "location_name": "Jatinangor, Sumedang",
        "slug": "jatinangor",
        "date": "Minggu, 11 Oktober 2026",
        "date_iso": "2026-10-11",
        "relative": "Besok",
        "hour": "01:00",
        "rain_probability": 9.3,
        "risk_score": 25,
        "risk_class": "watch",
        "risk_label": "Perlu diperhatikan",
        "condition": "Cerah Berawan",
        "temp_c": 21.6,
        "humidity_pct": 93.0,
        "heat_index_c": 21.6,
        "wind_kmh": 3.8,
        "wind_dir": 127.0,
        "cloud_pct": 51.0
      }
    },
    {
      "type": "Feature",
      "geometry": {
        "type": "Point",
        "coordinates": [
          107.7556,
          -6.938
        ]
      },
      "properties": {
        "location_name": "Jatinangor, Sumedang",
        "slug": "jatinangor",
        "date": "Minggu, 11 Oktober 2026",
        "date_iso": "2026-10-11",
        "relative": "Besok",
        "hour": "02:00",
        "rain_probability": 2.6,
        "risk_score": 22,
        "risk_class": "safe",
        "risk_label": "Aman",
        "condition": "Cerah Berawan",
        "temp_c": 21.3,
        "humidity_pct": 94.0,
        "heat_index_c": 21.3,
        "wind_kmh": 3.9,
        "wind_dir": 133.0,
        "cloud_pct": 56.0
      }
    },
    {
      "type": "Feature",
      "geometry": {
        "type": "Point",
        "coordinates": [
          107.7556,
          -6.938
        ]
      },
      "properties": {
        "location_name": "Jatinangor, Sumedang",
        "slug": "jatinangor",
        "date": "Minggu, 11 Oktober 2026",
        "date_iso": "2026-10-11",
        "relative": "Besok",
        "hour": "03:00",
        "rain_probability": 7.9,
        "risk_score": 25,
        "risk_class": "watch",
        "risk_label": "Perlu diperhatikan",
        "condition": "Cerah Berawan",
        "temp_c": 21.4,
        "humidity_pct": 95.0,
        "heat_index_c": 21.4,
        "wind_kmh": 3.4,
        "wind_dir": 127.0,
        "cloud_pct": 75.0
      }
    },
    {
      "type": "Feature",
      "geometry": {
        "type": "Point",
        "coordinates": [
          107.7556,
          -6.938
        ]
      },
      "properties": {
        "location_name": "Jatinangor, Sumedang",
        "slug": "jatinangor",
        "date": "Minggu, 11 Oktober 2026",
        "date_iso": "2026-10-11",
        "relative": "Besok",
        "hour": "04:00",
        "rain_probability": 7.1,
        "risk_score": 25,
        "risk_class": "safe",
        "risk_label": "Aman",
        "condition": "Berawan",
        "temp_c": 20.8,
        "humidity_pct": 94.0,
        "heat_index_c": 20.8,
        "wind_kmh": 3.4,
        "wind_dir": 119.0,
        "cloud_pct": 85.0
      }
    },
    {
      "type": "Feature",
      "geometry": {
        "type": "Point",
        "coordinates": [
          107.7556,
          -6.938
        ]
      },
      "properties": {
        "location_name": "Jatinangor, Sumedang",
        "slug": "jatinangor",
        "date": "Minggu, 11 Oktober 2026",
        "date_iso": "2026-10-11",
        "relative": "Besok",
        "hour": "05:00",
        "rain_probability": 6.3,
        "risk_score": 24,
        "risk_class": "safe",
        "risk_label": "Aman",
        "condition": "Cerah Berawan",
        "temp_c": 20.2,
        "humidity_pct": 93.0,
        "heat_index_c": 20.2,
        "wind_kmh": 4.1,
        "wind_dir": 115.0,
        "cloud_pct": 76.0
      }
    },
    {
      "type": "Feature",
      "geometry": {
        "type": "Point",
        "coordinates": [
          107.7556,
          -6.938
        ]
      },
      "properties": {
        "location_name": "Jatinangor, Sumedang",
        "slug": "jatinangor",
        "date": "Minggu, 11 Oktober 2026",
        "date_iso": "2026-10-11",
        "relative": "Besok",
        "hour": "06:00",
        "rain_probability": 6.2,
        "risk_score": 24,
        "risk_class": "safe",
        "risk_label": "Aman",
        "condition": "Cerah Berawan",
        "temp_c": 20.1,
        "humidity_pct": 92.0,
        "heat_index_c": 20.1,
        "wind_kmh": 4.2,
        "wind_dir": 169.0,
        "cloud_pct": 57.0
      }
    },
    {
      "type": "Feature",
      "geometry": {
        "type": "Point",
        "coordinates": [
          107.7556,
          -6.938
        ]
      },
      "properties": {
        "location_name": "Jatinangor, Sumedang",
        "slug": "jatinangor",
        "date": "Minggu, 11 Oktober 2026",
        "date_iso": "2026-10-11",
        "relative": "Besok",
        "hour": "07:00",
        "rain_probability": null,
        "risk_score": 20,
        "risk_class": "safe",
        "risk_label": "Aman",
        "condition": "Cerah Berawan",
        "temp_c": 22.6,
        "humidity_pct": 85.0,
        "heat_index_c": 22.6,
        "wind_kmh": 3.3,
        "wind_dir": 113.0,
        "cloud_pct": 40.0
      }
    },
    {
      "type": "Feature",
      "geometry": {
        "type": "Point",
        "coordinates": [
          107.7556,
          -6.938
        ]
      },
      "properties": {
        "location_name": "Jatinangor, Sumedang",
        "slug": "jatinangor",
        "date": "Minggu, 11 Oktober 2026",
        "date_iso": "2026-10-11",
        "relative": "Besok",
        "hour": "08:00",
        "rain_probability": null,
        "risk_score": 17,
        "risk_class": "safe",
        "risk_label": "Aman",
        "condition": "Cerah",
        "temp_c": 24.2,
        "humidity_pct": 75.0,
        "heat_index_c": 24.2,
        "wind_kmh": 3.3,
        "wind_dir": 104.0,
        "cloud_pct": 28.0
      }
    },
    {
      "type": "Feature",
      "geometry": {
        "type": "Point",
        "coordinates": [
          107.7556,
          -6.938
        ]
      },
      "properties": {
        "location_name": "Jatinangor, Sumedang",
        "slug": "jatinangor",
        "date": "Minggu, 11 Oktober 2026",
        "date_iso": "2026-10-11",
        "relative": "Besok",
        "hour": "09:00",
        "rain_probability": null,
        "risk_score": 16,
        "risk_class": "safe",
        "risk_label": "Aman",
        "condition": "Cerah",
        "temp_c": 27.0,
        "humidity_pct": 64.0,
        "heat_index_c": 28.37,
        "wind_kmh": 4.32,
        "wind_dir": 80.0,
        "cloud_pct": 18.0
      }
    },
    {
      "type": "Feature",
      "geometry": {
        "type": "Point",
        "coordinates": [
          107.7556,
          -6.938
        ]
      },
      "properties": {
        "location_name": "Jatinangor, Sumedang",
        "slug": "jatinangor",
        "date": "Minggu, 11 Oktober 2026",
        "date_iso": "2026-10-11",
        "relative": "Besok",
        "hour": "10:00",
        "rain_probability": 1.0,
        "risk_score": 15,
        "risk_class": "safe",
        "risk_label": "Aman",
        "condition": "Cerah",
        "temp_c": 29.5,
        "humidity_pct": 55.0,
        "heat_index_c": 30.33,
        "wind_kmh": 5.76,
        "wind_dir": 65.0,
        "cloud_pct": 25.0
      }
    },
    {
      "type": "Feature",
      "geometry": {
        "type": "Point",
        "coordinates": [
          107.7556,
          -6.938
        ]
      },
      "properties": {
        "location_name": "Jatinangor, Sumedang",
        "slug": "jatinangor",
        "date": "Minggu, 11 Oktober 2026",
        "date_iso": "2026-10-11",
        "relative": "Besok",
        "hour": "11:00",
        "rain_probability": 3.5,
        "risk_score": 14,
        "risk_class": "safe",
        "risk_label": "Aman",
        "condition": "Cerah Berawan",
        "temp_c": 31.4,
        "humidity_pct": 46.0,
        "heat_index_c": 31.6,
        "wind_kmh": 7.2,
        "wind_dir": 104.0,
        "cloud_pct": 13.0
      }
    },
    {
      "type": "Feature",
      "geometry": {
        "type": "Point",
        "coordinates": [
          107.7556,
          -6.938
        ]
      },
      "properties": {
        "location_name": "Jatinangor, Sumedang",
        "slug": "jatinangor",
        "date": "Minggu, 11 Oktober 2026",
        "date_iso": "2026-10-11",
        "relative": "Besok",
        "hour": "12:00",
        "rain_probability": 13.4,
        "risk_score": 24,
        "risk_class": "safe",
        "risk_label": "Aman",
        "condition": "Cerah Berawan",
        "temp_c": 32.7,
        "humidity_pct": 41.0,
        "heat_index_c": 32.7,
        "wind_kmh": 9.0,
        "wind_dir": 140.0,
        "cloud_pct": 26.0
      }
    },
    {
      "type": "Feature",
      "geometry": {
        "type": "Point",
        "coordinates": [
          107.7556,
          -6.938
        ]
      },
      "properties": {
        "location_name": "Jatinangor, Sumedang",
        "slug": "jatinangor",
        "date": "Minggu, 11 Oktober 2026",
        "date_iso": "2026-10-11",
        "relative": "Besok",
        "hour": "13:00",
        "rain_probability": 12.0,
        "risk_score": 24,
        "risk_class": "safe",
        "risk_label": "Aman",
        "condition": "Cerah",
        "temp_c": 33.4,
        "humidity_pct": 38.0,
        "heat_index_c": 33.4,
        "wind_kmh": 9.7,
        "wind_dir": 131.0,
        "cloud_pct": 12.0
      }
    },
    {
      "type": "Feature",
      "geometry": {
        "type": "Point",
        "coordinates": [
          107.7556,
          -6.938
        ]
      },
      "properties": {
        "location_name": "Jatinangor, Sumedang",
        "slug": "jatinangor",
        "date": "Minggu, 11 Oktober 2026",
        "date_iso": "2026-10-11",
        "relative": "Besok",
        "hour": "14:00",
        "rain_probability": 13.3,
        "risk_score": 24,
        "risk_class": "safe",
        "risk_label": "Aman",
        "condition": "Cerah Berawan",
        "temp_c": 33.2,
        "humidity_pct": 37.0,
        "heat_index_c": 33.2,
        "wind_kmh": 10.5,
        "wind_dir": 192.0,
        "cloud_pct": 43.0
      }
    },
    {
      "type": "Feature",
      "geometry": {
        "type": "Point",
        "coordinates": [
          107.7556,
          -6.938
        ]
      },
      "properties": {
        "location_name": "Jatinangor, Sumedang",
        "slug": "jatinangor",
        "date": "Minggu, 11 Oktober 2026",
        "date_iso": "2026-10-11",
        "relative": "Besok",
        "hour": "15:00",
        "rain_probability": 18.9,
        "risk_score": 22,
        "risk_class": "safe",
        "risk_label": "Aman",
        "condition": "Cerah Berawan",
        "temp_c": 31.1,
        "humidity_pct": 44.0,
        "heat_index_c": 31.68,
        "wind_kmh": 13.32,
        "wind_dir": 128.0,
        "cloud_pct": 44.0
      }
    },
    {
      "type": "Feature",
      "geometry": {
        "type": "Point",
        "coordinates": [
          107.7556,
          -6.938
        ]
      },
      "properties": {
        "location_name": "Jatinangor, Sumedang",
        "slug": "jatinangor",
        "date": "Minggu, 11 Oktober 2026",
        "date_iso": "2026-10-11",
        "relative": "Besok",
        "hour": "16:00",
        "rain_probability": 19.8,
        "risk_score": 23,
        "risk_class": "safe",
        "risk_label": "Aman",
        "condition": "Cerah Berawan",
        "temp_c": 28.6,
        "humidity_pct": 54.0,
        "heat_index_c": 30.33,
        "wind_kmh": 11.88,
        "wind_dir": 24.0,
        "cloud_pct": 54.0
      }
    },
    {
      "type": "Feature",
      "geometry": {
        "type": "Point",
        "coordinates": [
          107.7556,
          -6.938
        ]
      },
      "properties": {
        "location_name": "Jatinangor, Sumedang",
        "slug": "jatinangor",
        "date": "Minggu, 11 Oktober 2026",
        "date_iso": "2026-10-11",
        "relative": "Besok",
        "hour": "17:00",
        "rain_probability": 31.1,
        "risk_score": 31,
        "risk_class": "watch",
        "risk_label": "Perlu diperhatikan",
        "condition": "Cerah Berawan",
        "temp_c": 27.0,
        "humidity_pct": 61.0,
        "heat_index_c": 29.11,
        "wind_kmh": 14.3,
        "wind_dir": 36.0,
        "cloud_pct": 67.0
      }
    },
    {
      "type": "Feature",
      "geometry": {
        "type": "Point",
        "coordinates": [
          107.7556,
          -6.938
        ]
      },
      "properties": {
        "location_name": "Jatinangor, Sumedang",
        "slug": "jatinangor",
        "date": "Minggu, 11 Oktober 2026",
        "date_iso": "2026-10-11",
        "relative": "Besok",
        "hour": "18:00",
        "rain_probability": 33.8,
        "risk_score": 35,
        "risk_class": "watch",
        "risk_label": "Perlu diperhatikan",
        "condition": "Hujan Ringan",
        "temp_c": 25.6,
        "humidity_pct": 71.0,
        "heat_index_c": 25.6,
        "wind_kmh": 11.52,
        "wind_dir": 47.0,
        "cloud_pct": 75.0
      }
    },
    {
      "type": "Feature",
      "geometry": {
        "type": "Point",
        "coordinates": [
          107.7556,
          -6.938
        ]
      },
      "properties": {
        "location_name": "Jatinangor, Sumedang",
        "slug": "jatinangor",
        "date": "Minggu, 11 Oktober 2026",
        "date_iso": "2026-10-11",
        "relative": "Besok",
        "hour": "19:00",
        "rain_probability": 43.1,
        "risk_score": 43,
        "risk_class": "watch",
        "risk_label": "Perlu diperhatikan",
        "condition": "Hujan Ringan",
        "temp_c": 24.4,
        "humidity_pct": 81.0,
        "heat_index_c": 24.4,
        "wind_kmh": 8.1,
        "wind_dir": 62.0,
        "cloud_pct": 69.0
      }
    },
    {
      "type": "Feature",
      "geometry": {
        "type": "Point",
        "coordinates": [
          107.7556,
          -6.938
        ]
      },
      "properties": {
        "location_name": "Jatinangor, Sumedang",
        "slug": "jatinangor",
        "date": "Minggu, 11 Oktober 2026",
        "date_iso": "2026-10-11",
        "relative": "Besok",
        "hour": "20:00",
        "rain_probability": 44.4,
        "risk_score": 44,
        "risk_class": "watch",
        "risk_label": "Perlu diperhatikan",
        "condition": "Hujan Ringan",
        "temp_c": 23.8,
        "humidity_pct": 85.0,
        "heat_index_c": 23.8,
        "wind_kmh": 7.2,
        "wind_dir": 78.0,
        "cloud_pct": 78.0
      }
    },
    {
      "type": "Feature",
      "geometry": {
        "type": "Point",
        "coordinates": [
          107.7556,
          -6.938
        ]
      },
      "properties": {
        "location_name": "Jatinangor, Sumedang",
        "slug": "jatinangor",
        "date": "Minggu, 11 Oktober 2026",
        "date_iso": "2026-10-11",
        "relative": "Besok",
        "hour": "21:00",
        "rain_probability": 36.6,
        "risk_score": 40,
        "risk_class": "watch",
        "risk_label": "Perlu diperhatikan",
        "condition": "Berawan",
        "temp_c": 23.4,
        "humidity_pct": 85.0,
        "heat_index_c": 23.4,
        "wind_kmh": 7.3,
        "wind_dir": 88.0,
        "cloud_pct": 71.0
      }
    },
    {
      "type": "Feature",
      "geometry": {
        "type": "Point",
        "coordinates": [
          107.7556,
          -6.938
        ]
      },
      "properties": {
        "location_name": "Jatinangor, Sumedang",
        "slug": "jatinangor",
        "date": "Minggu, 11 Oktober 2026",
        "date_iso": "2026-10-11",
        "relative": "Besok",
        "hour": "22:00",
        "rain_probability": 39.7,
        "risk_score": 40,
        "risk_class": "watch",
        "risk_label": "Perlu diperhatikan",
        "condition": "Hujan Ringan",
        "temp_c": 23.1,
        "humidity_pct": 86.0,
        "heat_index_c": 23.1,
        "wind_kmh": 5.76,
        "wind_dir": 99.0,
        "cloud_pct": 76.0
      }
    },
    {
      "type": "Feature",
      "geometry": {
        "type": "Point",
        "coordinates": [
          107.7556,
          -6.938
        ]
      },
      "properties": {
        "location_name": "Jatinangor, Sumedang",
        "slug": "jatinangor",
        "date": "Minggu, 11 Oktober 2026",
        "date_iso": "2026-10-11",
        "relative": "Besok",
        "hour": "23:00",
        "rain_probability": 17.2,
        "risk_score": 29,
        "risk_class": "watch",
        "risk_label": "Perlu diperhatikan",
        "condition": "Berawan",
        "temp_c": 22.8,
        "humidity_pct": 88.0,
        "heat_index_c": 22.8,
        "wind_kmh": 5.4,
        "wind_dir": 111.0,
        "cloud_pct": 83.0
      }
    },
    {
      "type": "Feature",
      "geometry": {
        "type": "Point",
        "coordinates": [
          107.7556,
          -6.938
        ]
      },
      "properties": {
        "location_name": "Jatinangor, Sumedang",
        "slug": "jatinangor",
        "date": "Senin, 12 Oktober 2026",
        "date_iso": "2026-10-12",
        "relative": "Lusa",
        "hour": "00:00",
        "rain_probability": 13.1,
        "risk_score": 28,
        "risk_class": "watch",
        "risk_label": "Perlu diperhatikan",
        "condition": "Cerah Berawan",
        "temp_c": 22.1,
        "humidity_pct": 91.0,
        "heat_index_c": 22.1,
        "wind_kmh": 4.68,
        "wind_dir": 114.0,
        "cloud_pct": 62.0
      }
    },
    {
      "type": "Feature",
      "geometry": {
        "type": "Point",
        "coordinates": [
          107.7556,
          -6.938
        ]
      },
      "properties": {
        "location_name": "Jatinangor, Sumedang",
        "slug": "jatinangor",
        "date": "Senin, 12 Oktober 2026",
        "date_iso": "2026-10-12",
        "relative": "Lusa",
        "hour": "01:00",
        "rain_probability": 11.1,
        "risk_score": 27,
        "risk_class": "watch",
        "risk_label": "Perlu diperhatikan",
        "condition": "Cerah Berawan",
        "temp_c": 21.5,
        "humidity_pct": 93.0,
        "heat_index_c": 21.5,
        "wind_kmh": 4.5,
        "wind_dir": 118.0,
        "cloud_pct": 72.0
      }
    },
    {
      "type": "Feature",
      "geometry": {
        "type": "Point",
        "coordinates": [
          107.7556,
          -6.938
        ]
      },
      "properties": {
        "location_name": "Jatinangor, Sumedang",
        "slug": "jatinangor",
        "date": "Senin, 12 Oktober 2026",
        "date_iso": "2026-10-12",
        "relative": "Lusa",
        "hour": "02:00",
        "rain_probability": 4.5,
        "risk_score": 23,
        "risk_class": "safe",
        "risk_label": "Aman",
        "condition": "Berawan",
        "temp_c": 21.0,
        "humidity_pct": 94.0,
        "heat_index_c": 21.0,
        "wind_kmh": 4.8,
        "wind_dir": 130.0,
        "cloud_pct": 60.0
      }
    },
    {
      "type": "Feature",
      "geometry": {
        "type": "Point",
        "coordinates": [
          107.7556,
          -6.938
        ]
      },
      "properties": {
        "location_name": "Jatinangor, Sumedang",
        "slug": "jatinangor",
        "date": "Senin, 12 Oktober 2026",
        "date_iso": "2026-10-12",
        "relative": "Lusa",
        "hour": "03:00",
        "rain_probability": 3.9,
        "risk_score": 23,
        "risk_class": "safe",
        "risk_label": "Aman",
        "condition": "Berawan",
        "temp_c": 20.7,
        "humidity_pct": 94.0,
        "heat_index_c": 20.7,
        "wind_kmh": 5.2,
        "wind_dir": 138.0,
        "cloud_pct": 57.0
      }
    },
    {
      "type": "Feature",
      "geometry": {
        "type": "Point",
        "coordinates": [
          107.7556,
          -6.938
        ]
      },
      "properties": {
        "location_name": "Jatinangor, Sumedang",
        "slug": "jatinangor",
        "date": "Senin, 12 Oktober 2026",
        "date_iso": "2026-10-12",
        "relative": "Lusa",
        "hour": "04:00",
        "rain_probability": 3.3,
        "risk_score": 22,
        "risk_class": "safe",
        "risk_label": "Aman",
        "condition": "Berawan",
        "temp_c": 20.6,
        "humidity_pct": 93.0,
        "heat_index_c": 20.6,
        "wind_kmh": 5.04,
        "wind_dir": 135.0,
        "cloud_pct": 68.0
      }
    },
    {
      "type": "Feature",
      "geometry": {
        "type": "Point",
        "coordinates": [
          107.7556,
          -6.938
        ]
      },
      "properties": {
        "location_name": "Jatinangor, Sumedang",
        "slug": "jatinangor",
        "date": "Senin, 12 Oktober 2026",
        "date_iso": "2026-10-12",
        "relative": "Lusa",
        "hour": "05:00",
        "rain_probability": 1.9,
        "risk_score": 21,
        "risk_class": "safe",
        "risk_label": "Aman",
        "condition": "Berawan",
        "temp_c": 20.8,
        "humidity_pct": 91.0,
        "heat_index_c": 20.8,
        "wind_kmh": 5.04,
        "wind_dir": 134.0,
        "cloud_pct": 81.0
      }
    },
    {
      "type": "Feature",
      "geometry": {
        "type": "Point",
        "coordinates": [
          107.7556,
          -6.938
        ]
      },
      "properties": {
        "location_name": "Jatinangor, Sumedang",
        "slug": "jatinangor",
        "date": "Senin, 12 Oktober 2026",
        "date_iso": "2026-10-12",
        "relative": "Lusa",
        "hour": "06:00",
        "rain_probability": 1.1,
        "risk_score": 20,
        "risk_class": "safe",
        "risk_label": "Aman",
        "condition": "Berawan",
        "temp_c": 20.8,
        "humidity_pct": 88.0,
        "heat_index_c": 20.8,
        "wind_kmh": 5.4,
        "wind_dir": 135.0,
        "cloud_pct": 72.0
      }
    },
    {
      "type": "Feature",
      "geometry": {
        "type": "Point",
        "coordinates": [
          107.7556,
          -6.938
        ]
      },
      "properties": {
        "location_name": "Jatinangor, Sumedang",
        "slug": "jatinangor",
        "date": "Senin, 12 Oktober 2026",
        "date_iso": "2026-10-12",
        "relative": "Lusa",
        "hour": "07:00",
        "rain_probability": 60.0,
        "risk_score": 60,
        "risk_class": "rain",
        "risk_label": "Waspada",
        "condition": "Berawan",
        "temp_c": 22.3,
        "humidity_pct": 80.0,
        "heat_index_c": 22.3,
        "wind_kmh": 5.3,
        "wind_dir": 132.0,
        "cloud_pct": 79.0
      }
    },
    {
      "type": "Feature",
      "geometry": {
        "type": "Point",
        "coordinates": [
          107.7556,
          -6.938
        ]
      },
      "properties": {
        "location_name": "Jatinangor, Sumedang",
        "slug": "jatinangor",
        "date": "Senin, 12 Oktober 2026",
        "date_iso": "2026-10-12",
        "relative": "Lusa",
        "hour": "08:00",
        "rain_probability": 70.0,
        "risk_score": 70,
        "risk_class": "rain",
        "risk_label": "Waspada",
        "condition": "Cerah Berawan",
        "temp_c": 24.6,
        "humidity_pct": 72.0,
        "heat_index_c": 24.6,
        "wind_kmh": 6.2,
        "wind_dir": 122.0,
        "cloud_pct": 22.0
      }
    },
    {
      "type": "Feature",
      "geometry": {
        "type": "Point",
        "coordinates": [
          107.7556,
          -6.938
        ]
      },
      "properties": {
        "location_name": "Jatinangor, Sumedang",
        "slug": "jatinangor",
        "date": "Senin, 12 Oktober 2026",
        "date_iso": "2026-10-12",
        "relative": "Lusa",
        "hour": "09:00",
        "rain_probability": 7.8,
        "risk_score": 20,
        "risk_class": "safe",
        "risk_label": "Aman",
        "condition": "Cerah",
        "temp_c": 27.3,
        "humidity_pct": 59.0,
        "heat_index_c": 28.46,
        "wind_kmh": 6.9,
        "wind_dir": 105.0,
        "cloud_pct": 23.0
      }
    },
    {
      "type": "Feature",
      "geometry": {
        "type": "Point",
        "coordinates": [
          107.7556,
          -6.938
        ]
      },
      "properties": {
        "location_name": "Jatinangor, Sumedang",
        "slug": "jatinangor",
        "date": "Senin, 12 Oktober 2026",
        "date_iso": "2026-10-12",
        "relative": "Lusa",
        "hour": "10:00",
        "rain_probability": 10.0,
        "risk_score": 20,
        "risk_class": "safe",
        "risk_label": "Aman",
        "condition": "Cerah Berawan",
        "temp_c": 29.4,
        "humidity_pct": 55.0,
        "heat_index_c": 30.19,
        "wind_kmh": 7.6,
        "wind_dir": 84.0,
        "cloud_pct": 68.0
      }
    },
    {
      "type": "Feature",
      "geometry": {
        "type": "Point",
        "coordinates": [
          107.7556,
          -6.938
        ]
      },
      "properties": {
        "location_name": "Jatinangor, Sumedang",
        "slug": "jatinangor",
        "date": "Senin, 12 Oktober 2026",
        "date_iso": "2026-10-12",
        "relative": "Lusa",
        "hour": "11:00",
        "rain_probability": 29.2,
        "risk_score": 30,
        "risk_class": "watch",
        "risk_label": "Perlu diperhatikan",
        "condition": "Hujan Ringan",
        "temp_c": 30.5,
        "humidity_pct": 51.0,
        "heat_index_c": 31.14,
        "wind_kmh": 8.5,
        "wind_dir": 65.0,
        "cloud_pct": 73.0
      }
    },
    {
      "type": "Feature",
      "geometry": {
        "type": "Point",
        "coordinates": [
          107.7556,
          -6.938
        ]
      },
      "properties": {
        "location_name": "Jatinangor, Sumedang",
        "slug": "jatinangor",
        "date": "Senin, 12 Oktober 2026",
        "date_iso": "2026-10-12",
        "relative": "Lusa",
        "hour": "12:00",
        "rain_probability": 31.4,
        "risk_score": 31,
        "risk_class": "watch",
        "risk_label": "Perlu diperhatikan",
        "condition": "Berawan",
        "temp_c": 31.0,
        "humidity_pct": 46.0,
        "heat_index_c": 31.7,
        "wind_kmh": 10.1,
        "wind_dir": 52.0,
        "cloud_pct": 87.0
      }
    },
    {
      "type": "Feature",
      "geometry": {
        "type": "Point",
        "coordinates": [
          107.7556,
          -6.938
        ]
      },
      "properties": {
        "location_name": "Jatinangor, Sumedang",
        "slug": "jatinangor",
        "date": "Senin, 12 Oktober 2026",
        "date_iso": "2026-10-12",
        "relative": "Lusa",
        "hour": "13:00",
        "rain_probability": 35.5,
        "risk_score": 36,
        "risk_class": "watch",
        "risk_label": "Perlu diperhatikan",
        "condition": "Berawan",
        "temp_c": 30.9,
        "humidity_pct": 47.0,
        "heat_index_c": 31.06,
        "wind_kmh": 10.8,
        "wind_dir": 51.0,
        "cloud_pct": 83.0
      }
    },
    {
      "type": "Feature",
      "geometry": {
        "type": "Point",
        "coordinates": [
          107.7556,
          -6.938
        ]
      },
      "properties": {
        "location_name": "Jatinangor, Sumedang",
        "slug": "jatinangor",
        "date": "Senin, 12 Oktober 2026",
        "date_iso": "2026-10-12",
        "relative": "Lusa",
        "hour": "14:00",
        "rain_probability": 40.1,
        "risk_score": 40,
        "risk_class": "watch",
        "risk_label": "Perlu diperhatikan",
        "condition": "Berawan",
        "temp_c": 29.6,
        "humidity_pct": 50.0,
        "heat_index_c": 30.47,
        "wind_kmh": 10.4,
        "wind_dir": 50.0,
        "cloud_pct": 84.0
      }
    },
    {
      "type": "Feature",
      "geometry": {
        "type": "Point",
        "coordinates": [
          107.7556,
          -6.938
        ]
      },
      "properties": {
        "location_name": "Jatinangor, Sumedang",
        "slug": "jatinangor",
        "date": "Senin, 12 Oktober 2026",
        "date_iso": "2026-10-12",
        "relative": "Lusa",
        "hour": "15:00",
        "rain_probability": 43.6,
        "risk_score": 44,
        "risk_class": "watch",
        "risk_label": "Perlu diperhatikan",
        "condition": "Berawan",
        "temp_c": 28.3,
        "humidity_pct": 56.0,
        "heat_index_c": 30.1,
        "wind_kmh": 10.1,
        "wind_dir": 49.0,
        "cloud_pct": 81.0
      }
    },
    {
      "type": "Feature",
      "geometry": {
        "type": "Point",
        "coordinates": [
          107.7556,
          -6.938
        ]
      },
      "properties": {
        "location_name": "Jatinangor, Sumedang",
        "slug": "jatinangor",
        "date": "Senin, 12 Oktober 2026",
        "date_iso": "2026-10-12",
        "relative": "Lusa",
        "hour": "16:00",
        "rain_probability": 59.2,
        "risk_score": 59,
        "risk_class": "rain",
        "risk_label": "Waspada",
        "condition": "Hujan Ringan",
        "temp_c": 27.3,
        "humidity_pct": 65.0,
        "heat_index_c": 28.9,
        "wind_kmh": 11.4,
        "wind_dir": 48.0,
        "cloud_pct": 69.0
      }
    },
    {
      "type": "Feature",
      "geometry": {
        "type": "Point",
        "coordinates": [
          107.7556,
          -6.938
        ]
      },
      "properties": {
        "location_name": "Jatinangor, Sumedang",
        "slug": "jatinangor",
        "date": "Senin, 12 Oktober 2026",
        "date_iso": "2026-10-12",
        "relative": "Lusa",
        "hour": "17:00",
        "rain_probability": 47.2,
        "risk_score": 47,
        "risk_class": "watch",
        "risk_label": "Perlu diperhatikan",
        "condition": "Hujan Ringan",
        "temp_c": 26.2,
        "humidity_pct": 70.0,
        "heat_index_c": 26.2,
        "wind_kmh": 9.9,
        "wind_dir": 54.0,
        "cloud_pct": 72.0
      }
    },
    {
      "type": "Feature",
      "geometry": {
        "type": "Point",
        "coordinates": [
          107.7556,
          -6.938
        ]
      },
      "properties": {
        "location_name": "Jatinangor, Sumedang",
        "slug": "jatinangor",
        "date": "Senin, 12 Oktober 2026",
        "date_iso": "2026-10-12",
        "relative": "Lusa",
        "hour": "18:00",
        "rain_probability": 34.0,
        "risk_score": 38,
        "risk_class": "watch",
        "risk_label": "Perlu diperhatikan",
        "condition": "Cerah Berawan",
        "temp_c": 25.1,
        "humidity_pct": 77.0,
        "heat_index_c": 25.1,
        "wind_kmh": 10.0,
        "wind_dir": 133.0,
        "cloud_pct": 78.0
      }
    },
    {
      "type": "Feature",
      "geometry": {
        "type": "Point",
        "coordinates": [
          107.7556,
          -6.938
        ]
      },
      "properties": {
        "location_name": "Jatinangor, Sumedang",
        "slug": "jatinangor",
        "date": "Senin, 12 Oktober 2026",
        "date_iso": "2026-10-12",
        "relative": "Lusa",
        "hour": "19:00",
        "rain_probability": 38.0,
        "risk_score": 40,
        "risk_class": "watch",
        "risk_label": "Perlu diperhatikan",
        "condition": "Hujan Ringan",
        "temp_c": 24.1,
        "humidity_pct": 83.0,
        "heat_index_c": 24.1,
        "wind_kmh": 8.6,
        "wind_dir": 117.0,
        "cloud_pct": 83.0
      }
    },
    {
      "type": "Feature",
      "geometry": {
        "type": "Point",
        "coordinates": [
          107.7556,
          -6.938
        ]
      },
      "properties": {
        "location_name": "Jatinangor, Sumedang",
        "slug": "jatinangor",
        "date": "Senin, 12 Oktober 2026",
        "date_iso": "2026-10-12",
        "relative": "Lusa",
        "hour": "20:00",
        "rain_probability": 28.4,
        "risk_score": 35,
        "risk_class": "watch",
        "risk_label": "Perlu diperhatikan",
        "condition": "Cerah Berawan",
        "temp_c": 23.3,
        "humidity_pct": 88.0,
        "heat_index_c": 23.3,
        "wind_kmh": 6.3,
        "wind_dir": 127.0,
        "cloud_pct": 77.0
      }
    },
    {
      "type": "Feature",
      "geometry": {
        "type": "Point",
        "coordinates": [
          107.7556,
          -6.938
        ]
      },
      "properties": {
        "location_name": "Jatinangor, Sumedang",
        "slug": "jatinangor",
        "date": "Senin, 12 Oktober 2026",
        "date_iso": "2026-10-12",
        "relative": "Lusa",
        "hour": "21:00",
        "rain_probability": 17.0,
        "risk_score": 31,
        "risk_class": "watch",
        "risk_label": "Perlu diperhatikan",
        "condition": "Cerah Berawan",
        "temp_c": 23.1,
        "humidity_pct": 93.0,
        "heat_index_c": 23.1,
        "wind_kmh": 5.3,
        "wind_dir": 132.0,
        "cloud_pct": 69.0
      }
    },
    {
      "type": "Feature",
      "geometry": {
        "type": "Point",
        "coordinates": [
          107.7556,
          -6.938
        ]
      },
      "properties": {
        "location_name": "Jatinangor, Sumedang",
        "slug": "jatinangor",
        "date": "Senin, 12 Oktober 2026",
        "date_iso": "2026-10-12",
        "relative": "Lusa",
        "hour": "22:00",
        "rain_probability": 12.1,
        "risk_score": 28,
        "risk_class": "watch",
        "risk_label": "Perlu diperhatikan",
        "condition": "Berawan",
        "temp_c": 22.6,
        "humidity_pct": 94.0,
        "heat_index_c": 22.6,
        "wind_kmh": 5.2,
        "wind_dir": 117.0,
        "cloud_pct": 65.0
      }
    },
    {
      "type": "Feature",
      "geometry": {
        "type": "Point",
        "coordinates": [
          107.7556,
          -6.938
        ]
      },
      "properties": {
        "location_name": "Jatinangor, Sumedang",
        "slug": "jatinangor",
        "date": "Senin, 12 Oktober 2026",
        "date_iso": "2026-10-12",
        "relative": "Lusa",
        "hour": "23:00",
        "rain_probability": 3.2,
        "risk_score": 22,
        "risk_class": "safe",
        "risk_label": "Aman",
        "condition": "Cerah Berawan",
        "temp_c": 22.0,
        "humidity_pct": 94.0,
        "heat_index_c": 22.0,
        "wind_kmh": 4.7,
        "wind_dir": 126.0,
        "cloud_pct": 45.0
      }
    }
  ]
}