{
  "type": "FeatureCollection",
  "features": [
    {
      "type": "Feature",
      "geometry": {
        "type": "Point",
        "coordinates": [
          108.4103,
          -6.6453
        ]
      },
      "properties": {
        "location_name": "Arjawinangun",
        "slug": "arjawinangun",
        "date": "Minggu, 4 Oktober 2026",
        "date_iso": "2026-10-04",
        "relative": "Hari ini",
        "hour": "00:00",
        "rain_probability": 50.0,
        "risk_score": 50,
        "risk_class": "watch",
        "risk_label": "Perlu diperhatikan",
        "condition": "Potensi hujan",
        "temp_c": null,
        "humidity_pct": null,
        "heat_index_c": null,
        "wind_kmh": 0.0,
        "wind_dir": 0.0,
        "cloud_pct": 85.0
      }
    },
    {
      "type": "Feature",
      "geometry": {
        "type": "Point",
        "coordinates": [
          108.4103,
          -6.6453
        ]
      },
      "properties": {
        "location_name": "Arjawinangun",
        "slug": "arjawinangun",
        "date": "Minggu, 4 Oktober 2026",
        "date_iso": "2026-10-04",
        "relative": "Hari ini",
        "hour": "01:00",
        "rain_probability": 50.0,
        "risk_score": 50,
        "risk_class": "watch",
        "risk_label": "Perlu diperhatikan",
        "condition": "Potensi hujan",
        "temp_c": null,
        "humidity_pct": null,
        "heat_index_c": null,
        "wind_kmh": 0.0,
        "wind_dir": 0.0,
        "cloud_pct": 85.0
      }
    },
    {
      "type": "Feature",
      "geometry": {
        "type": "Point",
        "coordinates": [
          108.4103,
          -6.6453
        ]
      },
      "properties": {
        "location_name": "Arjawinangun",
        "slug": "arjawinangun",
        "date": "Minggu, 4 Oktober 2026",
        "date_iso": "2026-10-04",
        "relative": "Hari ini",
        "hour": "02:00",
        "rain_probability": null,
        "risk_score": 7,
        "risk_class": "limited",
        "risk_label": "Data terbatas",
        "condition": "Data terbatas",
        "temp_c": null,
        "humidity_pct": null,
        "heat_index_c": null,
        "wind_kmh": 0.0,
        "wind_dir": 0.0,
        "cloud_pct": 15.0
      }
    },
    {
      "type": "Feature",
      "geometry": {
        "type": "Point",
        "coordinates": [
          108.4103,
          -6.6453
        ]
      },
      "properties": {
        "location_name": "Arjawinangun",
        "slug": "arjawinangun",
        "date": "Minggu, 4 Oktober 2026",
        "date_iso": "2026-10-04",
        "relative": "Hari ini",
        "hour": "03:00",
        "rain_probability": null,
        "risk_score": 7,
        "risk_class": "limited",
        "risk_label": "Data terbatas",
        "condition": "Data terbatas",
        "temp_c": null,
        "humidity_pct": null,
        "heat_index_c": null,
        "wind_kmh": 0.0,
        "wind_dir": 0.0,
        "cloud_pct": 15.0
      }
    },
    {
      "type": "Feature",
      "geometry": {
        "type": "Point",
        "coordinates": [
          108.4103,
          -6.6453
        ]
      },
      "properties": {
        "location_name": "Arjawinangun",
        "slug": "arjawinangun",
        "date": "Minggu, 4 Oktober 2026",
        "date_iso": "2026-10-04",
        "relative": "Hari ini",
        "hour": "04:00",
        "rain_probability": null,
        "risk_score": 7,
        "risk_class": "limited",
        "risk_label": "Data terbatas",
        "condition": "Data terbatas",
        "temp_c": null,
        "humidity_pct": null,
        "heat_index_c": null,
        "wind_kmh": 0.0,
        "wind_dir": 0.0,
        "cloud_pct": 15.0
      }
    },
    {
      "type": "Feature",
      "geometry": {
        "type": "Point",
        "coordinates": [
          108.4103,
          -6.6453
        ]
      },
      "properties": {
        "location_name": "Arjawinangun",
        "slug": "arjawinangun",
        "date": "Minggu, 4 Oktober 2026",
        "date_iso": "2026-10-04",
        "relative": "Hari ini",
        "hour": "05:00",
        "rain_probability": null,
        "risk_score": 7,
        "risk_class": "limited",
        "risk_label": "Data terbatas",
        "condition": "Data terbatas",
        "temp_c": null,
        "humidity_pct": null,
        "heat_index_c": null,
        "wind_kmh": 0.0,
        "wind_dir": 0.0,
        "cloud_pct": 15.0
      }
    },
    {
      "type": "Feature",
      "geometry": {
        "type": "Point",
        "coordinates": [
          108.4103,
          -6.6453
        ]
      },
      "properties": {
        "location_name": "Arjawinangun",
        "slug": "arjawinangun",
        "date": "Minggu, 4 Oktober 2026",
        "date_iso": "2026-10-04",
        "relative": "Hari ini",
        "hour": "06:00",
        "rain_probability": null,
        "risk_score": 7,
        "risk_class": "limited",
        "risk_label": "Data terbatas",
        "condition": "Data terbatas",
        "temp_c": null,
        "humidity_pct": null,
        "heat_index_c": null,
        "wind_kmh": 0.0,
        "wind_dir": 0.0,
        "cloud_pct": 15.0
      }
    },
    {
      "type": "Feature",
      "geometry": {
        "type": "Point",
        "coordinates": [
          108.4103,
          -6.6453
        ]
      },
      "properties": {
        "location_name": "Arjawinangun",
        "slug": "arjawinangun",
        "date": "Minggu, 4 Oktober 2026",
        "date_iso": "2026-10-04",
        "relative": "Hari ini",
        "hour": "07:00",
        "rain_probability": null,
        "risk_score": 7,
        "risk_class": "limited",
        "risk_label": "Data terbatas",
        "condition": "Data terbatas",
        "temp_c": null,
        "humidity_pct": null,
        "heat_index_c": null,
        "wind_kmh": 0.0,
        "wind_dir": 0.0,
        "cloud_pct": 15.0
      }
    },
    {
      "type": "Feature",
      "geometry": {
        "type": "Point",
        "coordinates": [
          108.4103,
          -6.6453
        ]
      },
      "properties": {
        "location_name": "Arjawinangun",
        "slug": "arjawinangun",
        "date": "Minggu, 4 Oktober 2026",
        "date_iso": "2026-10-04",
        "relative": "Hari ini",
        "hour": "08:00",
        "rain_probability": null,
        "risk_score": 52,
        "risk_class": "watch",
        "risk_label": "Perlu diperhatikan",
        "condition": "Berawan",
        "temp_c": 37.0,
        "humidity_pct": 31.0,
        "heat_index_c": 37.0,
        "wind_kmh": 15.0,
        "wind_dir": 0.0,
        "cloud_pct": 75.0
      }
    },
    {
      "type": "Feature",
      "geometry": {
        "type": "Point",
        "coordinates": [
          108.4103,
          -6.6453
        ]
      },
      "properties": {
        "location_name": "Arjawinangun",
        "slug": "arjawinangun",
        "date": "Minggu, 4 Oktober 2026",
        "date_iso": "2026-10-04",
        "relative": "Hari ini",
        "hour": "09:00",
        "rain_probability": null,
        "risk_score": 38,
        "risk_class": "watch",
        "risk_label": "Perlu diperhatikan",
        "condition": "Cerah Berawan",
        "temp_c": 35.2,
        "humidity_pct": 35.0,
        "heat_index_c": 35.2,
        "wind_kmh": 16.92,
        "wind_dir": 0.0,
        "cloud_pct": 45.0
      }
    },
    {
      "type": "Feature",
      "geometry": {
        "type": "Point",
        "coordinates": [
          108.4103,
          -6.6453
        ]
      },
      "properties": {
        "location_name": "Arjawinangun",
        "slug": "arjawinangun",
        "date": "Minggu, 4 Oktober 2026",
        "date_iso": "2026-10-04",
        "relative": "Hari ini",
        "hour": "10:00",
        "rain_probability": null,
        "risk_score": 38,
        "risk_class": "watch",
        "risk_label": "Perlu diperhatikan",
        "condition": "Cerah Berawan",
        "temp_c": 35.2,
        "humidity_pct": 35.0,
        "heat_index_c": 35.2,
        "wind_kmh": 16.92,
        "wind_dir": 0.0,
        "cloud_pct": 45.0
      }
    },
    {
      "type": "Feature",
      "geometry": {
        "type": "Point",
        "coordinates": [
          108.4103,
          -6.6453
        ]
      },
      "properties": {
        "location_name": "Arjawinangun",
        "slug": "arjawinangun",
        "date": "Minggu, 4 Oktober 2026",
        "date_iso": "2026-10-04",
        "relative": "Hari ini",
        "hour": "11:00",
        "rain_probability": null,
        "risk_score": 52,
        "risk_class": "watch",
        "risk_label": "Perlu diperhatikan",
        "condition": "Berawan",
        "temp_c": 37.0,
        "humidity_pct": 31.0,
        "heat_index_c": 37.0,
        "wind_kmh": 15.0,
        "wind_dir": 0.0,
        "cloud_pct": 75.0
      }
    },
    {
      "type": "Feature",
      "geometry": {
        "type": "Point",
        "coordinates": [
          108.4103,
          -6.6453
        ]
      },
      "properties": {
        "location_name": "Arjawinangun",
        "slug": "arjawinangun",
        "date": "Minggu, 4 Oktober 2026",
        "date_iso": "2026-10-04",
        "relative": "Hari ini",
        "hour": "12:00",
        "rain_probability": 50.0,
        "risk_score": 52,
        "risk_class": "watch",
        "risk_label": "Perlu diperhatikan",
        "condition": "Cerah Berawan",
        "temp_c": 36.6,
        "humidity_pct": 34.0,
        "heat_index_c": 36.6,
        "wind_kmh": 18.0,
        "wind_dir": 0.0,
        "cloud_pct": 45.0
      }
    },
    {
      "type": "Feature",
      "geometry": {
        "type": "Point",
        "coordinates": [
          108.4103,
          -6.6453
        ]
      },
      "properties": {
        "location_name": "Arjawinangun",
        "slug": "arjawinangun",
        "date": "Minggu, 4 Oktober 2026",
        "date_iso": "2026-10-04",
        "relative": "Hari ini",
        "hour": "13:00",
        "rain_probability": 1.5,
        "risk_score": 52,
        "risk_class": "watch",
        "risk_label": "Perlu diperhatikan",
        "condition": "Cerah Berawan",
        "temp_c": 36.4,
        "humidity_pct": 34.2,
        "heat_index_c": 36.4,
        "wind_kmh": 19.8,
        "wind_dir": 0.0,
        "cloud_pct": 45.0
      }
    },
    {
      "type": "Feature",
      "geometry": {
        "type": "Point",
        "coordinates": [
          108.4103,
          -6.6453
        ]
      },
      "properties": {
        "location_name": "Arjawinangun",
        "slug": "arjawinangun",
        "date": "Minggu, 4 Oktober 2026",
        "date_iso": "2026-10-04",
        "relative": "Hari ini",
        "hour": "14:00",
        "rain_probability": 2.0,
        "risk_score": 38,
        "risk_class": "watch",
        "risk_label": "Perlu diperhatikan",
        "condition": "Berawan",
        "temp_c": 34.0,
        "humidity_pct": 36.0,
        "heat_index_c": 34.0,
        "wind_kmh": 13.1,
        "wind_dir": 0.0,
        "cloud_pct": 75.0
      }
    },
    {
      "type": "Feature",
      "geometry": {
        "type": "Point",
        "coordinates": [
          108.4103,
          -6.6453
        ]
      },
      "properties": {
        "location_name": "Arjawinangun",
        "slug": "arjawinangun",
        "date": "Minggu, 4 Oktober 2026",
        "date_iso": "2026-10-04",
        "relative": "Hari ini",
        "hour": "15:00",
        "rain_probability": 3.5,
        "risk_score": 38,
        "risk_class": "watch",
        "risk_label": "Perlu diperhatikan",
        "condition": "Cerah Berawan",
        "temp_c": 34.3,
        "humidity_pct": 37.4,
        "heat_index_c": 34.3,
        "wind_kmh": 20.88,
        "wind_dir": 0.0,
        "cloud_pct": 45.0
      }
    },
    {
      "type": "Feature",
      "geometry": {
        "type": "Point",
        "coordinates": [
          108.4103,
          -6.6453
        ]
      },
      "properties": {
        "location_name": "Arjawinangun",
        "slug": "arjawinangun",
        "date": "Minggu, 4 Oktober 2026",
        "date_iso": "2026-10-04",
        "relative": "Hari ini",
        "hour": "16:00",
        "rain_probability": 2.5,
        "risk_score": 38,
        "risk_class": "watch",
        "risk_label": "Perlu diperhatikan",
        "condition": "Berawan",
        "temp_c": 32.9,
        "humidity_pct": 43.3,
        "heat_index_c": 34.36,
        "wind_kmh": 18.36,
        "wind_dir": 0.0,
        "cloud_pct": 75.0
      }
    },
    {
      "type": "Feature",
      "geometry": {
        "type": "Point",
        "coordinates": [
          108.4103,
          -6.6453
        ]
      },
      "properties": {
        "location_name": "Arjawinangun",
        "slug": "arjawinangun",
        "date": "Minggu, 4 Oktober 2026",
        "date_iso": "2026-10-04",
        "relative": "Hari ini",
        "hour": "17:00",
        "rain_probability": 1.0,
        "risk_score": 13,
        "risk_class": "safe",
        "risk_label": "Aman",
        "condition": "Berawan",
        "temp_c": 30.0,
        "humidity_pct": 54.0,
        "heat_index_c": 31.71,
        "wind_kmh": 5.2,
        "wind_dir": 0.0,
        "cloud_pct": 75.0
      }
    },
    {
      "type": "Feature",
      "geometry": {
        "type": "Point",
        "coordinates": [
          108.4103,
          -6.6453
        ]
      },
      "properties": {
        "location_name": "Arjawinangun",
        "slug": "arjawinangun",
        "date": "Minggu, 4 Oktober 2026",
        "date_iso": "2026-10-04",
        "relative": "Hari ini",
        "hour": "18:00",
        "rain_probability": null,
        "risk_score": 24,
        "risk_class": "safe",
        "risk_label": "Aman",
        "condition": "Berawan",
        "temp_c": 29.9,
        "humidity_pct": 58.4,
        "heat_index_c": 32.34,
        "wind_kmh": 11.88,
        "wind_dir": 0.0,
        "cloud_pct": 75.0
      }
    },
    {
      "type": "Feature",
      "geometry": {
        "type": "Point",
        "coordinates": [
          108.4103,
          -6.6453
        ]
      },
      "properties": {
        "location_name": "Arjawinangun",
        "slug": "arjawinangun",
        "date": "Minggu, 4 Oktober 2026",
        "date_iso": "2026-10-04",
        "relative": "Hari ini",
        "hour": "19:00",
        "rain_probability": null,
        "risk_score": 24,
        "risk_class": "safe",
        "risk_label": "Aman",
        "condition": "Berawan",
        "temp_c": 29.6,
        "humidity_pct": 61.6,
        "heat_index_c": 32.38,
        "wind_kmh": 11.88,
        "wind_dir": 0.0,
        "cloud_pct": 75.0
      }
    },
    {
      "type": "Feature",
      "geometry": {
        "type": "Point",
        "coordinates": [
          108.4103,
          -6.6453
        ]
      },
      "properties": {
        "location_name": "Arjawinangun",
        "slug": "arjawinangun",
        "date": "Minggu, 4 Oktober 2026",
        "date_iso": "2026-10-04",
        "relative": "Hari ini",
        "hour": "20:00",
        "rain_probability": 1.0,
        "risk_score": 14,
        "risk_class": "safe",
        "risk_label": "Aman",
        "condition": "Berawan",
        "temp_c": 29.0,
        "humidity_pct": 60.0,
        "heat_index_c": 31.03,
        "wind_kmh": 5.9,
        "wind_dir": 0.0,
        "cloud_pct": 75.0
      }
    },
    {
      "type": "Feature",
      "geometry": {
        "type": "Point",
        "coordinates": [
          108.4103,
          -6.6453
        ]
      },
      "properties": {
        "location_name": "Arjawinangun",
        "slug": "arjawinangun",
        "date": "Minggu, 4 Oktober 2026",
        "date_iso": "2026-10-04",
        "relative": "Hari ini",
        "hour": "21:00",
        "rain_probability": 50.0,
        "risk_score": 50,
        "risk_class": "watch",
        "risk_label": "Perlu diperhatikan",
        "condition": "Berawan",
        "temp_c": 29.1,
        "humidity_pct": 60.3,
        "heat_index_c": 31.25,
        "wind_kmh": 14.04,
        "wind_dir": 0.0,
        "cloud_pct": 75.0
      }
    },
    {
      "type": "Feature",
      "geometry": {
        "type": "Point",
        "coordinates": [
          108.4103,
          -6.6453
        ]
      },
      "properties": {
        "location_name": "Arjawinangun",
        "slug": "arjawinangun",
        "date": "Minggu, 4 Oktober 2026",
        "date_iso": "2026-10-04",
        "relative": "Hari ini",
        "hour": "22:00",
        "rain_probability": 1.0,
        "risk_score": 15,
        "risk_class": "safe",
        "risk_label": "Aman",
        "condition": "Berawan",
        "temp_c": 28.9,
        "humidity_pct": 60.4,
        "heat_index_c": 30.93,
        "wind_kmh": 10.8,
        "wind_dir": 0.0,
        "cloud_pct": 75.0
      }
    },
    {
      "type": "Feature",
      "geometry": {
        "type": "Point",
        "coordinates": [
          108.4103,
          -6.6453
        ]
      },
      "properties": {
        "location_name": "Arjawinangun",
        "slug": "arjawinangun",
        "date": "Minggu, 4 Oktober 2026",
        "date_iso": "2026-10-04",
        "relative": "Hari ini",
        "hour": "23:00",
        "rain_probability": 50.0,
        "risk_score": 50,
        "risk_class": "watch",
        "risk_label": "Perlu diperhatikan",
        "condition": "Cerah",
        "temp_c": 28.0,
        "humidity_pct": 68.0,
        "heat_index_c": 30.41,
        "wind_kmh": 2.7,
        "wind_dir": 0.0,
        "cloud_pct": 15.0
      }
    },
    {
      "type": "Feature",
      "geometry": {
        "type": "Point",
        "coordinates": [
          108.4103,
          -6.6453
        ]
      },
      "properties": {
        "location_name": "Arjawinangun",
        "slug": "arjawinangun",
        "date": "Senin, 5 Oktober 2026",
        "date_iso": "2026-10-05",
        "relative": "Besok",
        "hour": "00:00",
        "rain_probability": 50.0,
        "risk_score": 50,
        "risk_class": "watch",
        "risk_label": "Perlu diperhatikan",
        "condition": "Cerah Berawan",
        "temp_c": 28.0,
        "humidity_pct": 63.4,
        "heat_index_c": 29.84,
        "wind_kmh": 6.84,
        "wind_dir": 0.0,
        "cloud_pct": 45.0
      }
    },
    {
      "type": "Feature",
      "geometry": {
        "type": "Point",
        "coordinates": [
          108.4103,
          -6.6453
        ]
      },
      "properties": {
        "location_name": "Arjawinangun",
        "slug": "arjawinangun",
        "date": "Senin, 5 Oktober 2026",
        "date_iso": "2026-10-05",
        "relative": "Besok",
        "hour": "01:00",
        "rain_probability": null,
        "risk_score": 12,
        "risk_class": "safe",
        "risk_label": "Aman",
        "condition": "Cerah Berawan",
        "temp_c": 27.7,
        "humidity_pct": 64.5,
        "heat_index_c": 29.48,
        "wind_kmh": 6.84,
        "wind_dir": 0.0,
        "cloud_pct": 45.0
      }
    },
    {
      "type": "Feature",
      "geometry": {
        "type": "Point",
        "coordinates": [
          108.4103,
          -6.6453
        ]
      },
      "properties": {
        "location_name": "Arjawinangun",
        "slug": "arjawinangun",
        "date": "Senin, 5 Oktober 2026",
        "date_iso": "2026-10-05",
        "relative": "Besok",
        "hour": "02:00",
        "rain_probability": null,
        "risk_score": 13,
        "risk_class": "safe",
        "risk_label": "Aman",
        "condition": "Cerah Berawan",
        "temp_c": 26.0,
        "humidity_pct": 69.0,
        "heat_index_c": 26.0,
        "wind_kmh": 3.2,
        "wind_dir": 0.0,
        "cloud_pct": 45.0
      }
    },
    {
      "type": "Feature",
      "geometry": {
        "type": "Point",
        "coordinates": [
          108.4103,
          -6.6453
        ]
      },
      "properties": {
        "location_name": "Arjawinangun",
        "slug": "arjawinangun",
        "date": "Senin, 5 Oktober 2026",
        "date_iso": "2026-10-05",
        "relative": "Besok",
        "hour": "03:00",
        "rain_probability": null,
        "risk_score": 13,
        "risk_class": "safe",
        "risk_label": "Aman",
        "condition": "Cerah Berawan",
        "temp_c": 26.6,
        "humidity_pct": 70.0,
        "heat_index_c": 26.6,
        "wind_kmh": 6.12,
        "wind_dir": 0.0,
        "cloud_pct": 45.0
      }
    },
    {
      "type": "Feature",
      "geometry": {
        "type": "Point",
        "coordinates": [
          108.4103,
          -6.6453
        ]
      },
      "properties": {
        "location_name": "Arjawinangun",
        "slug": "arjawinangun",
        "date": "Senin, 5 Oktober 2026",
        "date_iso": "2026-10-05",
        "relative": "Besok",
        "hour": "04:00",
        "rain_probability": null,
        "risk_score": 17,
        "risk_class": "safe",
        "risk_label": "Aman",
        "condition": "Cerah Berawan",
        "temp_c": 26.2,
        "humidity_pct": 72.4,
        "heat_index_c": 26.2,
        "wind_kmh": 6.48,
        "wind_dir": 0.0,
        "cloud_pct": 45.0
      }
    },
    {
      "type": "Feature",
      "geometry": {
        "type": "Point",
        "coordinates": [
          108.4103,
          -6.6453
        ]
      },
      "properties": {
        "location_name": "Arjawinangun",
        "slug": "arjawinangun",
        "date": "Senin, 5 Oktober 2026",
        "date_iso": "2026-10-05",
        "relative": "Besok",
        "hour": "05:00",
        "rain_probability": null,
        "risk_score": 16,
        "risk_class": "safe",
        "risk_label": "Aman",
        "condition": "Cerah",
        "temp_c": 26.0,
        "humidity_pct": 73.0,
        "heat_index_c": 26.0,
        "wind_kmh": 4.2,
        "wind_dir": 0.0,
        "cloud_pct": 15.0
      }
    },
    {
      "type": "Feature",
      "geometry": {
        "type": "Point",
        "coordinates": [
          108.4103,
          -6.6453
        ]
      },
      "properties": {
        "location_name": "Arjawinangun",
        "slug": "arjawinangun",
        "date": "Senin, 5 Oktober 2026",
        "date_iso": "2026-10-05",
        "relative": "Besok",
        "hour": "06:00",
        "rain_probability": null,
        "risk_score": 17,
        "risk_class": "safe",
        "risk_label": "Aman",
        "condition": "Cerah Berawan",
        "temp_c": 25.8,
        "humidity_pct": 72.1,
        "heat_index_c": 25.8,
        "wind_kmh": 7.56,
        "wind_dir": 0.0,
        "cloud_pct": 45.0
      }
    },
    {
      "type": "Feature",
      "geometry": {
        "type": "Point",
        "coordinates": [
          108.4103,
          -6.6453
        ]
      },
      "properties": {
        "location_name": "Arjawinangun",
        "slug": "arjawinangun",
        "date": "Senin, 5 Oktober 2026",
        "date_iso": "2026-10-05",
        "relative": "Besok",
        "hour": "07:00",
        "rain_probability": null,
        "risk_score": 15,
        "risk_class": "safe",
        "risk_label": "Aman",
        "condition": "Cerah Berawan",
        "temp_c": 27.5,
        "humidity_pct": 62.1,
        "heat_index_c": 28.93,
        "wind_kmh": 6.84,
        "wind_dir": 0.0,
        "cloud_pct": 45.0
      }
    },
    {
      "type": "Feature",
      "geometry": {
        "type": "Point",
        "coordinates": [
          108.4103,
          -6.6453
        ]
      },
      "properties": {
        "location_name": "Arjawinangun",
        "slug": "arjawinangun",
        "date": "Senin, 5 Oktober 2026",
        "date_iso": "2026-10-05",
        "relative": "Besok",
        "hour": "08:00",
        "rain_probability": null,
        "risk_score": 24,
        "risk_class": "safe",
        "risk_label": "Aman",
        "condition": "Cerah",
        "temp_c": 32.0,
        "humidity_pct": 43.0,
        "heat_index_c": 32.84,
        "wind_kmh": 6.4,
        "wind_dir": 0.0,
        "cloud_pct": 15.0
      }
    },
    {
      "type": "Feature",
      "geometry": {
        "type": "Point",
        "coordinates": [
          108.4103,
          -6.6453
        ]
      },
      "properties": {
        "location_name": "Arjawinangun",
        "slug": "arjawinangun",
        "date": "Senin, 5 Oktober 2026",
        "date_iso": "2026-10-05",
        "relative": "Besok",
        "hour": "09:00",
        "rain_probability": null,
        "risk_score": 24,
        "risk_class": "safe",
        "risk_label": "Aman",
        "condition": "Cerah Berawan",
        "temp_c": 32.1,
        "humidity_pct": 44.7,
        "heat_index_c": 33.34,
        "wind_kmh": 12.96,
        "wind_dir": 0.0,
        "cloud_pct": 45.0
      }
    },
    {
      "type": "Feature",
      "geometry": {
        "type": "Point",
        "coordinates": [
          108.4103,
          -6.6453
        ]
      },
      "properties": {
        "location_name": "Arjawinangun",
        "slug": "arjawinangun",
        "date": "Senin, 5 Oktober 2026",
        "date_iso": "2026-10-05",
        "relative": "Besok",
        "hour": "10:00",
        "rain_probability": null,
        "risk_score": 38,
        "risk_class": "watch",
        "risk_label": "Perlu diperhatikan",
        "condition": "Cerah Berawan",
        "temp_c": 34.2,
        "humidity_pct": 39.4,
        "heat_index_c": 34.2,
        "wind_kmh": 16.2,
        "wind_dir": 0.0,
        "cloud_pct": 45.0
      }
    },
    {
      "type": "Feature",
      "geometry": {
        "type": "Point",
        "coordinates": [
          108.4103,
          -6.6453
        ]
      },
      "properties": {
        "location_name": "Arjawinangun",
        "slug": "arjawinangun",
        "date": "Senin, 5 Oktober 2026",
        "date_iso": "2026-10-05",
        "relative": "Besok",
        "hour": "11:00",
        "rain_probability": null,
        "risk_score": 52,
        "risk_class": "watch",
        "risk_label": "Perlu diperhatikan",
        "condition": "Cerah Berawan",
        "temp_c": 36.0,
        "humidity_pct": 34.0,
        "heat_index_c": 36.0,
        "wind_kmh": 10.9,
        "wind_dir": 0.0,
        "cloud_pct": 45.0
      }
    },
    {
      "type": "Feature",
      "geometry": {
        "type": "Point",
        "coordinates": [
          108.4103,
          -6.6453
        ]
      },
      "properties": {
        "location_name": "Arjawinangun",
        "slug": "arjawinangun",
        "date": "Senin, 5 Oktober 2026",
        "date_iso": "2026-10-05",
        "relative": "Besok",
        "hour": "12:00",
        "rain_probability": 50.0,
        "risk_score": 52,
        "risk_class": "watch",
        "risk_label": "Perlu diperhatikan",
        "condition": "Cerah Berawan",
        "temp_c": 36.5,
        "humidity_pct": 35.0,
        "heat_index_c": 36.5,
        "wind_kmh": 19.08,
        "wind_dir": 0.0,
        "cloud_pct": 45.0
      }
    },
    {
      "type": "Feature",
      "geometry": {
        "type": "Point",
        "coordinates": [
          108.4103,
          -6.6453
        ]
      },
      "properties": {
        "location_name": "Arjawinangun",
        "slug": "arjawinangun",
        "date": "Senin, 5 Oktober 2026",
        "date_iso": "2026-10-05",
        "relative": "Besok",
        "hour": "13:00",
        "rain_probability": 38.3,
        "risk_score": 52,
        "risk_class": "watch",
        "risk_label": "Perlu diperhatikan",
        "condition": "Cerah Berawan",
        "temp_c": 36.4,
        "humidity_pct": 35.2,
        "heat_index_c": 36.4,
        "wind_kmh": 19.44,
        "wind_dir": 0.0,
        "cloud_pct": 45.0
      }
    },
    {
      "type": "Feature",
      "geometry": {
        "type": "Point",
        "coordinates": [
          108.4103,
          -6.6453
        ]
      },
      "properties": {
        "location_name": "Arjawinangun",
        "slug": "arjawinangun",
        "date": "Senin, 5 Oktober 2026",
        "date_iso": "2026-10-05",
        "relative": "Besok",
        "hour": "14:00",
        "rain_probability": 78.5,
        "risk_score": 78,
        "risk_class": "danger",
        "risk_label": "Berpotensi signifikan",
        "condition": "Hujan Ringan",
        "temp_c": 33.0,
        "humidity_pct": 49.0,
        "heat_index_c": 36.01,
        "wind_kmh": 7.1,
        "wind_dir": 0.0,
        "cloud_pct": 88.0
      }
    },
    {
      "type": "Feature",
      "geometry": {
        "type": "Point",
        "coordinates": [
          108.4103,
          -6.6453
        ]
      },
      "properties": {
        "location_name": "Arjawinangun",
        "slug": "arjawinangun",
        "date": "Senin, 5 Oktober 2026",
        "date_iso": "2026-10-05",
        "relative": "Besok",
        "hour": "15:00",
        "rain_probability": 40.3,
        "risk_score": 52,
        "risk_class": "watch",
        "risk_label": "Perlu diperhatikan",
        "condition": "Cerah Berawan",
        "temp_c": 33.6,
        "humidity_pct": 45.6,
        "heat_index_c": 36.21,
        "wind_kmh": 18.72,
        "wind_dir": 0.0,
        "cloud_pct": 45.0
      }
    },
    {
      "type": "Feature",
      "geometry": {
        "type": "Point",
        "coordinates": [
          108.4103,
          -6.6453
        ]
      },
      "properties": {
        "location_name": "Arjawinangun",
        "slug": "arjawinangun",
        "date": "Senin, 5 Oktober 2026",
        "date_iso": "2026-10-05",
        "relative": "Besok",
        "hour": "16:00",
        "rain_probability": 78.0,
        "risk_score": 78,
        "risk_class": "danger",
        "risk_label": "Berpotensi signifikan",
        "condition": "Hujan Ringan",
        "temp_c": 32.5,
        "humidity_pct": 50.5,
        "heat_index_c": 35.44,
        "wind_kmh": 15.48,
        "wind_dir": 0.0,
        "cloud_pct": 88.0
      }
    },
    {
      "type": "Feature",
      "geometry": {
        "type": "Point",
        "coordinates": [
          108.4103,
          -6.6453
        ]
      },
      "properties": {
        "location_name": "Arjawinangun",
        "slug": "arjawinangun",
        "date": "Senin, 5 Oktober 2026",
        "date_iso": "2026-10-05",
        "relative": "Besok",
        "hour": "17:00",
        "rain_probability": 76.0,
        "risk_score": 76,
        "risk_class": "rain",
        "risk_label": "Waspada",
        "condition": "Hujan Ringan",
        "temp_c": 26.0,
        "humidity_pct": 94.0,
        "heat_index_c": 26.0,
        "wind_kmh": 1.7,
        "wind_dir": 0.0,
        "cloud_pct": 88.0
      }
    },
    {
      "type": "Feature",
      "geometry": {
        "type": "Point",
        "coordinates": [
          108.4103,
          -6.6453
        ]
      },
      "properties": {
        "location_name": "Arjawinangun",
        "slug": "arjawinangun",
        "date": "Senin, 5 Oktober 2026",
        "date_iso": "2026-10-05",
        "relative": "Besok",
        "hour": "18:00",
        "rain_probability": 75.0,
        "risk_score": 75,
        "risk_class": "rain",
        "risk_label": "Waspada",
        "condition": "Hujan Lebat",
        "temp_c": 26.5,
        "humidity_pct": 88.3,
        "heat_index_c": 26.5,
        "wind_kmh": 10.08,
        "wind_dir": 0.0,
        "cloud_pct": 98.0
      }
    },
    {
      "type": "Feature",
      "geometry": {
        "type": "Point",
        "coordinates": [
          108.4103,
          -6.6453
        ]
      },
      "properties": {
        "location_name": "Arjawinangun",
        "slug": "arjawinangun",
        "date": "Senin, 5 Oktober 2026",
        "date_iso": "2026-10-05",
        "relative": "Besok",
        "hour": "19:00",
        "rain_probability": 38.2,
        "risk_score": 40,
        "risk_class": "watch",
        "risk_label": "Perlu diperhatikan",
        "condition": "Hujan Ringan",
        "temp_c": 25.7,
        "humidity_pct": 92.1,
        "heat_index_c": 25.7,
        "wind_kmh": 9.36,
        "wind_dir": 0.0,
        "cloud_pct": 88.0
      }
    },
    {
      "type": "Feature",
      "geometry": {
        "type": "Point",
        "coordinates": [
          108.4103,
          -6.6453
        ]
      },
      "properties": {
        "location_name": "Arjawinangun",
        "slug": "arjawinangun",
        "date": "Senin, 5 Oktober 2026",
        "date_iso": "2026-10-05",
        "relative": "Besok",
        "hour": "20:00",
        "rain_probability": 1.0,
        "risk_score": 18,
        "risk_class": "safe",
        "risk_label": "Aman",
        "condition": "Berawan",
        "temp_c": 26.0,
        "humidity_pct": 94.0,
        "heat_index_c": 26.0,
        "wind_kmh": 0.4,
        "wind_dir": 0.0,
        "cloud_pct": 75.0
      }
    },
    {
      "type": "Feature",
      "geometry": {
        "type": "Point",
        "coordinates": [
          108.4103,
          -6.6453
        ]
      },
      "properties": {
        "location_name": "Arjawinangun",
        "slug": "arjawinangun",
        "date": "Senin, 5 Oktober 2026",
        "date_iso": "2026-10-05",
        "relative": "Besok",
        "hour": "21:00",
        "rain_probability": 1.0,
        "risk_score": 21,
        "risk_class": "safe",
        "risk_label": "Aman",
        "condition": "Cerah Berawan",
        "temp_c": 25.7,
        "humidity_pct": 91.5,
        "heat_index_c": 25.7,
        "wind_kmh": 6.48,
        "wind_dir": 0.0,
        "cloud_pct": 45.0
      }
    },
    {
      "type": "Feature",
      "geometry": {
        "type": "Point",
        "coordinates": [
          108.4103,
          -6.6453
        ]
      },
      "properties": {
        "location_name": "Arjawinangun",
        "slug": "arjawinangun",
        "date": "Senin, 5 Oktober 2026",
        "date_iso": "2026-10-05",
        "relative": "Besok",
        "hour": "22:00",
        "rain_probability": 1.0,
        "risk_score": 21,
        "risk_class": "safe",
        "risk_label": "Aman",
        "condition": "Cerah Berawan",
        "temp_c": 25.7,
        "humidity_pct": 91.1,
        "heat_index_c": 25.7,
        "wind_kmh": 5.76,
        "wind_dir": 0.0,
        "cloud_pct": 45.0
      }
    },
    {
      "type": "Feature",
      "geometry": {
        "type": "Point",
        "coordinates": [
          108.4103,
          -6.6453
        ]
      },
      "properties": {
        "location_name": "Arjawinangun",
        "slug": "arjawinangun",
        "date": "Senin, 5 Oktober 2026",
        "date_iso": "2026-10-05",
        "relative": "Besok",
        "hour": "23:00",
        "rain_probability": 50.0,
        "risk_score": 50,
        "risk_class": "watch",
        "risk_label": "Perlu diperhatikan",
        "condition": "Cerah",
        "temp_c": 25.0,
        "humidity_pct": 93.0,
        "heat_index_c": 25.0,
        "wind_kmh": 2.2,
        "wind_dir": 0.0,
        "cloud_pct": 15.0
      }
    },
    {
      "type": "Feature",
      "geometry": {
        "type": "Point",
        "coordinates": [
          108.4103,
          -6.6453
        ]
      },
      "properties": {
        "location_name": "Arjawinangun",
        "slug": "arjawinangun",
        "date": "Selasa, 6 Oktober 2026",
        "date_iso": "2026-10-06",
        "relative": "Lusa",
        "hour": "00:00",
        "rain_probability": 50.0,
        "risk_score": 50,
        "risk_class": "watch",
        "risk_label": "Perlu diperhatikan",
        "condition": "Cerah Berawan",
        "temp_c": 25.4,
        "humidity_pct": 91.6,
        "heat_index_c": 25.4,
        "wind_kmh": 9.0,
        "wind_dir": 0.0,
        "cloud_pct": 45.0
      }
    },
    {
      "type": "Feature",
      "geometry": {
        "type": "Point",
        "coordinates": [
          108.4103,
          -6.6453
        ]
      },
      "properties": {
        "location_name": "Arjawinangun",
        "slug": "arjawinangun",
        "date": "Selasa, 6 Oktober 2026",
        "date_iso": "2026-10-06",
        "relative": "Lusa",
        "hour": "01:00",
        "rain_probability": 50.0,
        "risk_score": 50,
        "risk_class": "watch",
        "risk_label": "Perlu diperhatikan",
        "condition": "Cerah Berawan",
        "temp_c": 25.1,
        "humidity_pct": 90.3,
        "heat_index_c": 25.1,
        "wind_kmh": 9.72,
        "wind_dir": 0.0,
        "cloud_pct": 45.0
      }
    },
    {
      "type": "Feature",
      "geometry": {
        "type": "Point",
        "coordinates": [
          108.4103,
          -6.6453
        ]
      },
      "properties": {
        "location_name": "Arjawinangun",
        "slug": "arjawinangun",
        "date": "Selasa, 6 Oktober 2026",
        "date_iso": "2026-10-06",
        "relative": "Lusa",
        "hour": "02:00",
        "rain_probability": null,
        "risk_score": 18,
        "risk_class": "safe",
        "risk_label": "Aman",
        "condition": "Cerah Berawan",
        "temp_c": 24.0,
        "humidity_pct": 96.0,
        "heat_index_c": 24.0,
        "wind_kmh": 1.4,
        "wind_dir": 0.0,
        "cloud_pct": 45.0
      }
    },
    {
      "type": "Feature",
      "geometry": {
        "type": "Point",
        "coordinates": [
          108.4103,
          -6.6453
        ]
      },
      "properties": {
        "location_name": "Arjawinangun",
        "slug": "arjawinangun",
        "date": "Selasa, 6 Oktober 2026",
        "date_iso": "2026-10-06",
        "relative": "Lusa",
        "hour": "03:00",
        "rain_probability": null,
        "risk_score": 17,
        "risk_class": "safe",
        "risk_label": "Aman",
        "condition": "Cerah Berawan",
        "temp_c": 24.3,
        "humidity_pct": 91.9,
        "heat_index_c": 24.3,
        "wind_kmh": 6.84,
        "wind_dir": 0.0,
        "cloud_pct": 45.0
      }
    },
    {
      "type": "Feature",
      "geometry": {
        "type": "Point",
        "coordinates": [
          108.4103,
          -6.6453
        ]
      },
      "properties": {
        "location_name": "Arjawinangun",
        "slug": "arjawinangun",
        "date": "Selasa, 6 Oktober 2026",
        "date_iso": "2026-10-06",
        "relative": "Lusa",
        "hour": "04:00",
        "rain_probability": null,
        "risk_score": 21,
        "risk_class": "safe",
        "risk_label": "Aman",
        "condition": "Cerah Berawan",
        "temp_c": 23.9,
        "humidity_pct": 93.6,
        "heat_index_c": 23.9,
        "wind_kmh": 7.2,
        "wind_dir": 0.0,
        "cloud_pct": 45.0
      }
    },
    {
      "type": "Feature",
      "geometry": {
        "type": "Point",
        "coordinates": [
          108.4103,
          -6.6453
        ]
      },
      "properties": {
        "location_name": "Arjawinangun",
        "slug": "arjawinangun",
        "date": "Selasa, 6 Oktober 2026",
        "date_iso": "2026-10-06",
        "relative": "Lusa",
        "hour": "05:00",
        "rain_probability": null,
        "risk_score": 18,
        "risk_class": "safe",
        "risk_label": "Aman",
        "condition": "Berawan",
        "temp_c": 23.0,
        "humidity_pct": 95.0,
        "heat_index_c": 23.0,
        "wind_kmh": 2.7,
        "wind_dir": 0.0,
        "cloud_pct": 75.0
      }
    },
    {
      "type": "Feature",
      "geometry": {
        "type": "Point",
        "coordinates": [
          108.4103,
          -6.6453
        ]
      },
      "properties": {
        "location_name": "Arjawinangun",
        "slug": "arjawinangun",
        "date": "Selasa, 6 Oktober 2026",
        "date_iso": "2026-10-06",
        "relative": "Lusa",
        "hour": "06:00",
        "rain_probability": null,
        "risk_score": 18,
        "risk_class": "safe",
        "risk_label": "Aman",
        "condition": "Berawan",
        "temp_c": 23.3,
        "humidity_pct": 94.2,
        "heat_index_c": 23.3,
        "wind_kmh": 10.8,
        "wind_dir": 0.0,
        "cloud_pct": 75.0
      }
    },
    {
      "type": "Feature",
      "geometry": {
        "type": "Point",
        "coordinates": [
          108.4103,
          -6.6453
        ]
      },
      "properties": {
        "location_name": "Arjawinangun",
        "slug": "arjawinangun",
        "date": "Selasa, 6 Oktober 2026",
        "date_iso": "2026-10-06",
        "relative": "Lusa",
        "hour": "07:00",
        "rain_probability": null,
        "risk_score": 18,
        "risk_class": "safe",
        "risk_label": "Aman",
        "condition": "Cerah",
        "temp_c": 25.2,
        "humidity_pct": 76.1,
        "heat_index_c": 25.2,
        "wind_kmh": 10.08,
        "wind_dir": 0.0,
        "cloud_pct": 15.0
      }
    },
    {
      "type": "Feature",
      "geometry": {
        "type": "Point",
        "coordinates": [
          108.4103,
          -6.6453
        ]
      },
      "properties": {
        "location_name": "Arjawinangun",
        "slug": "arjawinangun",
        "date": "Selasa, 6 Oktober 2026",
        "date_iso": "2026-10-06",
        "relative": "Lusa",
        "hour": "08:00",
        "rain_probability": null,
        "risk_score": 24,
        "risk_class": "safe",
        "risk_label": "Aman",
        "condition": "Berawan",
        "temp_c": 31.0,
        "humidity_pct": 54.0,
        "heat_index_c": 33.45,
        "wind_kmh": 2.7,
        "wind_dir": 0.0,
        "cloud_pct": 75.0
      }
    },
    {
      "type": "Feature",
      "geometry": {
        "type": "Point",
        "coordinates": [
          108.4103,
          -6.6453
        ]
      },
      "properties": {
        "location_name": "Arjawinangun",
        "slug": "arjawinangun",
        "date": "Selasa, 6 Oktober 2026",
        "date_iso": "2026-10-06",
        "relative": "Lusa",
        "hour": "09:00",
        "rain_probability": null,
        "risk_score": 24,
        "risk_class": "safe",
        "risk_label": "Aman",
        "condition": "Cerah Berawan",
        "temp_c": 30.8,
        "humidity_pct": 52.1,
        "heat_index_c": 32.7,
        "wind_kmh": 12.6,
        "wind_dir": 0.0,
        "cloud_pct": 45.0
      }
    },
    {
      "type": "Feature",
      "geometry": {
        "type": "Point",
        "coordinates": [
          108.4103,
          -6.6453
        ]
      },
      "properties": {
        "location_name": "Arjawinangun",
        "slug": "arjawinangun",
        "date": "Selasa, 6 Oktober 2026",
        "date_iso": "2026-10-06",
        "relative": "Lusa",
        "hour": "10:00",
        "rain_probability": null,
        "risk_score": 38,
        "risk_class": "watch",
        "risk_label": "Perlu diperhatikan",
        "condition": "Cerah Berawan",
        "temp_c": 32.9,
        "humidity_pct": 47.6,
        "heat_index_c": 35.43,
        "wind_kmh": 15.48,
        "wind_dir": 0.0,
        "cloud_pct": 45.0
      }
    },
    {
      "type": "Feature",
      "geometry": {
        "type": "Point",
        "coordinates": [
          108.4103,
          -6.6453
        ]
      },
      "properties": {
        "location_name": "Arjawinangun",
        "slug": "arjawinangun",
        "date": "Selasa, 6 Oktober 2026",
        "date_iso": "2026-10-06",
        "relative": "Lusa",
        "hour": "11:00",
        "rain_probability": null,
        "risk_score": 52,
        "risk_class": "watch",
        "risk_label": "Perlu diperhatikan",
        "condition": "Cerah Berawan",
        "temp_c": 34.0,
        "humidity_pct": 44.0,
        "heat_index_c": 36.52,
        "wind_kmh": 9.9,
        "wind_dir": 0.0,
        "cloud_pct": 45.0
      }
    },
    {
      "type": "Feature",
      "geometry": {
        "type": "Point",
        "coordinates": [
          108.4103,
          -6.6453
        ]
      },
      "properties": {
        "location_name": "Arjawinangun",
        "slug": "arjawinangun",
        "date": "Selasa, 6 Oktober 2026",
        "date_iso": "2026-10-06",
        "relative": "Lusa",
        "hour": "12:00",
        "rain_probability": 50.0,
        "risk_score": 52,
        "risk_class": "watch",
        "risk_label": "Perlu diperhatikan",
        "condition": "Cerah Berawan",
        "temp_c": 34.8,
        "humidity_pct": 43.0,
        "heat_index_c": 37.76,
        "wind_kmh": 15.48,
        "wind_dir": 0.0,
        "cloud_pct": 45.0
      }
    },
    {
      "type": "Feature",
      "geometry": {
        "type": "Point",
        "coordinates": [
          108.4103,
          -6.6453
        ]
      },
      "properties": {
        "location_name": "Arjawinangun",
        "slug": "arjawinangun",
        "date": "Selasa, 6 Oktober 2026",
        "date_iso": "2026-10-06",
        "relative": "Lusa",
        "hour": "13:00",
        "rain_probability": 2.0,
        "risk_score": 52,
        "risk_class": "watch",
        "risk_label": "Perlu diperhatikan",
        "condition": "Cerah Berawan",
        "temp_c": 35.0,
        "humidity_pct": 41.7,
        "heat_index_c": 37.74,
        "wind_kmh": 15.48,
        "wind_dir": 0.0,
        "cloud_pct": 45.0
      }
    },
    {
      "type": "Feature",
      "geometry": {
        "type": "Point",
        "coordinates": [
          108.4103,
          -6.6453
        ]
      },
      "properties": {
        "location_name": "Arjawinangun",
        "slug": "arjawinangun",
        "date": "Selasa, 6 Oktober 2026",
        "date_iso": "2026-10-06",
        "relative": "Lusa",
        "hour": "14:00",
        "rain_probability": 3.5,
        "risk_score": 52,
        "risk_class": "watch",
        "risk_label": "Perlu diperhatikan",
        "condition": "Berawan",
        "temp_c": 34.0,
        "humidity_pct": 46.0,
        "heat_index_c": 37.11,
        "wind_kmh": 9.9,
        "wind_dir": 0.0,
        "cloud_pct": 75.0
      }
    },
    {
      "type": "Feature",
      "geometry": {
        "type": "Point",
        "coordinates": [
          108.4103,
          -6.6453
        ]
      },
      "properties": {
        "location_name": "Arjawinangun",
        "slug": "arjawinangun",
        "date": "Selasa, 6 Oktober 2026",
        "date_iso": "2026-10-06",
        "relative": "Lusa",
        "hour": "15:00",
        "rain_probability": 3.5,
        "risk_score": 52,
        "risk_class": "watch",
        "risk_label": "Perlu diperhatikan",
        "condition": "Berawan",
        "temp_c": 34.0,
        "humidity_pct": 46.4,
        "heat_index_c": 37.23,
        "wind_kmh": 16.56,
        "wind_dir": 0.0,
        "cloud_pct": 75.0
      }
    },
    {
      "type": "Feature",
      "geometry": {
        "type": "Point",
        "coordinates": [
          108.4103,
          -6.6453
        ]
      },
      "properties": {
        "location_name": "Arjawinangun",
        "slug": "arjawinangun",
        "date": "Selasa, 6 Oktober 2026",
        "date_iso": "2026-10-06",
        "relative": "Lusa",
        "hour": "16:00",
        "rain_probability": 3.0,
        "risk_score": 38,
        "risk_class": "watch",
        "risk_label": "Perlu diperhatikan",
        "condition": "Berawan",
        "temp_c": 32.4,
        "humidity_pct": 51.3,
        "heat_index_c": 35.45,
        "wind_kmh": 15.12,
        "wind_dir": 0.0,
        "cloud_pct": 75.0
      }
    },
    {
      "type": "Feature",
      "geometry": {
        "type": "Point",
        "coordinates": [
          108.4103,
          -6.6453
        ]
      },
      "properties": {
        "location_name": "Arjawinangun",
        "slug": "arjawinangun",
        "date": "Selasa, 6 Oktober 2026",
        "date_iso": "2026-10-06",
        "relative": "Lusa",
        "hour": "17:00",
        "rain_probability": 1.0,
        "risk_score": 24,
        "risk_class": "safe",
        "risk_label": "Aman",
        "condition": "Berawan",
        "temp_c": 29.0,
        "humidity_pct": 71.0,
        "heat_index_c": 32.91,
        "wind_kmh": 0.8,
        "wind_dir": 0.0,
        "cloud_pct": 75.0
      }
    },
    {
      "type": "Feature",
      "geometry": {
        "type": "Point",
        "coordinates": [
          108.4103,
          -6.6453
        ]
      },
      "properties": {
        "location_name": "Arjawinangun",
        "slug": "arjawinangun",
        "date": "Selasa, 6 Oktober 2026",
        "date_iso": "2026-10-06",
        "relative": "Lusa",
        "hour": "18:00",
        "rain_probability": null,
        "risk_score": 24,
        "risk_class": "safe",
        "risk_label": "Aman",
        "condition": "Cerah Berawan",
        "temp_c": 29.4,
        "humidity_pct": 67.7,
        "heat_index_c": 33.15,
        "wind_kmh": 12.96,
        "wind_dir": 0.0,
        "cloud_pct": 45.0
      }
    },
    {
      "type": "Feature",
      "geometry": {
        "type": "Point",
        "coordinates": [
          108.4103,
          -6.6453
        ]
      },
      "properties": {
        "location_name": "Arjawinangun",
        "slug": "arjawinangun",
        "date": "Selasa, 6 Oktober 2026",
        "date_iso": "2026-10-06",
        "relative": "Lusa",
        "hour": "19:00",
        "rain_probability": null,
        "risk_score": 24,
        "risk_class": "safe",
        "risk_label": "Aman",
        "condition": "Cerah Berawan",
        "temp_c": 28.9,
        "humidity_pct": 72.1,
        "heat_index_c": 32.89,
        "wind_kmh": 9.0,
        "wind_dir": 0.0,
        "cloud_pct": 45.0
      }
    },
    {
      "type": "Feature",
      "geometry": {
        "type": "Point",
        "coordinates": [
          108.4103,
          -6.6453
        ]
      },
      "properties": {
        "location_name": "Arjawinangun",
        "slug": "arjawinangun",
        "date": "Selasa, 6 Oktober 2026",
        "date_iso": "2026-10-06",
        "relative": "Lusa",
        "hour": "20:00",
        "rain_probability": 1.0,
        "risk_score": 18,
        "risk_class": "safe",
        "risk_label": "Aman",
        "condition": "Berawan",
        "temp_c": 27.0,
        "humidity_pct": 78.0,
        "heat_index_c": 29.55,
        "wind_kmh": 0.8,
        "wind_dir": 0.0,
        "cloud_pct": 75.0
      }
    },
    {
      "type": "Feature",
      "geometry": {
        "type": "Point",
        "coordinates": [
          108.4103,
          -6.6453
        ]
      },
      "properties": {
        "location_name": "Arjawinangun",
        "slug": "arjawinangun",
        "date": "Selasa, 6 Oktober 2026",
        "date_iso": "2026-10-06",
        "relative": "Lusa",
        "hour": "21:00",
        "rain_probability": 50.0,
        "risk_score": 50,
        "risk_class": "watch",
        "risk_label": "Perlu diperhatikan",
        "condition": "Cerah Berawan",
        "temp_c": 28.2,
        "humidity_pct": 75.3,
        "heat_index_c": 31.85,
        "wind_kmh": 12.24,
        "wind_dir": 0.0,
        "cloud_pct": 45.0
      }
    },
    {
      "type": "Feature",
      "geometry": {
        "type": "Point",
        "coordinates": [
          108.4103,
          -6.6453
        ]
      },
      "properties": {
        "location_name": "Arjawinangun",
        "slug": "arjawinangun",
        "date": "Selasa, 6 Oktober 2026",
        "date_iso": "2026-10-06",
        "relative": "Lusa",
        "hour": "22:00",
        "rain_probability": 1.0,
        "risk_score": 18,
        "risk_class": "safe",
        "risk_label": "Aman",
        "condition": "Cerah Berawan",
        "temp_c": 27.7,
        "humidity_pct": 75.7,
        "heat_index_c": 30.8,
        "wind_kmh": 12.6,
        "wind_dir": 0.0,
        "cloud_pct": 45.0
      }
    },
    {
      "type": "Feature",
      "geometry": {
        "type": "Point",
        "coordinates": [
          108.4103,
          -6.6453
        ]
      },
      "properties": {
        "location_name": "Arjawinangun",
        "slug": "arjawinangun",
        "date": "Selasa, 6 Oktober 2026",
        "date_iso": "2026-10-06",
        "relative": "Lusa",
        "hour": "23:00",
        "rain_probability": 1.0,
        "risk_score": 19,
        "risk_class": "safe",
        "risk_label": "Aman",
        "condition": "Berawan",
        "temp_c": 25.0,
        "humidity_pct": 81.0,
        "heat_index_c": 25.0,
        "wind_kmh": 1.7,
        "wind_dir": 0.0,
        "cloud_pct": 75.0
      }
    }
  ]
}