{
  "type": "FeatureCollection",
  "features": [
    {
      "type": "Feature",
      "geometry": {
        "type": "Point",
        "coordinates": [
          108.4103,
          -6.6453
        ]
      },
      "properties": {
        "location_name": "Arjawinangun",
        "slug": "arjawinangun",
        "date": "Jumat, 2 Oktober 2026",
        "date_iso": "2026-10-02",
        "relative": "Hari ini",
        "hour": "00:00",
        "rain_probability": 1.9,
        "risk_score": 19,
        "risk_class": "safe",
        "risk_label": "Aman",
        "condition": "Berawan",
        "temp_c": 26.8,
        "humidity_pct": 78.0,
        "heat_index_c": 28.82,
        "wind_kmh": 5.8,
        "wind_dir": 159.0,
        "cloud_pct": 74.0
      }
    },
    {
      "type": "Feature",
      "geometry": {
        "type": "Point",
        "coordinates": [
          108.4103,
          -6.6453
        ]
      },
      "properties": {
        "location_name": "Arjawinangun",
        "slug": "arjawinangun",
        "date": "Jumat, 2 Oktober 2026",
        "date_iso": "2026-10-02",
        "relative": "Hari ini",
        "hour": "01:00",
        "rain_probability": 1.6,
        "risk_score": 19,
        "risk_class": "safe",
        "risk_label": "Aman",
        "condition": "Cerah Berawan",
        "temp_c": 26.4,
        "humidity_pct": 79.0,
        "heat_index_c": 26.4,
        "wind_kmh": 5.0,
        "wind_dir": 165.0,
        "cloud_pct": 67.0
      }
    },
    {
      "type": "Feature",
      "geometry": {
        "type": "Point",
        "coordinates": [
          108.4103,
          -6.6453
        ]
      },
      "properties": {
        "location_name": "Arjawinangun",
        "slug": "arjawinangun",
        "date": "Jumat, 2 Oktober 2026",
        "date_iso": "2026-10-02",
        "relative": "Hari ini",
        "hour": "02:00",
        "rain_probability": 1.0,
        "risk_score": 19,
        "risk_class": "safe",
        "risk_label": "Aman",
        "condition": "Cerah Berawan",
        "temp_c": 25.9,
        "humidity_pct": 81.0,
        "heat_index_c": 25.9,
        "wind_kmh": 4.0,
        "wind_dir": 173.0,
        "cloud_pct": 71.0
      }
    },
    {
      "type": "Feature",
      "geometry": {
        "type": "Point",
        "coordinates": [
          108.4103,
          -6.6453
        ]
      },
      "properties": {
        "location_name": "Arjawinangun",
        "slug": "arjawinangun",
        "date": "Jumat, 2 Oktober 2026",
        "date_iso": "2026-10-02",
        "relative": "Hari ini",
        "hour": "03:00",
        "rain_probability": 80.0,
        "risk_score": 80,
        "risk_class": "danger",
        "risk_label": "Berpotensi signifikan",
        "condition": "Cerah Berawan",
        "temp_c": 25.3,
        "humidity_pct": 80.0,
        "heat_index_c": 25.3,
        "wind_kmh": 2.9,
        "wind_dir": 176.0,
        "cloud_pct": 73.0
      }
    },
    {
      "type": "Feature",
      "geometry": {
        "type": "Point",
        "coordinates": [
          108.4103,
          -6.6453
        ]
      },
      "properties": {
        "location_name": "Arjawinangun",
        "slug": "arjawinangun",
        "date": "Jumat, 2 Oktober 2026",
        "date_iso": "2026-10-02",
        "relative": "Hari ini",
        "hour": "04:00",
        "rain_probability": 60.0,
        "risk_score": 60,
        "risk_class": "rain",
        "risk_label": "Waspada",
        "condition": "Cerah Berawan",
        "temp_c": 25.1,
        "humidity_pct": 80.0,
        "heat_index_c": 25.1,
        "wind_kmh": 3.3,
        "wind_dir": 179.0,
        "cloud_pct": 76.0
      }
    },
    {
      "type": "Feature",
      "geometry": {
        "type": "Point",
        "coordinates": [
          108.4103,
          -6.6453
        ]
      },
      "properties": {
        "location_name": "Arjawinangun",
        "slug": "arjawinangun",
        "date": "Jumat, 2 Oktober 2026",
        "date_iso": "2026-10-02",
        "relative": "Hari ini",
        "hour": "05:00",
        "rain_probability": 40.0,
        "risk_score": 40,
        "risk_class": "watch",
        "risk_label": "Perlu diperhatikan",
        "condition": "Cerah Berawan",
        "temp_c": 25.1,
        "humidity_pct": 78.0,
        "heat_index_c": 25.1,
        "wind_kmh": 3.6,
        "wind_dir": 181.0,
        "cloud_pct": 71.0
      }
    },
    {
      "type": "Feature",
      "geometry": {
        "type": "Point",
        "coordinates": [
          108.4103,
          -6.6453
        ]
      },
      "properties": {
        "location_name": "Arjawinangun",
        "slug": "arjawinangun",
        "date": "Jumat, 2 Oktober 2026",
        "date_iso": "2026-10-02",
        "relative": "Hari ini",
        "hour": "06:00",
        "rain_probability": 20.0,
        "risk_score": 20,
        "risk_class": "safe",
        "risk_label": "Aman",
        "condition": "Cerah Berawan",
        "temp_c": 25.6,
        "humidity_pct": 71.0,
        "heat_index_c": 25.6,
        "wind_kmh": 3.6,
        "wind_dir": 182.0,
        "cloud_pct": 64.0
      }
    },
    {
      "type": "Feature",
      "geometry": {
        "type": "Point",
        "coordinates": [
          108.4103,
          -6.6453
        ]
      },
      "properties": {
        "location_name": "Arjawinangun",
        "slug": "arjawinangun",
        "date": "Jumat, 2 Oktober 2026",
        "date_iso": "2026-10-02",
        "relative": "Hari ini",
        "hour": "07:00",
        "rain_probability": null,
        "risk_score": 14,
        "risk_class": "safe",
        "risk_label": "Aman",
        "condition": "Cerah Berawan",
        "temp_c": 27.9,
        "humidity_pct": 64.0,
        "heat_index_c": 28.73,
        "wind_kmh": 3.9,
        "wind_dir": 174.0,
        "cloud_pct": 36.0
      }
    },
    {
      "type": "Feature",
      "geometry": {
        "type": "Point",
        "coordinates": [
          108.4103,
          -6.6453
        ]
      },
      "properties": {
        "location_name": "Arjawinangun",
        "slug": "arjawinangun",
        "date": "Jumat, 2 Oktober 2026",
        "date_iso": "2026-10-02",
        "relative": "Hari ini",
        "hour": "08:00",
        "rain_probability": null,
        "risk_score": 13,
        "risk_class": "safe",
        "risk_label": "Aman",
        "condition": "Cerah Berawan",
        "temp_c": 29.7,
        "humidity_pct": 57.0,
        "heat_index_c": 31.67,
        "wind_kmh": 4.3,
        "wind_dir": 148.0,
        "cloud_pct": 31.0
      }
    },
    {
      "type": "Feature",
      "geometry": {
        "type": "Point",
        "coordinates": [
          108.4103,
          -6.6453
        ]
      },
      "properties": {
        "location_name": "Arjawinangun",
        "slug": "arjawinangun",
        "date": "Jumat, 2 Oktober 2026",
        "date_iso": "2026-10-02",
        "relative": "Hari ini",
        "hour": "09:00",
        "rain_probability": null,
        "risk_score": 24,
        "risk_class": "safe",
        "risk_label": "Aman",
        "condition": "Cerah Berawan",
        "temp_c": 31.8,
        "humidity_pct": 50.0,
        "heat_index_c": 33.62,
        "wind_kmh": 5.9,
        "wind_dir": 119.0,
        "cloud_pct": 25.0
      }
    },
    {
      "type": "Feature",
      "geometry": {
        "type": "Point",
        "coordinates": [
          108.4103,
          -6.6453
        ]
      },
      "properties": {
        "location_name": "Arjawinangun",
        "slug": "arjawinangun",
        "date": "Jumat, 2 Oktober 2026",
        "date_iso": "2026-10-02",
        "relative": "Hari ini",
        "hour": "10:00",
        "rain_probability": null,
        "risk_score": 38,
        "risk_class": "watch",
        "risk_label": "Perlu diperhatikan",
        "condition": "Cerah Berawan",
        "temp_c": 33.5,
        "humidity_pct": 45.0,
        "heat_index_c": 35.67,
        "wind_kmh": 9.1,
        "wind_dir": 99.0,
        "cloud_pct": 10.0
      }
    },
    {
      "type": "Feature",
      "geometry": {
        "type": "Point",
        "coordinates": [
          108.4103,
          -6.6453
        ]
      },
      "properties": {
        "location_name": "Arjawinangun",
        "slug": "arjawinangun",
        "date": "Jumat, 2 Oktober 2026",
        "date_iso": "2026-10-02",
        "relative": "Hari ini",
        "hour": "11:00",
        "rain_probability": 1.0,
        "risk_score": 52,
        "risk_class": "watch",
        "risk_label": "Perlu diperhatikan",
        "condition": "Cerah Berawan",
        "temp_c": 34.7,
        "humidity_pct": 43.0,
        "heat_index_c": 36.79,
        "wind_kmh": 12.3,
        "wind_dir": 86.0,
        "cloud_pct": 11.0
      }
    },
    {
      "type": "Feature",
      "geometry": {
        "type": "Point",
        "coordinates": [
          108.4103,
          -6.6453
        ]
      },
      "properties": {
        "location_name": "Arjawinangun",
        "slug": "arjawinangun",
        "date": "Jumat, 2 Oktober 2026",
        "date_iso": "2026-10-02",
        "relative": "Hari ini",
        "hour": "12:00",
        "rain_probability": 9.6,
        "risk_score": 52,
        "risk_class": "watch",
        "risk_label": "Perlu diperhatikan",
        "condition": "Cerah Berawan",
        "temp_c": 35.2,
        "humidity_pct": 44.0,
        "heat_index_c": 37.68,
        "wind_kmh": 14.5,
        "wind_dir": 74.0,
        "cloud_pct": 39.0
      }
    },
    {
      "type": "Feature",
      "geometry": {
        "type": "Point",
        "coordinates": [
          108.4103,
          -6.6453
        ]
      },
      "properties": {
        "location_name": "Arjawinangun",
        "slug": "arjawinangun",
        "date": "Jumat, 2 Oktober 2026",
        "date_iso": "2026-10-02",
        "relative": "Hari ini",
        "hour": "13:00",
        "rain_probability": 5.5,
        "risk_score": 65,
        "risk_class": "rain",
        "risk_label": "Waspada",
        "condition": "Cerah Berawan",
        "temp_c": 34.5,
        "humidity_pct": 45.0,
        "heat_index_c": 38.12,
        "wind_kmh": 17.6,
        "wind_dir": 66.0,
        "cloud_pct": 41.0
      }
    },
    {
      "type": "Feature",
      "geometry": {
        "type": "Point",
        "coordinates": [
          108.4103,
          -6.6453
        ]
      },
      "properties": {
        "location_name": "Arjawinangun",
        "slug": "arjawinangun",
        "date": "Jumat, 2 Oktober 2026",
        "date_iso": "2026-10-02",
        "relative": "Hari ini",
        "hour": "14:00",
        "rain_probability": 22.6,
        "risk_score": 52,
        "risk_class": "watch",
        "risk_label": "Perlu diperhatikan",
        "condition": "Hujan Ringan",
        "temp_c": 33.8,
        "humidity_pct": 45.0,
        "heat_index_c": 37.63,
        "wind_kmh": 19.8,
        "wind_dir": 62.0,
        "cloud_pct": 40.0
      }
    },
    {
      "type": "Feature",
      "geometry": {
        "type": "Point",
        "coordinates": [
          108.4103,
          -6.6453
        ]
      },
      "properties": {
        "location_name": "Arjawinangun",
        "slug": "arjawinangun",
        "date": "Jumat, 2 Oktober 2026",
        "date_iso": "2026-10-02",
        "relative": "Hari ini",
        "hour": "15:00",
        "rain_probability": 16.6,
        "risk_score": 52,
        "risk_class": "watch",
        "risk_label": "Perlu diperhatikan",
        "condition": "Cerah Berawan",
        "temp_c": 32.5,
        "humidity_pct": 52.0,
        "heat_index_c": 36.41,
        "wind_kmh": 17.3,
        "wind_dir": 62.0,
        "cloud_pct": 39.0
      }
    },
    {
      "type": "Feature",
      "geometry": {
        "type": "Point",
        "coordinates": [
          108.4103,
          -6.6453
        ]
      },
      "properties": {
        "location_name": "Arjawinangun",
        "slug": "arjawinangun",
        "date": "Jumat, 2 Oktober 2026",
        "date_iso": "2026-10-02",
        "relative": "Hari ini",
        "hour": "16:00",
        "rain_probability": 17.5,
        "risk_score": 38,
        "risk_class": "watch",
        "risk_label": "Perlu diperhatikan",
        "condition": "Cerah Berawan",
        "temp_c": 31.6,
        "humidity_pct": 54.0,
        "heat_index_c": 35.23,
        "wind_kmh": 17.28,
        "wind_dir": 66.0,
        "cloud_pct": 69.0
      }
    },
    {
      "type": "Feature",
      "geometry": {
        "type": "Point",
        "coordinates": [
          108.4103,
          -6.6453
        ]
      },
      "properties": {
        "location_name": "Arjawinangun",
        "slug": "arjawinangun",
        "date": "Jumat, 2 Oktober 2026",
        "date_iso": "2026-10-02",
        "relative": "Hari ini",
        "hour": "17:00",
        "rain_probability": 8.4,
        "risk_score": 38,
        "risk_class": "watch",
        "risk_label": "Perlu diperhatikan",
        "condition": "Cerah Berawan",
        "temp_c": 30.7,
        "humidity_pct": 59.0,
        "heat_index_c": 34.24,
        "wind_kmh": 13.7,
        "wind_dir": 73.0,
        "cloud_pct": 40.0
      }
    },
    {
      "type": "Feature",
      "geometry": {
        "type": "Point",
        "coordinates": [
          108.4103,
          -6.6453
        ]
      },
      "properties": {
        "location_name": "Arjawinangun",
        "slug": "arjawinangun",
        "date": "Jumat, 2 Oktober 2026",
        "date_iso": "2026-10-02",
        "relative": "Hari ini",
        "hour": "18:00",
        "rain_probability": 6.3,
        "risk_score": 24,
        "risk_class": "safe",
        "risk_label": "Aman",
        "condition": "Cerah Berawan",
        "temp_c": 29.6,
        "humidity_pct": 67.0,
        "heat_index_c": 33.14,
        "wind_kmh": 10.0,
        "wind_dir": 88.0,
        "cloud_pct": 58.0
      }
    },
    {
      "type": "Feature",
      "geometry": {
        "type": "Point",
        "coordinates": [
          108.4103,
          -6.6453
        ]
      },
      "properties": {
        "location_name": "Arjawinangun",
        "slug": "arjawinangun",
        "date": "Jumat, 2 Oktober 2026",
        "date_iso": "2026-10-02",
        "relative": "Hari ini",
        "hour": "19:00",
        "rain_probability": 11.6,
        "risk_score": 24,
        "risk_class": "safe",
        "risk_label": "Aman",
        "condition": "Cerah Berawan",
        "temp_c": 29.0,
        "humidity_pct": 70.0,
        "heat_index_c": 32.65,
        "wind_kmh": 9.1,
        "wind_dir": 106.0,
        "cloud_pct": 69.0
      }
    },
    {
      "type": "Feature",
      "geometry": {
        "type": "Point",
        "coordinates": [
          108.4103,
          -6.6453
        ]
      },
      "properties": {
        "location_name": "Arjawinangun",
        "slug": "arjawinangun",
        "date": "Jumat, 2 Oktober 2026",
        "date_iso": "2026-10-02",
        "relative": "Hari ini",
        "hour": "20:00",
        "rain_probability": 11.0,
        "risk_score": 24,
        "risk_class": "safe",
        "risk_label": "Aman",
        "condition": "Cerah Berawan",
        "temp_c": 28.7,
        "humidity_pct": 70.0,
        "heat_index_c": 32.51,
        "wind_kmh": 7.2,
        "wind_dir": 118.0,
        "cloud_pct": 73.0
      }
    },
    {
      "type": "Feature",
      "geometry": {
        "type": "Point",
        "coordinates": [
          108.4103,
          -6.6453
        ]
      },
      "properties": {
        "location_name": "Arjawinangun",
        "slug": "arjawinangun",
        "date": "Jumat, 2 Oktober 2026",
        "date_iso": "2026-10-02",
        "relative": "Hari ini",
        "hour": "21:00",
        "rain_probability": 8.5,
        "risk_score": 22,
        "risk_class": "safe",
        "risk_label": "Aman",
        "condition": "Cerah Berawan",
        "temp_c": 27.4,
        "humidity_pct": 76.0,
        "heat_index_c": 30.3,
        "wind_kmh": 8.0,
        "wind_dir": 126.0,
        "cloud_pct": 78.0
      }
    },
    {
      "type": "Feature",
      "geometry": {
        "type": "Point",
        "coordinates": [
          108.4103,
          -6.6453
        ]
      },
      "properties": {
        "location_name": "Arjawinangun",
        "slug": "arjawinangun",
        "date": "Jumat, 2 Oktober 2026",
        "date_iso": "2026-10-02",
        "relative": "Hari ini",
        "hour": "22:00",
        "rain_probability": 2.7,
        "risk_score": 19,
        "risk_class": "safe",
        "risk_label": "Aman",
        "condition": "Cerah Berawan",
        "temp_c": 27.9,
        "humidity_pct": 73.0,
        "heat_index_c": 30.35,
        "wind_kmh": 7.4,
        "wind_dir": 141.0,
        "cloud_pct": 60.0
      }
    },
    {
      "type": "Feature",
      "geometry": {
        "type": "Point",
        "coordinates": [
          108.4103,
          -6.6453
        ]
      },
      "properties": {
        "location_name": "Arjawinangun",
        "slug": "arjawinangun",
        "date": "Jumat, 2 Oktober 2026",
        "date_iso": "2026-10-02",
        "relative": "Hari ini",
        "hour": "23:00",
        "rain_probability": 1.5,
        "risk_score": 18,
        "risk_class": "safe",
        "risk_label": "Aman",
        "condition": "Cerah Berawan",
        "temp_c": 27.3,
        "humidity_pct": 73.0,
        "heat_index_c": 29.35,
        "wind_kmh": 6.4,
        "wind_dir": 153.0,
        "cloud_pct": 72.0
      }
    },
    {
      "type": "Feature",
      "geometry": {
        "type": "Point",
        "coordinates": [
          108.4103,
          -6.6453
        ]
      },
      "properties": {
        "location_name": "Arjawinangun",
        "slug": "arjawinangun",
        "date": "Sabtu, 3 Oktober 2026",
        "date_iso": "2026-10-03",
        "relative": "Besok",
        "hour": "00:00",
        "rain_probability": 2.5,
        "risk_score": 18,
        "risk_class": "safe",
        "risk_label": "Aman",
        "condition": "Berawan",
        "temp_c": 26.1,
        "humidity_pct": 73.0,
        "heat_index_c": 26.1,
        "wind_kmh": 5.5,
        "wind_dir": 152.0,
        "cloud_pct": 72.0
      }
    },
    {
      "type": "Feature",
      "geometry": {
        "type": "Point",
        "coordinates": [
          108.4103,
          -6.6453
        ]
      },
      "properties": {
        "location_name": "Arjawinangun",
        "slug": "arjawinangun",
        "date": "Sabtu, 3 Oktober 2026",
        "date_iso": "2026-10-03",
        "relative": "Besok",
        "hour": "01:00",
        "rain_probability": 1.0,
        "risk_score": 17,
        "risk_class": "safe",
        "risk_label": "Aman",
        "condition": "Cerah Berawan",
        "temp_c": 26.6,
        "humidity_pct": 73.0,
        "heat_index_c": 26.6,
        "wind_kmh": 6.5,
        "wind_dir": 160.0,
        "cloud_pct": 46.0
      }
    },
    {
      "type": "Feature",
      "geometry": {
        "type": "Point",
        "coordinates": [
          108.4103,
          -6.6453
        ]
      },
      "properties": {
        "location_name": "Arjawinangun",
        "slug": "arjawinangun",
        "date": "Sabtu, 3 Oktober 2026",
        "date_iso": "2026-10-03",
        "relative": "Besok",
        "hour": "02:00",
        "rain_probability": 50.0,
        "risk_score": 50,
        "risk_class": "watch",
        "risk_label": "Perlu diperhatikan",
        "condition": "Berawan",
        "temp_c": 26.4,
        "humidity_pct": 73.0,
        "heat_index_c": 26.4,
        "wind_kmh": 4.5,
        "wind_dir": 161.0,
        "cloud_pct": 12.0
      }
    },
    {
      "type": "Feature",
      "geometry": {
        "type": "Point",
        "coordinates": [
          108.4103,
          -6.6453
        ]
      },
      "properties": {
        "location_name": "Arjawinangun",
        "slug": "arjawinangun",
        "date": "Sabtu, 3 Oktober 2026",
        "date_iso": "2026-10-03",
        "relative": "Besok",
        "hour": "03:00",
        "rain_probability": 50.0,
        "risk_score": 50,
        "risk_class": "watch",
        "risk_label": "Perlu diperhatikan",
        "condition": "Berawan",
        "temp_c": 25.1,
        "humidity_pct": 76.0,
        "heat_index_c": 25.1,
        "wind_kmh": 4.0,
        "wind_dir": 160.0,
        "cloud_pct": 11.0
      }
    },
    {
      "type": "Feature",
      "geometry": {
        "type": "Point",
        "coordinates": [
          108.4103,
          -6.6453
        ]
      },
      "properties": {
        "location_name": "Arjawinangun",
        "slug": "arjawinangun",
        "date": "Sabtu, 3 Oktober 2026",
        "date_iso": "2026-10-03",
        "relative": "Besok",
        "hour": "04:00",
        "rain_probability": 50.0,
        "risk_score": 50,
        "risk_class": "watch",
        "risk_label": "Perlu diperhatikan",
        "condition": "Cerah Berawan",
        "temp_c": 25.8,
        "humidity_pct": 73.0,
        "heat_index_c": 25.8,
        "wind_kmh": 5.8,
        "wind_dir": 155.0,
        "cloud_pct": 27.0
      }
    },
    {
      "type": "Feature",
      "geometry": {
        "type": "Point",
        "coordinates": [
          108.4103,
          -6.6453
        ]
      },
      "properties": {
        "location_name": "Arjawinangun",
        "slug": "arjawinangun",
        "date": "Sabtu, 3 Oktober 2026",
        "date_iso": "2026-10-03",
        "relative": "Besok",
        "hour": "05:00",
        "rain_probability": 50.0,
        "risk_score": 50,
        "risk_class": "watch",
        "risk_label": "Perlu diperhatikan",
        "condition": "Berawan",
        "temp_c": 25.9,
        "humidity_pct": 75.0,
        "heat_index_c": 25.9,
        "wind_kmh": 6.5,
        "wind_dir": 156.0,
        "cloud_pct": 81.0
      }
    },
    {
      "type": "Feature",
      "geometry": {
        "type": "Point",
        "coordinates": [
          108.4103,
          -6.6453
        ]
      },
      "properties": {
        "location_name": "Arjawinangun",
        "slug": "arjawinangun",
        "date": "Sabtu, 3 Oktober 2026",
        "date_iso": "2026-10-03",
        "relative": "Besok",
        "hour": "06:00",
        "rain_probability": null,
        "risk_score": 16,
        "risk_class": "safe",
        "risk_label": "Aman",
        "condition": "Berawan",
        "temp_c": 26.0,
        "humidity_pct": 73.0,
        "heat_index_c": 26.0,
        "wind_kmh": 5.0,
        "wind_dir": 152.0,
        "cloud_pct": 91.0
      }
    },
    {
      "type": "Feature",
      "geometry": {
        "type": "Point",
        "coordinates": [
          108.4103,
          -6.6453
        ]
      },
      "properties": {
        "location_name": "Arjawinangun",
        "slug": "arjawinangun",
        "date": "Sabtu, 3 Oktober 2026",
        "date_iso": "2026-10-03",
        "relative": "Besok",
        "hour": "07:00",
        "rain_probability": null,
        "risk_score": 15,
        "risk_class": "safe",
        "risk_label": "Aman",
        "condition": "Berawan",
        "temp_c": 27.6,
        "humidity_pct": 66.0,
        "heat_index_c": 29.33,
        "wind_kmh": 3.4,
        "wind_dir": 147.0,
        "cloud_pct": 83.0
      }
    },
    {
      "type": "Feature",
      "geometry": {
        "type": "Point",
        "coordinates": [
          108.4103,
          -6.6453
        ]
      },
      "properties": {
        "location_name": "Arjawinangun",
        "slug": "arjawinangun",
        "date": "Sabtu, 3 Oktober 2026",
        "date_iso": "2026-10-03",
        "relative": "Besok",
        "hour": "08:00",
        "rain_probability": null,
        "risk_score": 14,
        "risk_class": "safe",
        "risk_label": "Aman",
        "condition": "Cerah Berawan",
        "temp_c": 29.7,
        "humidity_pct": 57.0,
        "heat_index_c": 31.92,
        "wind_kmh": 6.5,
        "wind_dir": 156.0,
        "cloud_pct": 67.0
      }
    },
    {
      "type": "Feature",
      "geometry": {
        "type": "Point",
        "coordinates": [
          108.4103,
          -6.6453
        ]
      },
      "properties": {
        "location_name": "Arjawinangun",
        "slug": "arjawinangun",
        "date": "Sabtu, 3 Oktober 2026",
        "date_iso": "2026-10-03",
        "relative": "Besok",
        "hour": "09:00",
        "rain_probability": null,
        "risk_score": 38,
        "risk_class": "watch",
        "risk_label": "Perlu diperhatikan",
        "condition": "Cerah Berawan",
        "temp_c": 32.6,
        "humidity_pct": 47.0,
        "heat_index_c": 34.28,
        "wind_kmh": 7.0,
        "wind_dir": 135.0,
        "cloud_pct": 57.0
      }
    },
    {
      "type": "Feature",
      "geometry": {
        "type": "Point",
        "coordinates": [
          108.4103,
          -6.6453
        ]
      },
      "properties": {
        "location_name": "Arjawinangun",
        "slug": "arjawinangun",
        "date": "Sabtu, 3 Oktober 2026",
        "date_iso": "2026-10-03",
        "relative": "Besok",
        "hour": "10:00",
        "rain_probability": 50.0,
        "risk_score": 50,
        "risk_class": "watch",
        "risk_label": "Perlu diperhatikan",
        "condition": "Cerah Berawan",
        "temp_c": 33.4,
        "humidity_pct": 41.0,
        "heat_index_c": 34.7,
        "wind_kmh": 10.2,
        "wind_dir": 113.0,
        "cloud_pct": 49.0
      }
    },
    {
      "type": "Feature",
      "geometry": {
        "type": "Point",
        "coordinates": [
          108.4103,
          -6.6453
        ]
      },
      "properties": {
        "location_name": "Arjawinangun",
        "slug": "arjawinangun",
        "date": "Sabtu, 3 Oktober 2026",
        "date_iso": "2026-10-03",
        "relative": "Besok",
        "hour": "11:00",
        "rain_probability": 1.0,
        "risk_score": 38,
        "risk_class": "watch",
        "risk_label": "Perlu diperhatikan",
        "condition": "Cerah Berawan",
        "temp_c": 34.7,
        "humidity_pct": 39.0,
        "heat_index_c": 35.5,
        "wind_kmh": 13.6,
        "wind_dir": 96.0,
        "cloud_pct": 39.0
      }
    },
    {
      "type": "Feature",
      "geometry": {
        "type": "Point",
        "coordinates": [
          108.4103,
          -6.6453
        ]
      },
      "properties": {
        "location_name": "Arjawinangun",
        "slug": "arjawinangun",
        "date": "Sabtu, 3 Oktober 2026",
        "date_iso": "2026-10-03",
        "relative": "Besok",
        "hour": "12:00",
        "rain_probability": 2.0,
        "risk_score": 38,
        "risk_class": "watch",
        "risk_label": "Perlu diperhatikan",
        "condition": "Cerah Berawan",
        "temp_c": 34.2,
        "humidity_pct": 35.0,
        "heat_index_c": 35.42,
        "wind_kmh": 15.2,
        "wind_dir": 87.0,
        "cloud_pct": 39.0
      }
    },
    {
      "type": "Feature",
      "geometry": {
        "type": "Point",
        "coordinates": [
          108.4103,
          -6.6453
        ]
      },
      "properties": {
        "location_name": "Arjawinangun",
        "slug": "arjawinangun",
        "date": "Sabtu, 3 Oktober 2026",
        "date_iso": "2026-10-03",
        "relative": "Besok",
        "hour": "13:00",
        "rain_probability": 3.5,
        "risk_score": 38,
        "risk_class": "watch",
        "risk_label": "Perlu diperhatikan",
        "condition": "Cerah Berawan",
        "temp_c": 35.5,
        "humidity_pct": 38.0,
        "heat_index_c": 35.69,
        "wind_kmh": 17.6,
        "wind_dir": 77.0,
        "cloud_pct": 36.0
      }
    },
    {
      "type": "Feature",
      "geometry": {
        "type": "Point",
        "coordinates": [
          108.4103,
          -6.6453
        ]
      },
      "properties": {
        "location_name": "Arjawinangun",
        "slug": "arjawinangun",
        "date": "Sabtu, 3 Oktober 2026",
        "date_iso": "2026-10-03",
        "relative": "Besok",
        "hour": "14:00",
        "rain_probability": 3.8,
        "risk_score": 38,
        "risk_class": "watch",
        "risk_label": "Perlu diperhatikan",
        "condition": "Cerah Berawan",
        "temp_c": 34.8,
        "humidity_pct": 37.0,
        "heat_index_c": 34.97,
        "wind_kmh": 20.5,
        "wind_dir": 69.0,
        "cloud_pct": 18.0
      }
    },
    {
      "type": "Feature",
      "geometry": {
        "type": "Point",
        "coordinates": [
          108.4103,
          -6.6453
        ]
      },
      "properties": {
        "location_name": "Arjawinangun",
        "slug": "arjawinangun",
        "date": "Sabtu, 3 Oktober 2026",
        "date_iso": "2026-10-03",
        "relative": "Besok",
        "hour": "15:00",
        "rain_probability": 5.8,
        "risk_score": 38,
        "risk_class": "watch",
        "risk_label": "Perlu diperhatikan",
        "condition": "Cerah Berawan",
        "temp_c": 33.1,
        "humidity_pct": 41.0,
        "heat_index_c": 34.0,
        "wind_kmh": 16.2,
        "wind_dir": 64.0,
        "cloud_pct": 21.0
      }
    },
    {
      "type": "Feature",
      "geometry": {
        "type": "Point",
        "coordinates": [
          108.4103,
          -6.6453
        ]
      },
      "properties": {
        "location_name": "Arjawinangun",
        "slug": "arjawinangun",
        "date": "Sabtu, 3 Oktober 2026",
        "date_iso": "2026-10-03",
        "relative": "Besok",
        "hour": "16:00",
        "rain_probability": 6.2,
        "risk_score": 38,
        "risk_class": "watch",
        "risk_label": "Perlu diperhatikan",
        "condition": "Cerah Berawan",
        "temp_c": 32.5,
        "humidity_pct": 44.0,
        "heat_index_c": 34.0,
        "wind_kmh": 16.4,
        "wind_dir": 65.0,
        "cloud_pct": 45.0
      }
    },
    {
      "type": "Feature",
      "geometry": {
        "type": "Point",
        "coordinates": [
          108.4103,
          -6.6453
        ]
      },
      "properties": {
        "location_name": "Arjawinangun",
        "slug": "arjawinangun",
        "date": "Sabtu, 3 Oktober 2026",
        "date_iso": "2026-10-03",
        "relative": "Besok",
        "hour": "17:00",
        "rain_probability": 5.5,
        "risk_score": 24,
        "risk_class": "safe",
        "risk_label": "Aman",
        "condition": "Berawan",
        "temp_c": 30.3,
        "humidity_pct": 56.0,
        "heat_index_c": 32.4,
        "wind_kmh": 12.1,
        "wind_dir": 70.0,
        "cloud_pct": 77.0
      }
    },
    {
      "type": "Feature",
      "geometry": {
        "type": "Point",
        "coordinates": [
          108.4103,
          -6.6453
        ]
      },
      "properties": {
        "location_name": "Arjawinangun",
        "slug": "arjawinangun",
        "date": "Sabtu, 3 Oktober 2026",
        "date_iso": "2026-10-03",
        "relative": "Besok",
        "hour": "18:00",
        "rain_probability": 5.1,
        "risk_score": 17,
        "risk_class": "safe",
        "risk_label": "Aman",
        "condition": "Berawan",
        "temp_c": 29.3,
        "humidity_pct": 64.0,
        "heat_index_c": 31.89,
        "wind_kmh": 9.1,
        "wind_dir": 77.0,
        "cloud_pct": 89.0
      }
    },
    {
      "type": "Feature",
      "geometry": {
        "type": "Point",
        "coordinates": [
          108.4103,
          -6.6453
        ]
      },
      "properties": {
        "location_name": "Arjawinangun",
        "slug": "arjawinangun",
        "date": "Sabtu, 3 Oktober 2026",
        "date_iso": "2026-10-03",
        "relative": "Besok",
        "hour": "19:00",
        "rain_probability": 10.7,
        "risk_score": 22,
        "risk_class": "safe",
        "risk_label": "Aman",
        "condition": "Berawan",
        "temp_c": 28.9,
        "humidity_pct": 68.0,
        "heat_index_c": 31.51,
        "wind_kmh": 8.1,
        "wind_dir": 86.0,
        "cloud_pct": 78.0
      }
    },
    {
      "type": "Feature",
      "geometry": {
        "type": "Point",
        "coordinates": [
          108.4103,
          -6.6453
        ]
      },
      "properties": {
        "location_name": "Arjawinangun",
        "slug": "arjawinangun",
        "date": "Sabtu, 3 Oktober 2026",
        "date_iso": "2026-10-03",
        "relative": "Besok",
        "hour": "20:00",
        "rain_probability": 3.6,
        "risk_score": 19,
        "risk_class": "safe",
        "risk_label": "Aman",
        "condition": "Berawan",
        "temp_c": 28.2,
        "humidity_pct": 71.0,
        "heat_index_c": 31.2,
        "wind_kmh": 5.8,
        "wind_dir": 95.0,
        "cloud_pct": 76.0
      }
    },
    {
      "type": "Feature",
      "geometry": {
        "type": "Point",
        "coordinates": [
          108.4103,
          -6.6453
        ]
      },
      "properties": {
        "location_name": "Arjawinangun",
        "slug": "arjawinangun",
        "date": "Sabtu, 3 Oktober 2026",
        "date_iso": "2026-10-03",
        "relative": "Besok",
        "hour": "21:00",
        "rain_probability": 7.5,
        "risk_score": 19,
        "risk_class": "safe",
        "risk_label": "Aman",
        "condition": "Cerah Berawan",
        "temp_c": 28.0,
        "humidity_pct": 72.0,
        "heat_index_c": 30.94,
        "wind_kmh": 4.1,
        "wind_dir": 114.0,
        "cloud_pct": 40.0
      }
    },
    {
      "type": "Feature",
      "geometry": {
        "type": "Point",
        "coordinates": [
          108.4103,
          -6.6453
        ]
      },
      "properties": {
        "location_name": "Arjawinangun",
        "slug": "arjawinangun",
        "date": "Sabtu, 3 Oktober 2026",
        "date_iso": "2026-10-03",
        "relative": "Besok",
        "hour": "22:00",
        "rain_probability": 2.3,
        "risk_score": 17,
        "risk_class": "safe",
        "risk_label": "Aman",
        "condition": "Cerah Berawan",
        "temp_c": 27.6,
        "humidity_pct": 71.0,
        "heat_index_c": 30.87,
        "wind_kmh": 5.4,
        "wind_dir": 124.0,
        "cloud_pct": 47.0
      }
    },
    {
      "type": "Feature",
      "geometry": {
        "type": "Point",
        "coordinates": [
          108.4103,
          -6.6453
        ]
      },
      "properties": {
        "location_name": "Arjawinangun",
        "slug": "arjawinangun",
        "date": "Sabtu, 3 Oktober 2026",
        "date_iso": "2026-10-03",
        "relative": "Besok",
        "hour": "23:00",
        "rain_probability": 80.0,
        "risk_score": 80,
        "risk_class": "danger",
        "risk_label": "Berpotensi signifikan",
        "condition": "Cerah Berawan",
        "temp_c": 27.0,
        "humidity_pct": 71.0,
        "heat_index_c": 29.25,
        "wind_kmh": 4.7,
        "wind_dir": 128.0,
        "cloud_pct": 18.0
      }
    },
    {
      "type": "Feature",
      "geometry": {
        "type": "Point",
        "coordinates": [
          108.4103,
          -6.6453
        ]
      },
      "properties": {
        "location_name": "Arjawinangun",
        "slug": "arjawinangun",
        "date": "Minggu, 4 Oktober 2026",
        "date_iso": "2026-10-04",
        "relative": "Lusa",
        "hour": "00:00",
        "rain_probability": 50.0,
        "risk_score": 50,
        "risk_class": "watch",
        "risk_label": "Perlu diperhatikan",
        "condition": "Cerah Berawan",
        "temp_c": 26.2,
        "humidity_pct": 76.0,
        "heat_index_c": 26.2,
        "wind_kmh": 4.7,
        "wind_dir": 146.0,
        "cloud_pct": 58.0
      }
    },
    {
      "type": "Feature",
      "geometry": {
        "type": "Point",
        "coordinates": [
          108.4103,
          -6.6453
        ]
      },
      "properties": {
        "location_name": "Arjawinangun",
        "slug": "arjawinangun",
        "date": "Minggu, 4 Oktober 2026",
        "date_iso": "2026-10-04",
        "relative": "Lusa",
        "hour": "01:00",
        "rain_probability": null,
        "risk_score": 17,
        "risk_class": "safe",
        "risk_label": "Aman",
        "condition": "Cerah Berawan",
        "temp_c": 26.0,
        "humidity_pct": 76.0,
        "heat_index_c": 26.0,
        "wind_kmh": 5.0,
        "wind_dir": 149.0,
        "cloud_pct": 57.0
      }
    },
    {
      "type": "Feature",
      "geometry": {
        "type": "Point",
        "coordinates": [
          108.4103,
          -6.6453
        ]
      },
      "properties": {
        "location_name": "Arjawinangun",
        "slug": "arjawinangun",
        "date": "Minggu, 4 Oktober 2026",
        "date_iso": "2026-10-04",
        "relative": "Lusa",
        "hour": "02:00",
        "rain_probability": null,
        "risk_score": 18,
        "risk_class": "safe",
        "risk_label": "Aman",
        "condition": "Berawan",
        "temp_c": 25.6,
        "humidity_pct": 76.0,
        "heat_index_c": 25.6,
        "wind_kmh": 4.0,
        "wind_dir": 153.0,
        "cloud_pct": 65.0
      }
    },
    {
      "type": "Feature",
      "geometry": {
        "type": "Point",
        "coordinates": [
          108.4103,
          -6.6453
        ]
      },
      "properties": {
        "location_name": "Arjawinangun",
        "slug": "arjawinangun",
        "date": "Minggu, 4 Oktober 2026",
        "date_iso": "2026-10-04",
        "relative": "Lusa",
        "hour": "03:00",
        "rain_probability": null,
        "risk_score": 18,
        "risk_class": "safe",
        "risk_label": "Aman",
        "condition": "Cerah Berawan",
        "temp_c": 25.0,
        "humidity_pct": 79.0,
        "heat_index_c": 25.0,
        "wind_kmh": 3.96,
        "wind_dir": 152.0,
        "cloud_pct": 69.0
      }
    },
    {
      "type": "Feature",
      "geometry": {
        "type": "Point",
        "coordinates": [
          108.4103,
          -6.6453
        ]
      },
      "properties": {
        "location_name": "Arjawinangun",
        "slug": "arjawinangun",
        "date": "Minggu, 4 Oktober 2026",
        "date_iso": "2026-10-04",
        "relative": "Lusa",
        "hour": "04:00",
        "rain_probability": null,
        "risk_score": 17,
        "risk_class": "safe",
        "risk_label": "Aman",
        "condition": "Berawan",
        "temp_c": 25.0,
        "humidity_pct": 77.0,
        "heat_index_c": 25.0,
        "wind_kmh": 3.5,
        "wind_dir": 163.0,
        "cloud_pct": 88.0
      }
    },
    {
      "type": "Feature",
      "geometry": {
        "type": "Point",
        "coordinates": [
          108.4103,
          -6.6453
        ]
      },
      "properties": {
        "location_name": "Arjawinangun",
        "slug": "arjawinangun",
        "date": "Minggu, 4 Oktober 2026",
        "date_iso": "2026-10-04",
        "relative": "Lusa",
        "hour": "05:00",
        "rain_probability": null,
        "risk_score": 17,
        "risk_class": "safe",
        "risk_label": "Aman",
        "condition": "Berawan",
        "temp_c": 25.4,
        "humidity_pct": 75.0,
        "heat_index_c": 25.4,
        "wind_kmh": 4.3,
        "wind_dir": 173.0,
        "cloud_pct": 93.0
      }
    },
    {
      "type": "Feature",
      "geometry": {
        "type": "Point",
        "coordinates": [
          108.4103,
          -6.6453
        ]
      },
      "properties": {
        "location_name": "Arjawinangun",
        "slug": "arjawinangun",
        "date": "Minggu, 4 Oktober 2026",
        "date_iso": "2026-10-04",
        "relative": "Lusa",
        "hour": "06:00",
        "rain_probability": null,
        "risk_score": 15,
        "risk_class": "safe",
        "risk_label": "Aman",
        "condition": "Berawan",
        "temp_c": 25.9,
        "humidity_pct": 72.0,
        "heat_index_c": 25.9,
        "wind_kmh": 4.7,
        "wind_dir": 187.0,
        "cloud_pct": 96.0
      }
    },
    {
      "type": "Feature",
      "geometry": {
        "type": "Point",
        "coordinates": [
          108.4103,
          -6.6453
        ]
      },
      "properties": {
        "location_name": "Arjawinangun",
        "slug": "arjawinangun",
        "date": "Minggu, 4 Oktober 2026",
        "date_iso": "2026-10-04",
        "relative": "Lusa",
        "hour": "07:00",
        "rain_probability": null,
        "risk_score": 14,
        "risk_class": "safe",
        "risk_label": "Aman",
        "condition": "Berawan",
        "temp_c": 27.5,
        "humidity_pct": 65.9,
        "heat_index_c": 29.02,
        "wind_kmh": 5.3,
        "wind_dir": 187.0,
        "cloud_pct": 98.0
      }
    },
    {
      "type": "Feature",
      "geometry": {
        "type": "Point",
        "coordinates": [
          108.4103,
          -6.6453
        ]
      },
      "properties": {
        "location_name": "Arjawinangun",
        "slug": "arjawinangun",
        "date": "Minggu, 4 Oktober 2026",
        "date_iso": "2026-10-04",
        "relative": "Lusa",
        "hour": "08:00",
        "rain_probability": null,
        "risk_score": 14,
        "risk_class": "safe",
        "risk_label": "Aman",
        "condition": "Berawan",
        "temp_c": 29.9,
        "humidity_pct": 55.3,
        "heat_index_c": 31.73,
        "wind_kmh": 4.2,
        "wind_dir": 171.0,
        "cloud_pct": 98.0
      }
    },
    {
      "type": "Feature",
      "geometry": {
        "type": "Point",
        "coordinates": [
          108.4103,
          -6.6453
        ]
      },
      "properties": {
        "location_name": "Arjawinangun",
        "slug": "arjawinangun",
        "date": "Minggu, 4 Oktober 2026",
        "date_iso": "2026-10-04",
        "relative": "Lusa",
        "hour": "09:00",
        "rain_probability": null,
        "risk_score": 24,
        "risk_class": "safe",
        "risk_label": "Aman",
        "condition": "Berawan",
        "temp_c": 32.4,
        "humidity_pct": 45.4,
        "heat_index_c": 33.9,
        "wind_kmh": 5.1,
        "wind_dir": 130.0,
        "cloud_pct": 98.0
      }
    },
    {
      "type": "Feature",
      "geometry": {
        "type": "Point",
        "coordinates": [
          108.4103,
          -6.6453
        ]
      },
      "properties": {
        "location_name": "Arjawinangun",
        "slug": "arjawinangun",
        "date": "Minggu, 4 Oktober 2026",
        "date_iso": "2026-10-04",
        "relative": "Lusa",
        "hour": "10:00",
        "rain_probability": 70.0,
        "risk_score": 70,
        "risk_class": "rain",
        "risk_label": "Waspada",
        "condition": "Cerah Berawan",
        "temp_c": 34.0,
        "humidity_pct": 42.0,
        "heat_index_c": 34.3,
        "wind_kmh": 9.0,
        "wind_dir": 114.0,
        "cloud_pct": 97.0
      }
    },
    {
      "type": "Feature",
      "geometry": {
        "type": "Point",
        "coordinates": [
          108.4103,
          -6.6453
        ]
      },
      "properties": {
        "location_name": "Arjawinangun",
        "slug": "arjawinangun",
        "date": "Minggu, 4 Oktober 2026",
        "date_iso": "2026-10-04",
        "relative": "Lusa",
        "hour": "11:00",
        "rain_probability": 8.3,
        "risk_score": 38,
        "risk_class": "watch",
        "risk_label": "Perlu diperhatikan",
        "condition": "Berawan",
        "temp_c": 35.3,
        "humidity_pct": 38.0,
        "heat_index_c": 35.6,
        "wind_kmh": 12.8,
        "wind_dir": 102.0,
        "cloud_pct": 97.0
      }
    },
    {
      "type": "Feature",
      "geometry": {
        "type": "Point",
        "coordinates": [
          108.4103,
          -6.6453
        ]
      },
      "properties": {
        "location_name": "Arjawinangun",
        "slug": "arjawinangun",
        "date": "Minggu, 4 Oktober 2026",
        "date_iso": "2026-10-04",
        "relative": "Lusa",
        "hour": "12:00",
        "rain_probability": 16.3,
        "risk_score": 52,
        "risk_class": "watch",
        "risk_label": "Perlu diperhatikan",
        "condition": "Berawan",
        "temp_c": 36.0,
        "humidity_pct": 38.0,
        "heat_index_c": 36.2,
        "wind_kmh": 14.0,
        "wind_dir": 90.0,
        "cloud_pct": 96.0
      }
    },
    {
      "type": "Feature",
      "geometry": {
        "type": "Point",
        "coordinates": [
          108.4103,
          -6.6453
        ]
      },
      "properties": {
        "location_name": "Arjawinangun",
        "slug": "arjawinangun",
        "date": "Minggu, 4 Oktober 2026",
        "date_iso": "2026-10-04",
        "relative": "Lusa",
        "hour": "13:00",
        "rain_probability": 16.0,
        "risk_score": 52,
        "risk_class": "watch",
        "risk_label": "Perlu diperhatikan",
        "condition": "Berawan",
        "temp_c": 35.6,
        "humidity_pct": 38.0,
        "heat_index_c": 36.0,
        "wind_kmh": 18.2,
        "wind_dir": 79.0,
        "cloud_pct": 93.0
      }
    },
    {
      "type": "Feature",
      "geometry": {
        "type": "Point",
        "coordinates": [
          108.4103,
          -6.6453
        ]
      },
      "properties": {
        "location_name": "Arjawinangun",
        "slug": "arjawinangun",
        "date": "Minggu, 4 Oktober 2026",
        "date_iso": "2026-10-04",
        "relative": "Lusa",
        "hour": "14:00",
        "rain_probability": 33.1,
        "risk_score": 38,
        "risk_class": "watch",
        "risk_label": "Perlu diperhatikan",
        "condition": "Hujan Ringan",
        "temp_c": 34.8,
        "humidity_pct": 39.5,
        "heat_index_c": 35.7,
        "wind_kmh": 19.1,
        "wind_dir": 71.0,
        "cloud_pct": 89.0
      }
    },
    {
      "type": "Feature",
      "geometry": {
        "type": "Point",
        "coordinates": [
          108.4103,
          -6.6453
        ]
      },
      "properties": {
        "location_name": "Arjawinangun",
        "slug": "arjawinangun",
        "date": "Minggu, 4 Oktober 2026",
        "date_iso": "2026-10-04",
        "relative": "Lusa",
        "hour": "15:00",
        "rain_probability": 38.3,
        "risk_score": 38,
        "risk_class": "watch",
        "risk_label": "Perlu diperhatikan",
        "condition": "Hujan Ringan",
        "temp_c": 32.8,
        "humidity_pct": 50.0,
        "heat_index_c": 35.57,
        "wind_kmh": 14.8,
        "wind_dir": 67.0,
        "cloud_pct": 84.0
      }
    },
    {
      "type": "Feature",
      "geometry": {
        "type": "Point",
        "coordinates": [
          108.4103,
          -6.6453
        ]
      },
      "properties": {
        "location_name": "Arjawinangun",
        "slug": "arjawinangun",
        "date": "Minggu, 4 Oktober 2026",
        "date_iso": "2026-10-04",
        "relative": "Lusa",
        "hour": "16:00",
        "rain_probability": 31.3,
        "risk_score": 38,
        "risk_class": "watch",
        "risk_label": "Perlu diperhatikan",
        "condition": "Berawan",
        "temp_c": 31.8,
        "humidity_pct": 53.3,
        "heat_index_c": 34.79,
        "wind_kmh": 16.2,
        "wind_dir": 68.0,
        "cloud_pct": 81.0
      }
    },
    {
      "type": "Feature",
      "geometry": {
        "type": "Point",
        "coordinates": [
          108.4103,
          -6.6453
        ]
      },
      "properties": {
        "location_name": "Arjawinangun",
        "slug": "arjawinangun",
        "date": "Minggu, 4 Oktober 2026",
        "date_iso": "2026-10-04",
        "relative": "Lusa",
        "hour": "17:00",
        "rain_probability": 28.9,
        "risk_score": 33,
        "risk_class": "watch",
        "risk_label": "Perlu diperhatikan",
        "condition": "Hujan Ringan",
        "temp_c": 30.8,
        "humidity_pct": 58.1,
        "heat_index_c": 33.64,
        "wind_kmh": 13.0,
        "wind_dir": 72.0,
        "cloud_pct": 83.0
      }
    },
    {
      "type": "Feature",
      "geometry": {
        "type": "Point",
        "coordinates": [
          108.4103,
          -6.6453
        ]
      },
      "properties": {
        "location_name": "Arjawinangun",
        "slug": "arjawinangun",
        "date": "Minggu, 4 Oktober 2026",
        "date_iso": "2026-10-04",
        "relative": "Lusa",
        "hour": "18:00",
        "rain_probability": 33.5,
        "risk_score": 36,
        "risk_class": "watch",
        "risk_label": "Perlu diperhatikan",
        "condition": "Hujan Ringan",
        "temp_c": 28.9,
        "humidity_pct": 67.0,
        "heat_index_c": 32.69,
        "wind_kmh": 10.3,
        "wind_dir": 82.0,
        "cloud_pct": 87.0
      }
    },
    {
      "type": "Feature",
      "geometry": {
        "type": "Point",
        "coordinates": [
          108.4103,
          -6.6453
        ]
      },
      "properties": {
        "location_name": "Arjawinangun",
        "slug": "arjawinangun",
        "date": "Minggu, 4 Oktober 2026",
        "date_iso": "2026-10-04",
        "relative": "Lusa",
        "hour": "19:00",
        "rain_probability": 31.6,
        "risk_score": 37,
        "risk_class": "watch",
        "risk_label": "Perlu diperhatikan",
        "condition": "Berawan",
        "temp_c": 27.9,
        "humidity_pct": 71.0,
        "heat_index_c": 31.0,
        "wind_kmh": 5.9,
        "wind_dir": 95.0,
        "cloud_pct": 97.0
      }
    },
    {
      "type": "Feature",
      "geometry": {
        "type": "Point",
        "coordinates": [
          108.4103,
          -6.6453
        ]
      },
      "properties": {
        "location_name": "Arjawinangun",
        "slug": "arjawinangun",
        "date": "Minggu, 4 Oktober 2026",
        "date_iso": "2026-10-04",
        "relative": "Lusa",
        "hour": "20:00",
        "rain_probability": 8.3,
        "risk_score": 20,
        "risk_class": "safe",
        "risk_label": "Aman",
        "condition": "Berawan",
        "temp_c": 28.0,
        "humidity_pct": 74.0,
        "heat_index_c": 30.41,
        "wind_kmh": 5.9,
        "wind_dir": 112.0,
        "cloud_pct": 93.0
      }
    },
    {
      "type": "Feature",
      "geometry": {
        "type": "Point",
        "coordinates": [
          108.4103,
          -6.6453
        ]
      },
      "properties": {
        "location_name": "Arjawinangun",
        "slug": "arjawinangun",
        "date": "Minggu, 4 Oktober 2026",
        "date_iso": "2026-10-04",
        "relative": "Lusa",
        "hour": "21:00",
        "rain_probability": 7.0,
        "risk_score": 20,
        "risk_class": "safe",
        "risk_label": "Aman",
        "condition": "Berawan",
        "temp_c": 26.5,
        "humidity_pct": 80.0,
        "heat_index_c": 26.5,
        "wind_kmh": 5.9,
        "wind_dir": 141.0,
        "cloud_pct": 90.0
      }
    },
    {
      "type": "Feature",
      "geometry": {
        "type": "Point",
        "coordinates": [
          108.4103,
          -6.6453
        ]
      },
      "properties": {
        "location_name": "Arjawinangun",
        "slug": "arjawinangun",
        "date": "Minggu, 4 Oktober 2026",
        "date_iso": "2026-10-04",
        "relative": "Lusa",
        "hour": "22:00",
        "rain_probability": 4.6,
        "risk_score": 19,
        "risk_class": "safe",
        "risk_label": "Aman",
        "condition": "Berawan",
        "temp_c": 27.8,
        "humidity_pct": 76.0,
        "heat_index_c": 29.81,
        "wind_kmh": 5.76,
        "wind_dir": 160.0,
        "cloud_pct": 85.0
      }
    },
    {
      "type": "Feature",
      "geometry": {
        "type": "Point",
        "coordinates": [
          108.4103,
          -6.6453
        ]
      },
      "properties": {
        "location_name": "Arjawinangun",
        "slug": "arjawinangun",
        "date": "Minggu, 4 Oktober 2026",
        "date_iso": "2026-10-04",
        "relative": "Lusa",
        "hour": "23:00",
        "rain_probability": 2.7,
        "risk_score": 18,
        "risk_class": "safe",
        "risk_label": "Aman",
        "condition": "Berawan",
        "temp_c": 27.1,
        "humidity_pct": 79.0,
        "heat_index_c": 28.94,
        "wind_kmh": 5.4,
        "wind_dir": 204.0,
        "cloud_pct": 86.0
      }
    }
  ]
}